OSCAR 7 (AO-7)          
1 07530U 74089B   26276.26943382 -.00000052  00000+0 -35052-4 0  9990
2 07530 101.9912 290.6440 0011948 285.5781 138.4131 12.53699834374065
PHASE 3B (AO-10)        
1 14129U 83058B   26276.14817977 -.00000150  00000+0  00000+0 0  9993
2 14129  25.9833 201.9435 5976563 145.2340 274.6807  2.05869834297718
UOSAT 2 (UO-11)         
1 14781U 84021B   26276.14154750  .00000755  00000+0  81936-4 0  9993
2 14781  97.8208 240.6073 0007478 175.5190 184.6097 14.91027617273211
LUSAT (LO-19)           
1 20442U 90005G   26276.32236739  .00000037  00000+0  30034-4 0  9997
2 20442  98.8803 301.0847 0010559 246.8050 113.2022 14.34147281917898
EYESAT A (AO-27)        
1 22825U 93061C   26276.17118016  .00000033  00000+0  29332-4 0  9994
2 22825  98.6770 343.4848 0009141 138.3023 221.8858 14.30964472722440
ITAMSAT (IO-26)         
1 22826U 93061D   26276.18822690  .00000031  00000+0  28526-4 0  9998
2 22826  98.6717 343.4306 0009882 123.0520 237.1614 14.31393635722769
RADIO ROSTO (RS15)      
1 23439U 94085A   26276.22794144 -.00000050  00000+0 -20518-3 0  9998
2 23439  64.8138 128.4831 0159613 344.5492  15.0592 11.27584090308084
JAS-2 (FO-29)           
1 24278U 96046B   26275.95840601 -.00000037  00000+0 -22592-5 0  9999
2 24278  98.5150 110.0504 0349893 176.5847 183.7804 13.53278593487745
TECHSAT 1B (GO-32)      
1 25397U 98043D   26276.23790923  .00000016  00000+0  27263-4 0  9998
2 25397  99.0168 271.7723 0000238 258.3402 101.7749 14.24445267466719
ISS (ZARYA)             
1 25544U 98067A   26276.04623379  .00005750  00000+0  11349-3 0  9994
2 25544  51.6314 126.3061 0006899 216.4733 143.5786 15.48722558588472
PCSAT (NO-44)           
1 26931U 01043C   26275.85963249  .00000044  00000+0  47516-4 0  9991
2 26931  67.0517 325.7752 0005965 274.1374  85.9046 14.31988449305868
SAUDISAT 1C (SO-50)     
1 27607U 02058C   26276.10717038  .00000380  00000+0  62852-4 0  9994
2 27607  64.5520 155.0335 0070880 242.5684 116.8202 14.83237977280463
CUTE-1 (CO-55)          
1 27844U 03031E   26276.28710662  .00000153  00000+0  85270-4 0  9991
2 27844  98.6771 283.5071 0008661 227.3113 132.7338 14.24389054207063
CUBESAT XI-IV (CO-57)   
1 27848U 03031J   26275.97869510  .00000118  00000+0  70998-4 0  9999
2 27848  98.6804 282.8283 0008373 249.5739 110.4540 14.23666563206712
MOZHAETS 4 (RS22)       
1 27939U 03042A   26276.32702839  .00000526  00000+0  88929-4 0  9998
2 27939  98.3476 103.7777 0010055 288.5023 195.5257 14.73621046231475
CUBESAT XI-V            
1 28895U 05043F   26276.15646241  .00000773  00000+0  12897-3 0  9992
2 28895  98.3124  74.1577 0013243 219.3073 140.7173 14.72859156117640
CUTE-1.7+APD II (CO-65) 
1 32785U 08021C   26276.20483199  .00002547  00000+0  15956-3 0  9991
2 32785  97.8406 260.0128 0009506  31.6362 328.5437 15.10291900  1507
SEEDS II (CO-66)        
1 32791U 08021J   26276.25599491  .00011459  00000+0  32830-3 0  9998
2 32791  97.7577 279.6331 0000595 358.7996   1.3246 15.36091564  3855
YUBILEINY (RS30)        
1 32953U 08025A   26276.34146796 -.00000010  00000+0 -14391-3 0  9993
2 32953  82.4992 288.1680 0020687  76.7732 283.5654 12.43183237833131
KKS-1 (KISEKI)          
1 33499U 09002H   26276.26145845  .00000718  00000+0  94478-4 0  9998
2 33499  98.1177 200.4146 0006715 307.2464  52.8136 14.83347757952218
SWISSCUBE               
1 35932U 09051B   26276.19320276  .00000533  00000+0  11448-3 0  9991
2 35932  98.3942 185.9153 0005564 231.7882 128.2818 14.62648107904947
BEESAT-1                
1 35933U 09051C   26275.71231621  .00000445  00000+0  98929-4 0  9996
2 35933  98.3867 184.8327 0003961 250.8825 109.1947 14.61859812904894
ITUPSAT1                
1 35935U 09051E   26275.72924208  .00000405  00000+0  93474-4 0  9995
2 35935  98.3947 183.9243 0006171 266.2960  93.7534 14.60569853904431
XIWANG-1 (HOPE-1)       
1 36122U 09072B   26276.31447756  .00000178  00000+0  58265-3 0  9996
2 36122 100.4164 228.4680 0007577 352.4845   7.6153 13.16442224807230
O/OREOS (USA 219)       
1 37224U 10062C   26276.20481311  .00001084  00000+0  10724-3 0  9999
2 37224  71.9704 195.5858 0015896 225.0787 134.9095 14.94089283132778
JUGNU                   
1 37839U 11058B   26275.94818696  .00000379  00000+0  58330-4 0  9999
2 37839  19.9618  13.7188 0018399 186.3667 332.7328 14.13802581774291
SRMSAT                  
1 37841U 11058D   26276.25302789  .00000345  00000+0  43496-4 0  9998
2 37841  19.9709 125.3526 0011698 313.1263 205.6080 14.11595909773101
STRAND-1                
1 39090U 13009E   26276.24614982  .00000148  00000+0  64160-4 0  9996
2 39090  98.3971  93.8692 0007469 268.0399  91.9932 14.37213977712580
ZACUBE-1 (TSHEPISOSAT)  
1 39417U 13066B   26276.16468719  .00002522  00000+0  19488-3 0  9998
2 39417  97.8192 239.0992 0037593 249.2694 110.4499 15.01929183696939
GOMX-1                  
1 39430U 13066Q   26276.30810950  .00000554  00000+0  89129-4 0  9990
2 39430  97.6421 109.9549 0129439  89.8980 271.7059 14.69738517685794
CUBEBUG-2 (LO-74)       
1 39440U 13066AA  26276.08870454  .00003003  00000+0  27566-3 0  9999
2 39440  97.9021 225.6266 0057892  30.9922 329.4692 14.94370684693105
FUNCUBE-1 (AO-73)       
1 39444U 13066AE  26276.19315400  .00003647  00000+0  22093-3 0  9994
2 39444  97.8419 250.0764 0034703 192.8398 167.1951 15.10766015695962
UWE-3                   
1 39446U 13066AG  26275.67238329  .00002324  00000+0  19943-3 0  9993
2 39446  97.8823 232.5843 0047665 322.2547  37.5334 14.97661187693660
UNISAT-6                
1 40012U 14033C   26276.29726496  .00001474  00000+0  16082-3 0  9991
2 40012  97.8026  67.2404 0045838  72.5628 288.0593 14.88696532662249
QB50P1                  
1 40025U 14033R   26276.31560538  .00004020  00000+0  19220-3 0  9998
2 40025  98.0960 295.1657 0007756 205.1419 154.9437 15.19634477669446
LILACSAT-2              
1 40908U 15049K   26276.31612292  .00011744  00000+0  17778-3 0  9998
2 40908  97.4531 317.4660 0005711 199.6770 160.4265 15.54816136612533
FOX-1A (AO-85)          
1 40967U 15058D   26276.05573267  .00001299  00000+0  12264-3 0  9991
2 40967  64.7732 303.6128 0140334  16.4859 344.0747 14.91439511129658
CAS-2T & KS-1Q          
1 41847U 16066G   26276.13846837  .00000852  00000+0  12742-3 0  9999
2 41847  98.3732 350.6210 0341559 161.7720 199.6075 14.44876145520385
RADFXSAT (FOX-1B)       
1 43017U 17073E   26276.24400617  .00005419  00000+0  23153-3 0  9995
2 43017  97.4518 141.2513 0145443 315.5392  43.4238 15.14141915481736
DIWATA-2B               
1 43678U 18084H   26276.32449021  .00000798  00000+0  68018-4 0  9997
2 43678  98.1156 117.2921 0012966 168.2982 191.8544 15.00769955432438
ES'HAIL 2               
1 43700U 18090A   26274.20669840  .00000143  00000+0  00000+0 0  9994
2 43700   0.0124 237.4244 0001266 334.5555 258.1863  1.00272059 28744
FOX-1CLIFF (AO-95)      
1 43770U 18099N   26276.14910418  .00007066  00000+0  25568-3 0  9996
2 43770  97.4260 336.0820 0007180 335.2511  24.8383 15.28710133429700
ITASAT                  
1 43786U 18099AE  26276.07625217  .00003844  00000+0  18043-3 0  9995
2 43786  97.3906 325.4505 0011413 342.7533  17.3313 15.20182667429297
JY1SAT (JO-97)          
1 43803U 18099AX  26276.16008238  .00010581  00000+0  29654-3 0  9999
2 43803  97.4004 339.5452 0004242 230.2680 129.8191 15.36782377430195
UWE-4                   
1 43880U 18111E   26276.25974821  .00028834  00000+0  46296-3 0  9990
2 43880  97.5831 210.1677 0003368 309.7677  50.3279 15.53000920427511
TIANYAN 01              
1 44881U 19093C   26276.27828663  .00000190  00000+0  27386-4 0  9991
2 44881  97.7425 345.8222 0014954  91.0348 269.2581 14.86649691367479
RS-44 & BREEZE-KM R/B   
1 44909U 19096E   26276.28366322  .00000019  00000+0  40374-4 0  9997
2 44909  82.5164 267.8691 0216351 251.5527 106.1948 12.79749510316170
SALSAT                  
1 46495U 20068K   26275.76193327  .00004276  00000+0  14505-3 0  9990
2 46495  97.8886 285.5115 0007640 287.9728  72.0678 15.31112837331811
XW-3 (CAS-9)            
1 50466U 21131B   26276.27595341  .00000177  00000+0  68053-4 0  9998
2 50466  98.4966   8.0748 0005084 125.8268 234.3394 14.41436445250686
GREENCUBE (IO-117)      
1 53109U 22080E   26275.88464133 -.00000003  00000+0  00000+0 0  9991
2 53109  70.1207 260.7789 0009170 266.8336  93.1275  6.42583797 98989
UMKA 1 (RS40S)          
1 57172U 23091G   26276.29057895  .00003402  00000+0  15253-3 0  9992
2 57172  97.4926 334.5775 0013989 101.4194 258.8614 15.21824108180448
CUBESX-HSE 3 (RS42S)    
1 57178U 23091N   26276.24220410  .00008159  00000+0  25355-3 0  9996
2 57178  97.4974 343.3133 0011118  72.5847 287.6610 15.33554190180976
MONITOR-3 (RS58S)       
1 57180U 23091Q   26276.26129840  .00006400  00000+0  22484-3 0  9993
2 57180  97.4963 340.5755 0012460  80.7967 279.4682 15.29669794180803
MONITOR-4 (RS57S)       
1 57182U 23091S   26276.23405081  .00006123  00000+0  21463-3 0  9994
2 57182  97.4956 340.5253 0012453  81.0145 279.2504 15.29762912180801
MONITOR-2 (RS39S)       
1 57184U 23091U   26276.25725982  .00002677  00000+0  12836-3 0  9997
2 57184  97.4947 333.8297 0012570  96.2742 263.9924 15.19716616180363
SVYATOBOR 1 (RS60S)     
1 57187U 23091X   26276.28505926  .00005326  00000+0  19657-3 0  9999
2 57187  97.4970 340.7515 0010400  75.4419 284.7973 15.28155440180819
VIZARD-METEO (RS38S)    
1 57189U 23091Z   26276.24308507  .00010234  00000+0  26602-3 0  9995
2 57189  97.4980 348.0767 0007346  53.5549 306.6373 15.39109635181296
POLYTECH-UNIVERSE 3 (R*)
1 57191U 23091AB  26276.26921470  .00002665  00000+0  12676-3 0  9995
2 57191  97.4924 333.3471 0016679 111.1580 249.1439 15.19939518180361
UTMN 2 (RS27S)          
1 57203U 23091AP  26276.26770848  .00007946  00000+0  24109-3 0  9991
2 57203  97.4973 345.1035 0008319  63.0102 297.1989 15.34353923181106
KUZGTU 1 (RS47S)        
1 57217U 23091AV  26276.20602826  .00007290  00000+0  23824-3 0  9995
2 57217  97.4945 341.8851 0011627  77.0050 283.2489 15.31976407180905
SONATE-2                
1 59112U 24043Q   26275.89214431  .00041465  00000+0  38021-3 0  9991
2 59112  97.5634  73.6903 0005312 162.7220 197.4222 15.67638200144715
MESAT1                  
1 60209U 24125G   26276.06326717  .00107396  00000+0  59949-3 0  9990
2 60209  97.2063 137.0209 0007433 152.8539 207.3119 15.79057607126490
GRBBETA                 
1 60237U 24128C   26276.17784214  .00001822  00000+0  13383-3 0  9995
2 60237  61.9888 197.1886 0024744 158.5440 201.6696 15.07261476122541
OOV-CUBE (TUBSAT-30)    
1 60240U 24128F   26276.30036664  .00001009  00000+0  89295-4 0  9996
2 60240  61.9941 208.4731 0029129 159.2013 201.0271 15.03146604122360
COLIBRI-S (RS67S)       
1 61746U 24199M   26276.27029936  .00016309  00000+0  27216-3 0  9999
2 61746  97.2756 151.3259 0005305 237.1945 122.8798 15.52022553154155
HORS 3 (RS81S)          
1 61753U 24199U   26276.25431692  .00033696  00000+0  37149-3 0  9995
2 61753  97.2761 154.7489 0003041 206.2263 153.8842 15.63036024154396
HORS 4 (RS82S)          
1 61754U 24199V   26276.27729821  .00068413  00000+0  52064-3 0  9990
2 61754  97.2688 156.9562 0003257 172.9932 187.1378 15.72066870154556
SIT-2086                
1 61764U 24199AF  26276.23513338  .00033416  00000+0  39656-3 0  9998
2 61764  97.2717 154.8279 0004304 191.9704 168.1452 15.61122553151248
ALTAIR (RS65S)          
1 61779U 24199AW  26276.24940573  .00006116  00000+0  16129-3 0  9997
2 61779  97.2841 144.9250 0010232 278.4989  81.5097 15.38808865153723
ASRTU-1 (AO-123)        
1 61781U 24199AY  26276.28114546  .00005194  00000+0  14521-3 0  9996
2 61781  97.2809 143.9802 0011475 282.3361  77.6599 15.37060790150524
SAMSAT-IONOSPHERE (RS7*)
1 61784U 24199BB  26276.27020801  .00057488  00000+0  50150-3 0  9999
2 61784  97.2714 155.4080 0004447 209.2747 150.8266 15.68803197154445
RTU MIREA 1 (RS51S)     
1 61785U 24199BC  26276.18855310  .00093190  00000+0  57393-3 0  9997
2 61785  97.2681 156.9995 0004081 183.7453 176.3784 15.76910814151397
LASARSAT                
1 62391U 24247Q   26275.55894158  .00026615  00000+0  41590-3 0  9998
2 62391  44.9728  15.7863 0010029 305.5482  54.4475 15.53310341 99975
CROCUBE                 
1 62394U 24247T   26276.28517665  .00036082  00000+0  49794-3 0  9990
2 62394  44.9704   6.6971 0010472 321.2505  38.7636 15.56554520100142
TEVEL2-4                
1 63213U 25052D   26276.16737839  .00011833  00000+0  31752-3 0  9992
2 63213  97.3735 172.9199 0004795  84.7515 275.4277 15.38099205 86699
TEVEL2-5                
1 63214U 25052E   26275.94184875  .00012771  00000+0  34514-3 0  9995
2 63214  97.3734 172.6059 0004680  86.8637 273.3144 15.37858025 86650
TEVEL2-6                
1 63215U 25052F   26276.15172552  .00011791  00000+0  31913-3 0  9990
2 63215  97.3737 172.8017 0004638  86.8699 273.3077 15.37833099 86683
TEVEL2-1                
1 63217U 25052H   26275.96244577  .00011954  00000+0  33058-3 0  9990
2 63217  97.3712 172.0965 0004881  94.5941 265.5861 15.37158429 86634
TEVEL2-3                
1 63218U 25052J   26275.69190295  .00010571  00000+0  29194-3 0  9998
2 63218  97.3716 171.8638 0004601  95.3969 264.7801 15.37234841 86595
TEVEL2-2                
1 63219U 25052K   26275.96187986  .00011956  00000+0  33047-3 0  9992
2 63219  97.3711 172.1005 0004911  95.3971 264.7834 15.37175193 86635
OTP-2                   
1 63235U 25052AB  26275.66626099  .00003706  00000+0  15028-3 0  9993
2 63235  97.3703 166.4939 0007369 131.9979 228.1888 15.25225556 86247
TEVEL2-9                
1 63237U 25052AD  26275.95786624  .00011034  00000+0  32799-3 0  9995
2 63237  97.3772 171.2150 0007817 110.2889 249.9195 15.34896378 86543
TEVEL2-7                
1 63238U 25052AE  26275.95711680  .00010515  00000+0  31647-3 0  9990
2 63238  97.3777 171.0779 0007747 111.8701 248.3367 15.34517442 86531
TEVEL2-8                
1 63239U 25052AF  26276.09665552  .00011147  00000+0  33537-3 0  9995
2 63239  97.3771 171.1919 0007928 108.7881 251.4223 15.34511610 86557
INNOSAT 16 (RS92S7)     
1 64878U 25155C   26276.26436368  .00003679  00000+0  14375-3 0  9999
2 64878  97.4716 243.2127 0010892 154.9930 205.1839 15.26464803 97150
GEOSCAN 6 (RS92S6)      
1 64879U 25155D   26276.27798773  .00006767  00000+0  22136-3 0  9997
2 64879  97.4701 245.4790 0008642 140.7438 219.4432 15.32002684 97307
GEOSCAN 1 (RS92S1)      
1 64880U 25155E   26276.23235490  .00007087  00000+0  22628-3 0  9999
2 64880  97.4696 245.6878 0008548 140.3059 219.8810 15.32764023 97318
239ALFEROV (RS61S)      
1 64881U 25155F   26276.28457464  .00009453  00000+0  27484-3 0  9996
2 64881  97.4691 246.7178 0008285 137.0470 223.1422 15.35640738 97380
GEOSCAN 2 (RS92S2)      
1 64890U 25155Q   26276.27348627  .00007369  00000+0  23341-3 0  9997
2 64890  97.4695 245.9226 0008306 128.1141 232.0851 15.33008370 97337
GEOSCAN 5 (RS92S5)      
1 64891U 25155R   26276.25256879  .00009821  00000+0  28290-3 0  9996
2 64891  97.4683 246.8619 0007145 139.0916 221.0865 15.35930357 97392
GEOSCAN 4 (RS92S4)      
1 64892U 25155S   26276.22408427  .00009986  00000+0  28576-3 0  9991
2 64892  97.4689 246.9186 0007019 138.5484 221.6294 15.36134068 97391
GEOSCAN 3 (RS92S3)      
1 64893U 25155T   26276.25587256  .00012375  00000+0  32396-3 0  9994
2 64893  97.4672 247.7476 0007103 135.9346 224.2467 15.38840009 97456
INNOSAT 3 (RS92S0)      
1 64894U 25155U   26276.27696823  .00036853  00000+0  60961-3 0  9994
2 64894  97.4614 251.0800 0007120 125.2708 234.9211 15.52096440 97683
KNACKSAT-2              
1 67683U 98067YA  26276.06488435  .00062235  00000+0  48478-3 0  9992
2 67683  51.6229 107.6320 0008530 242.9374 117.0754 15.71067525 37175
MARINA                  
1 69920U 26156BD  26275.99212026  .00001271  00000+0  13021-3 0  9999
2 69920  97.7430 174.9962 0006292 214.5123 145.5688 14.92217270 13076
