UNKNOWN                 
1 81011U          26272.55743212  .00001725  00000+0  94770-3 0  9993
2 81011  99.3595 298.2458 0133413  65.3602 296.1395 14.08686664 24446
UNKNOWN                 
1 81015U          26269.30864675  .00002067  00000+0  11322-2 0  9994
2 81015  99.3606 294.8626 0134011  74.3536 343.6215 14.08575185 23143
UNKNOWN                 
1 81021U          26277.28992275  .00000853  00000+0  31412-3 0  9999
2 81021  74.0377 135.6041 0025719 148.5301 211.7396 14.33896363 28306
UNKNOWN                 
1 81036U          26277.67853562  .00001745  00000+0  34636-2 0  9994
2 81036  66.0970 100.5275 2601906  92.0593 297.6910  9.33786278 49336
UNKNOWN                 
1 81052U          26277.50447563  .00003697  00000+0  10114-2 0  9997
2 81052  65.7722   0.1917 0544459 164.5536 197.2923 13.85852678641261
UNKNOWN                 
1 81069U          26276.51110508  .00002533  00000+0  32788-2 0  9990
2 81069 100.3786 200.9623 0069482  34.8998 325.6668 13.62342685556049
UNKNOWN                 
1 81072U          26268.50295615  .00294207  00000+0  24131+0 0  9998
2 81072  89.0047  11.8303 0005468 258.8960 101.1597 13.87211087   298
UNKNOWN                 
1 81111U          26277.62024584  .00012024  00000+0  21512-2 0  9998
2 81111  62.8586  98.1881 3820465   9.3988 356.1417  7.64889733294433
UNKNOWN                 
1 81123U          26277.51067594  .00000744  00000+0  73537-3 0  9998
2 81123  99.9691  20.6909 0002399  49.9527 310.1834 13.82215259647134
UNKNOWN                 
1 81219U          26275.37283264  .00000358  00000+0  31775-3 0  9999
2 81219  82.9264 145.5474 0022104 103.2858 257.0769 13.82058193648071
UNKNOWN                 
1 81228U          26276.50010810  .00001511  00000+0  44956-3 0  9997
2 81228  70.5186 333.3415 0060009 280.2905  79.1467 14.43895019668607
UNKNOWN                 
1 81254U          26276.55555151  .00002506  00000+0  15953-2 0  9992
2 81254 100.3823  24.4698 0070126  11.4136 348.8597 14.03637662654225
UNKNOWN                 
1 81279U          26275.33255929  .00000497  00000+0  20327-3 0  9993
2 81279  98.0935 315.7293 0204990 243.6057 114.3952 14.20556199504279
UNKNOWN                 
1 81301U          26273.42865501  .00000028  00000+0  10083-3 0  9998
2 81301  66.7594 319.1112 0084722  30.2592 343.5851 13.76862155646519
UNKNOWN                 
1 81311U          26275.45400528  .00000192  00000+0  50097-4 0  9990
2 81311  98.6974 351.0232 0129611 306.5802 115.9620 14.56904424682356
UNKNOWN                 
1 81317U          26275.66242605  .00000021  00000+0  14197-3 0  9990
2 81317  67.1349 249.3309 0214820 191.9049 345.7804 13.38130842627955
UNKNOWN                 
1 81323U          26276.28884777  .00003255  00000+0  42204-3 0  9990
2 81323  65.7477 278.8077 0306687 157.6120 203.8711 14.54532521155809
UNKNOWN                 
1 81343U          26275.83527826  .00003827  00000+0  25170-3 0  9999
2 81343  85.8870  41.6444 0000354  96.7872 263.3404 15.07281433498570
UNKNOWN                 
1 81359U          26274.81725946  .00000497  00000+0  53212-3 0  9994
2 81359  66.7968  70.2452 0109876 127.7714 233.3374 13.79257641645892
UNKNOWN                 
1 81366U          26272.93402156  .00000218  00000+0  10318-3 0  9999
2 81366  65.8797 102.3716 0724156 301.1201  52.0736 13.45761658105130
UNKNOWN                 
1 81371U          26269.62096745  .00003492  00000+0  54268-3 0  9999
2 81371  98.8327  34.8548 0067644 185.4381 174.6097 14.72276668684177
UNKNOWN                 
1 81386U          26275.84141993  .00002579  00000+0  81217-3 0  9991
2 81386  71.0454  76.8036 0087031 337.8293  21.9087 14.39157119666515
UNKNOWN                 
1 81390U          26269.96619580  .00000121  00000+0  12813-2 0  9990
2 81390 103.0950 182.7773 0181379   0.6338 359.4920 12.35646434535693
UNKNOWN                 
1 81392U          26273.03053667  .00001742  00000+0  16245-2 0  9996
2 81392 100.4019 296.2948 0036995  11.0053  17.4297 13.83311916642437
UNKNOWN                 
1 81405U          26257.38309362  .00001150  00000+0  88260-3 0  9997
2 81405  99.4490 314.8088 0159447 205.7089 153.6080 13.89596879600079
UNKNOWN                 
1 81406U          26276.55531171 -.00000061  00000+0  10791-4 0  9999
2 81406  65.8184 210.6989 0861034 189.7492 168.5859 13.12996178572373
UNKNOWN                 
1 81427U          26268.90472860  .00000539  00000+0  33557-3 0  9994
2 81427  98.7136 146.4234 0083841 309.8517  49.5298 14.07362369592159
UNKNOWN                 
1 81438U          26270.94516428  .00002249  00000+0  32483-2 0  9998
2 81438 100.3450 160.9913 0052027  75.7762 284.9145 13.56112869631126
UNKNOWN                 
1 81439U          26277.48624228  .00000155  00000+0  57755-3 0  9997
2 81439  67.1594 289.9636 0595862  20.1498 342.1996 12.62736896299230
UNKNOWN                 
1 81478U          26276.25455587  .00001645  00000+0  58567-3 0  9991
2 81478  98.9485 201.2271 0140995 222.5370 295.5484 14.30326523665011
UNKNOWN                 
1 81488U          26275.15100203  .00000209  00000+0  35859-3 0  9996
2 81488  99.9605 156.6744 0044684 351.3210 162.9774 13.56723169636412
UNKNOWN                 
1 81497U          26273.60098409  .00002347  00000+0  20762-2 0  9999
2 81497 100.2945 201.5238 0028891 344.5149 193.9407 13.86058944256702
UNKNOWN                 
1 81499U          26276.66212036  .00001211  00000+0  33008-3 0  9991
2 81499  74.0492  29.5353 0001192  42.0138 318.1112 14.48463344525108
UNKNOWN                 
1 81535U          26277.41136062  .00000364  00000+0  16417-3 0  9993
2 81535  98.1745 340.1462 0233731  12.5781 348.1091 14.13991737429175
UNKNOWN                 
1 81536U          26277.09940821  .00000465  00000+0  30931-2 0  9992
2 81536 101.9672 146.8720 0028721  50.1927 107.0884 12.56205921588892
UNKNOWN                 
1 81537U          26277.53534371  .00000119  00000+0  95679-4 0  9999
2 81537  71.0392 217.1856 0074981  65.5795 295.3123 14.07259529662074
UNKNOWN                 
1 81552U          26273.94572459  .00000491  00000+0  11226-2 0  9993
2 81552  99.0530 165.4707 0258401  36.8845 324.9742 13.18630942617757
UNKNOWN                 
1 81599U          26276.97588997  .00001428  00000+0  25966-2 0  9991
2 81599  67.2977   2.1180 0253303 232.8382 305.4006 13.31776120624380
UNKNOWN                 
1 81605U          26276.76793289  .00000366  00000+0  19509-2 0  9994
2 81605  56.4350  97.7383 0122653 182.4533 177.5805 12.81705521224022
UNKNOWN                 
1 81614U          26274.93050991  .00003432  00000+0  19697-1 0  9991
2 81614 101.8732 267.9009 0400107 324.9195  32.6108 12.40061028574282
UNKNOWN                 
1 81615U          26277.11328620  .00000485  00000+0  19555-3 0  9992
2 81615  65.8234  93.1363 0773230 358.5486   1.3311 13.35212379622282
UNKNOWN                 
1 81617U          26277.23151820  .00000244  00000+0  16974-2 0  9997
2 81617 101.2874  84.1435 0033378  10.2052 349.9695 12.57744504590252
UNKNOWN                 
1 81624U          26274.84971263  .00002246  00000+0  34571-3 0  9998
2 81624  66.9726  74.6368 0062369 343.5276  16.3819 14.74211308682879
UNKNOWN                 
1 81640U          26277.19091282  .00000242  00000+0  26445-3 0  9996
2 81640  65.8232 247.7210 0989785 317.6665  35.1894 12.57395340547229
UNKNOWN                 
1 81652U          26274.83715955  .00000696  00000+0  86490-3 0  9996
2 81652 102.1477 229.1371 0364320  63.5423 327.7104 13.44727639618041
UNKNOWN                 
1 81667U          26277.06432583  .00001103  00000+0  29597-3 0  9992
2 81667  74.0391 203.2026 0012977  61.5867 298.6599 14.49301788499418
UNKNOWN                 
1 81674U          26274.61892345  .00000751  00000+0  46528-3 0  9995
2 81674  66.8241 346.3784 0024278 356.4304 151.7335 14.10499777655019
UNKNOWN                 
1 81683U          26276.90561494  .00001553  00000+0  32528-3 0  9993
2 81683  81.2150 343.5869 0025391 114.7147 245.6698 14.59135273678885
UNKNOWN                 
1 81693U          26268.33152739  .00000359  00000+0  28215-2 0  9990
2 81693 101.1211 303.7716 0378636 261.9066  93.8883 12.26271357   135
UNKNOWN                 
1 81745U          26273.95313081  .00000926  00000+0  30024-3 0  9993
2 81745  70.9975 107.1780 0003797 114.0046 246.1488 14.41553779671845
UNKNOWN                 
1 81749U          26276.23574171  .00000074  00000+0  38441-3 0  9995
2 81749  99.6716 268.7762 0363648 285.3444 140.3856 12.77694480599612
UNKNOWN                 
1 81775U          26277.45260640  .00002855  00000+0  82638-3 0  9998
2 81775  82.9183 338.4058 0016846  50.1390 310.1283 14.44156067667910
UNKNOWN                 
1 81792U          26276.02923432  .00001320  00000+0  51008-3 0  9997
2 81792  65.8036 153.8294 0883502 152.2125 212.9154 13.11664198118625
UNKNOWN                 
1 81812U          26275.33632370  .00005326  00000+0  34671-1 0  9996
2 81812 103.6874 229.3482 0299580  84.3861 279.1276 12.39508726576919
UNKNOWN                 
1 81816U          26276.26265846  .00000418  00000+0  36273-3 0  9992
2 81816  66.2361 281.3974 0162017  73.9697 287.9152 13.90150280650275
UNKNOWN                 
1 81819U          26274.27357656  .00000587  00000+0  42642-2 0  9998
2 81819 102.1810  20.6779 0034309 282.9356  76.7881 12.48039601584500
UNKNOWN                 
1 81824U          26277.22544429  .00002101  00000+0  71858-3 0  9994
2 81824  65.8389 248.5692 0040455 195.8285 164.1549 14.37928933667048
UNKNOWN                 
1 81838U          26277.17951481  .00002969  00000+0  62983-3 0  9994
2 81838  67.7582 211.6649 0034496  81.5725 350.7263 14.60086537676429
UNKNOWN                 
1 81844U          26276.65583775  .00003563  00000+0  11977-2 0  9997
2 81844  82.9104  40.2405 0057080 326.3733  33.3839 14.36035396665177
UNKNOWN                 
1 81845U          26276.30176719  .00001019  00000+0  11346-3 0  9991
2 81845  97.6800  98.1115 0086686  55.1065 118.7219 14.86563891693265
UNKNOWN                 
1 81864U          26275.77434411  .00000375  00000+0  16925-3 0  9990
2 81864  65.6686  98.8909 0771512 247.0155 104.7745 13.33098125590025
UNKNOWN                 
1 81865U          26277.12328492  .00000659  00000+0  52738-3 0  9990
2 81865  82.8062 160.4993 0060198 244.4209 270.8537 13.88696968649530
UNKNOWN                 
1 81893U          26276.27827357  .00000592  00000+0  64612-3 0  9990
2 81893 100.0647 281.3202 0020356 232.8734 127.0554 13.77259908644618
UNKNOWN                 
1 81899U          26277.68193363  .00000848  00000+0  20452-2 0  9992
2 81899 102.4145  78.0388 0176976 306.4972  51.9946 13.21112349618056
UNKNOWN                 
1 81921U          26272.93828425  .00000550  00000+0  24201-3 0  9992
2 81921  65.7043 111.5919 0852532 349.1227   9.2335 13.15994468 64099
UNKNOWN                 
1 81946U          26252.55844112  .00000388  00000+0  14134-2 0  9998
2 81946  66.4207 351.5308 0679901 221.3303 149.3405 12.42730267581538
UNKNOWN                 
1 81947U          26276.11087334  .00001471  00000+0  14120-3 0  9992
2 81947  66.0715  64.8136 0377101 318.9424  38.3846 14.55605801673827
UNKNOWN                 
1 81964U          26277.29499503  .00000108  00000+0  13611-3 0  9996
2 81964  66.5834 244.6565 0043482 253.9186 105.7103 13.95956740655292
UNKNOWN                 
1 81969U          26275.28559431  .00005333  00000+0  26941-3 0  9990
2 81969  86.6862  25.2397 0005261 144.6013 215.5578 15.16854891484593
UNKNOWN                 
1 81995U          26277.14815241  .00004857  00000+0  95776-3 0  9992
2 81995  65.7444  69.1219 0495275 150.3974 212.6150 14.06750363645741
UNKNOWN                 
1 82043U          26277.63655989  .00001057  00000+0  29773-3 0  9995
2 82043  97.9680  47.4895 0226460 272.7287  84.8001 14.33872955616236
UNKNOWN                 
1 82051U          26277.01223553  .00002690  00000+0  85034-3 0  9990
2 82051  98.7417  12.4722 0089563 105.9908 255.1167 14.38754741614838
UNKNOWN                 
1 82073U          26276.09006540  .00001054  00000+0  27027-3 0  9997
2 82073  97.7205 328.9938 0205288 107.7506 254.6204 14.40210640617475
UNKNOWN                 
1 82139U          26277.18369917  .00001352  00000+0  67787-3 0  9999
2 82139  99.0056 353.5885 0080358 283.4531  75.7697 14.16717611521937
UNKNOWN                 
1 82162U          26277.14294484  .00002003  00000+0  29354-2 0  9998
2 82162 100.4494 223.7957 0044754 241.3062 118.3570 13.55550133544302
UNKNOWN                 
1 82180U          26275.43578750  .00006823  00000+0  86701-3 0  9993
2 82180  65.6493 171.7817 0271738  61.2071 301.6031 14.59609202644502
UNKNOWN                 
1 82189U          26276.54398858  .00000175  00000+0  70075-4 0  9996
2 82189  74.0339 227.6790 0016749 342.5224  17.5350 14.35381232674716
UNKNOWN                 
1 82199U          26277.52494076  .00000325  00000+0  26778-3 0  9992
2 82199  82.9705  11.4490 0035732 274.4035  98.9234 13.86055854650669
UNKNOWN                 
1 82205U          26276.18252274  .00000673  00000+0  20351-3 0  9990
2 82205  63.0034 128.1718 0508270 322.9363  33.7559 13.94718994649054
UNKNOWN                 
1 82223U          26275.51336408  .00001104  00000+0  60451-3 0  9993
2 82223  99.3003 177.9171 0066407 246.4618 112.9567 14.13061413490266
UNKNOWN                 
1 82250U          26274.23510429  .00001875  00000+0  95597-3 0  9992
2 82250  98.8980 184.0462 0071265  78.4247  73.5702 14.15620952657994
UNKNOWN                 
1 82272U          26268.62100025  .00000617  00000+0  20461-2 0  9999
2 82272  67.5280  41.0468 0756208 282.3422  69.3994 12.33719713307327
UNKNOWN                 
1 82303U          26277.26522490  .00017673  00000+0  11259-1 0  9992
2 82303  81.9315 104.1984 0065148 243.8532 291.8596 14.02458965555631
UNKNOWN                 
1 82311U          26275.84149572  .00000423  00000+0  65306-3 0  9998
2 82311  99.4096 321.0355 0107858 284.3525  74.5659 13.54898881590141
UNKNOWN                 
1 82363U          26272.05607591  .00000279  00000+0  52933-3 0  9996
2 82363  66.9385 292.2422 0457728 338.8114  19.4490 13.15808757328459
UNKNOWN                 
1 82369U          26277.27766677 -.00000141  00000+0 -66274-4 0  9996
2 82369  98.8900 288.3207 0082571 241.6397 117.6423 13.98314668598475
UNKNOWN                 
1 82381U          26277.66297204  .00018962  00000+0  17652-2 0  9990
2 82381  98.3748 164.4353 0005306 288.0299  72.0341 14.94335471554823
UNKNOWN                 
1 82402U          26277.30459900  .00003282  00000+0  21829-3 0  9999
2 82402  86.6523  27.3576 0011476 168.1638 191.9871 15.06758163498931
UNKNOWN                 
1 82432U          26277.03054849  .00000627  00000+0  13584-3 0  9994
2 82432  74.0043 136.8785 0056002 228.7582 130.8751 14.59486286525970
UNKNOWN                 
1 82448U          26276.30897216  .00003093  00000+0  20406-3 0  9994
2 82448  85.8783  41.4110 0000360   5.3229 354.8010 15.07092441481364
UNKNOWN                 
1 82453U          26274.84688968 -.00000005  00000+0  30312-3 0  9997
2 82453 102.2176 236.5421 0094498  27.1677 333.4287 12.39731707582386
UNKNOWN                 
1 82458U          26269.95428704  .00001995  00000+0  87888-3 0  9996
2 82458  66.5107 151.3502 0055030 183.8015 176.2669 14.24681528651077
UNKNOWN                 
1 82484U          26276.76439326  .00000069  00000+0  15696-3 0  9993
2 82484  99.3417 288.0260 0044671 165.1850 195.0609 13.55910654630610
UNKNOWN                 
1 82494U          26275.07783928  .00009113  00000+0  81054-3 0  9997
2 82494  74.0027 152.1981 0008061 207.4505 152.6254 14.96177615128704
UNKNOWN                 
1 82500U          26276.23862541  .00001396  00000+0  62694-3 0  9997
2 82500  70.9633  99.4750 0120367  25.8823 334.8255 14.20342601660742
UNKNOWN                 
1 82524U          26276.58310251  .00001345  00000+0  41958-3 0  9991
2 82524  73.2794 334.9407 0127402  89.8247 341.9094 14.37441445619372
UNKNOWN                 
1 82529U          26249.45716500  .00000124  00000+0  25503-3 0  9991
2 82529  99.7763 329.2886 0240420 307.7365 112.3703 13.41512640625636
UNKNOWN                 
1 82560U          26272.14697074  .00000748  00000+0  63333-3 0  9997
2 82560 100.0116 241.7203 0009458 268.1025 153.9256 13.91301476652246
UNKNOWN                 
1 82597U          26276.12365155  .00000711  00000+0  25989-3 0  9996
2 82597  66.7703  92.1721 0085646  90.8262 270.2655 14.36652585671253
UNKNOWN                 
1 82617U          26277.10538392  .00000302  00000+0  85122-4 0  9995
2 82617  74.0277  49.0493 0039282 279.5493  80.1229 14.49747624679625
UNKNOWN                 
1 82627U          26269.33688187  .00000397  00000+0  10041-2 0  9990
2 82627  82.4772  43.4728 0014656 124.2262 263.6743 13.16676344616674
UNKNOWN                 
1 82642U          26276.02760678  .00000877  00000+0  49627-3 0  9993
2 82642  98.9652 189.7469 0133972 131.6679 229.6050 14.08220697657545
UNKNOWN                 
1 82683U          26277.38802041  .00000554  00000+0  22274-3 0  9990
2 82683  98.1389 328.7433 0208127 249.2065 108.6707 14.20772631504242
UNKNOWN                 
1 82693U          26277.27124822  .00001536  00000+0  17706-2 0  9997
2 82693 100.5301 273.2730 0044193   7.9341 352.2492 13.70860022594238
UNKNOWN                 
1 82698U          26276.90264306  .00000394  00000+0  26534-3 0  9994
2 82698  61.6031  79.1235 0703113  38.3051 326.5797 13.30350445577639
UNKNOWN                 
1 82708U          26271.42278295  .00001007  00000+0  39507-2 0  9995
2 82708 102.1457 147.4879 0067511  56.1272 304.6220 12.91075362560891
UNKNOWN                 
1 82729U          26276.95947408  .00000252  00000+0  95892-3 0  9991
2 82729  67.9737 355.2171 0836065 168.8035 193.2920 12.18102362571153
UNKNOWN                 
1 82739U          26274.91114115  .00001201  00000+0  10100-2 0  9990
2 82739  99.1132  66.7074 0170256 227.2765 286.7724 13.83475444646632
UNKNOWN                 
1 82741U          26277.65477720  .00002388  00000+0  25601-2 0  9990
2 82741 102.8451  53.7053 0195500 321.7430  36.9965 13.67367086637504
UNKNOWN                 
1 82798U          26262.45591271  .00001184  00000+0  50666-3 0  9995
2 82798  82.9509 326.5773 0030149  45.1891 327.5395 14.23972341352311
UNKNOWN                 
1 82820U          26276.83168472  .00001399  00000+0  48782-3 0  9995
2 82820  99.7886 122.4138 0046604 253.8761 105.7288 14.36652116667984
UNKNOWN                 
1 82854U          26270.10793237  .00001202  00000+0  92789-3 0  9998
2 82854  82.6912 198.2478 0122981 182.0979 177.9686 13.88684491647817
UNKNOWN                 
1 82873U          26276.27024856  .00001872  00000+0  79834-3 0  9996
2 82873  99.9934 216.1679 0036184 181.7841 178.3211 14.26246669663191
UNKNOWN                 
1 82875U          26275.69307832  .00000147  00000+0  51386-4 0  9998
2 82875  98.7075 257.4555 0376884 159.5787 202.0926 14.15576162586052
UNKNOWN                 
1 82893U          26276.11273816  .00004269  00000+0  14852-2 0  9994
2 82893  98.9680  46.9033 0023058 257.1708 102.6899 14.35834807466166
UNKNOWN                 
1 82912U          26277.55766588  .00000567  00000+0  27917-3 0  9992
2 82912  65.8340 211.6881 0755953 133.5690 233.0717 13.29207644618622
UNKNOWN                 
1 82961U          26276.35439906  .00003643  00000+0  55695-2 0  9995
2 82961  99.6754  59.9029 0361202  24.8697 336.9364 13.29263034594782
UNKNOWN                 
1 82965U          26264.48549092  .00000556  00000+0  80182-3 0  9998
2 82965 100.1104 358.1555 0003118 140.5402 219.5964 13.60529169562898
UNKNOWN                 
1 83903U          26275.95643105 -.00000323  00000+0  00000+0 0  9995
2 83903   5.4684 288.1799 0124604 259.7258 125.0826  0.99115879 46587
UNKNOWN                 
1 83934U          26276.85795366 -.00000317  00000+0  00000+0 0  9999
2 83934   5.1288 295.7823 0237213 278.7473 178.4290  1.02664726 48316
UNKNOWN                 
1 84006U          26273.78179046  .00000009  00000+0  00000+0 0  9997
2 84006  22.8453 118.1311 6137268 162.6424 234.7276  2.16232061 90540
UNKNOWN                 
1 84232U          26276.82729371  .00003024  00000+0  25387-2 0  9996
2 84232  20.3445  96.6478 6439766  24.8674 355.8459  3.33844404114335
UNKNOWN                 
1 84236U          26277.28498793  .00000986  00000+0  55421-2 0  9998
2 84236   9.0014 199.2209 6905143   0.1138 359.9469  2.63096029121750
UNKNOWN                 
1 84292U          26277.11017688  .00000899  00000+0  65162-3 0  9999
2 84292  23.8258 111.1544 4534861 231.7951  78.0194  6.23104659246479
UNKNOWN                 
1 84406U          26263.22981486  .00000261  00000+0  15952-2 0  9993
2 84406 101.7444  56.3037 0047560 202.3336 332.2102 12.67647254 84953
UNKNOWN                 
1 84407U          26276.93824926 -.00000619  00000+0 -29343-1 0  9998
2 84407  18.6208 234.0599 7239538 223.6544  48.5796  2.05827728 81958
UNKNOWN                 
1 84575U          26265.34012952  .00000246  00000+0  96340-2 0  9991
2 84575  18.6855  62.5030 7131720 197.2475 112.9008  2.19915006 71705
UNKNOWN                 
1 84932U          26277.41151975 -.00000418  00000+0 -45036-2 0  9997
2 84932   2.2221  71.8536 6551503  26.6486 135.8680  3.00174313140664
UNKNOWN                 
1 85004U          26277.19187574  .00000556  00000+0  18183-3 0  9992
2 85004  98.4578 249.6632 0046718 355.7067  17.0414 14.41693694673461
UNKNOWN                 
1 85006U          26269.37137836  .00001736  00000+0  86691-3 0  9991
2 85006  98.8388 320.7750 0007103  48.6105 311.5680 14.18131574 17416
UNKNOWN                 
1 85010U          26276.10777253  .00000605  00000+0  67034-3 0  9992
2 85010  99.2243 133.8363 0023731 199.6613 311.8793 13.75616515644380
UNKNOWN                 
1 85015U          26277.49107466  .00000226  00000+0  50356-4 0  9992
2 85015  74.0504 192.1056 0014987  15.7972 344.3659 14.62580731685847
UNKNOWN                 
1 85023U          26275.49183051  .00015314  00000+0  15727-2 0  9998
2 85023  99.8319   3.3494 0002782 166.6742 259.5714 14.90515120672379
UNKNOWN                 
1 85027U          26277.25189751  .00000053  00000+0  12596-3 0  9997
2 85027  66.0391  97.8314 0171069  28.0892 332.9272 13.74356155645221
UNKNOWN                 
1 85047U          26277.06142986  .00008042  00000+0  12121-1 0  9995
2 85047 102.1700 310.7532 0110347  87.0480 274.3267 13.50668962616449
UNKNOWN                 
1 85061U          26276.98914598  .00002021  00000+0  79349-2 0  9994
2 85061 102.4057 293.4811 0270768 331.6956  54.2600 12.78909034593504
UNKNOWN                 
1 85100U          26275.62095500  .00000171  00000+0  61609-4 0  9997
2 85100  74.0469  39.3684 0012646 199.3827 173.7507 14.40910183675679
UNKNOWN                 
1 85106U          26276.23700676  .00000410  00000+0  49509-3 0  9998
2 85106 100.0740  36.8273 0009149 344.6434 132.0796 13.73243222643486
UNKNOWN                 
1 85151U          26276.91212265  .00012953  00000+0  13293-2 0  9990
2 85151  98.3798 161.7767 0005533 288.1065  71.9548 14.90542450523342
UNKNOWN                 
1 85210U          26276.18878134  .00000487  00000+0  50331-3 0  9992
2 85210  99.8837  70.6733 0213011 280.1222 260.2346 13.71949932642523
UNKNOWN                 
1 85217U          26277.18862107  .00000752  00000+0  20654-3 0  9993
2 85217  98.0192 357.3692 0203667 314.6037  43.8689 14.38396516670318
UNKNOWN                 
1 85237U          26273.12955762  .00000983  00000+0  20942-3 0  9991
2 85237  65.5314 167.9766 0518430 256.4659  97.8176 14.03608315649212
UNKNOWN                 
1 85238U          26277.60378564  .00000025  00000+0  55478-4 0  9998
2 85238  99.0741 203.5957 0064089 120.2746   4.4565 13.88387085651892
UNKNOWN                 
1 85246U          26277.23341249  .00000479  00000+0  18182-3 0  9999
2 85246  98.0048 258.4290 0221576 151.5649 209.7834 14.22267295665066
UNKNOWN                 
1 85373U          26277.20264909  .00001501  00000+0  10237-2 0  9993
2 85373 100.4095 359.3166 0050187 180.7883 207.4927 14.01230820653495
UNKNOWN                 
1 87014U          26275.75941368  .00001374  00000+0  21162-2 0  9993
2 87014 100.4730 261.3200 0044623 253.6733 279.7805 13.53131517630668
UNKNOWN                 
1 87029U          26274.54287996  .00000349  00000+0  23500-3 0  9995
2 87029  98.7302 304.1308 0082619 147.7967 212.8285 14.05049984634110
UNKNOWN                 
1 87042U          26277.36301476  .00000283  00000+0  19111-3 0  9993
2 87042  98.6831 314.5215 0042418 342.1454  17.8223 14.07530136595542
UNKNOWN                 
1 87051U          26276.99279557  .00001394  00000+0  48973-3 0  9997
2 87051  65.7257 269.8374 0714936   6.0156 354.8924 13.46932141628333
UNKNOWN                 
1 87054U          26277.49251004  .00001022  00000+0  58641-3 0  9994
2 87054 100.0806 198.2807 0011601 270.9986  88.9852 14.12115175658058
UNKNOWN                 
1 87071U          26276.82362394  .00001555  00000+0  55516-3 0  9993
2 87071  61.2145 112.9545 0484388  24.4623 337.8577 13.87863633643413
UNKNOWN                 
1 87129U          26277.49276203  .00000095  00000+0  10160-2 0  9997
2 87129 102.2611  16.9693 0033363 252.9211 106.8198 12.42928082583418
UNKNOWN                 
1 87159U          26272.70465556  .00000686  00000+0  78302-3 0  9999
2 87159  90.3468  79.9090 0104606 113.0910 248.1318 13.66720926596423
UNKNOWN                 
1 87163U          26277.16433151  .00001720  00000+0  48992-3 0  9997
2 87163  65.5986 226.3593 0655929 294.1645  59.2186 13.65470201617838
UNKNOWN                 
1 87164U          26276.49109072  .00002058  00000+0  40305-3 0  9990
2 87164  65.2008 189.7220 0121467 291.1007  67.7143 14.60756844678799
UNKNOWN                 
1 87204U          26277.40410976  .00001077  00000+0  42532-3 0  9999
2 87204  98.5092 137.1641 0044134 172.5811 187.6035 14.30481699667699
UNKNOWN                 
1 87211U          26276.33158498  .00001324  00000+0  36284-3 0  9998
2 87211  99.0784 302.7428 0051563   2.8923  10.1243 14.48231324750395
UNKNOWN                 
1 87214U          26277.03569937  .00001315  00000+0  11893-2 0  9991
2 87214 100.3214 309.8341 0067805 213.7906 145.8915 13.84921878641103
UNKNOWN                 
1 87237U          26277.11695140  .00000268  00000+0  23458-3 0  9998
2 87237  99.2199 336.4230 0103110 204.4600 185.6361 13.91981291652851
UNKNOWN                 
1 87239U          26277.02275718  .00004720  00000+0  10489-2 0  9991
2 87239  82.8731 190.9304 0015287 173.5080 186.6322 14.56805230670806
UNKNOWN                 
1 87245U          26277.59951613  .00001854  00000+0  37121-3 0  9993
2 87245  65.6393 334.6186 0434319 334.2972  95.9406 14.18426492656130
UNKNOWN                 
1 87271U          26277.41133580  .00002439  00000+0  41533-3 0  9990
2 87271  65.7521 158.6109 0425592 280.3129  75.0251 14.25422716654464
UNKNOWN                 
1 87280U          26277.23634054  .00000130  00000+0  32817-3 0  9993
2 87280  64.6151 224.3811 0116047 199.3697 160.2914 13.48802059573709
UNKNOWN                 
1 87293U          26277.19017397  .00005312  00000+0  10114-2 0  9999
2 87293  65.8949  77.3768 0418906 201.0071 157.3362 14.21184789655940
UNKNOWN                 
1 87300U          26259.31839935  .00001108  00000+0  78411-3 0  9996
2 87300 100.0897 275.0872 0025232 270.5311  89.2959 14.00204202651952
UNKNOWN                 
1 87304U          26277.23336546  .00000675  00000+0  10198-3 0  9997
2 87304  74.0156 101.9881 0017571 352.4322   7.6584 14.76340154690074
UNKNOWN                 
1 87320U          26276.90348537  .00000684  00000+0  45111-3 0  9994
2 87320  66.5912  99.4758 0423052 227.4506 129.0124 13.70905381634194
UNKNOWN                 
1 87334U          26276.72864807  .00012492  00000+0  61171-2 0  9995
2 87334  90.0069 271.7323 0065449  22.5728 337.8315 14.16664977428285
UNKNOWN                 
1 87335U          26277.24083495  .00013052  00000+0  62684-2 0  9993
2 87335  89.9947 267.5971 0082455   3.2035 356.9664 14.17034374428690
UNKNOWN                 
1 87405U          26277.46378813  .00001195  00000+0  82992-3 0  9996
2 87405  82.7532 186.6353 0058017 200.0333 159.8558 13.97288690652442
UNKNOWN                 
1 87426U          26277.32678448  .00002117  00000+0  80969-3 0  9998
2 87426  65.7815 251.3407 0053657 150.5231 279.9614 14.31970048664883
UNKNOWN                 
1 87448U          26272.16885184  .00000755  00000+0  63208-3 0  9999
2 87448 100.4314 159.4967 0060662 170.2068 190.0284 13.91330147649613
UNKNOWN                 
1 87456U          26274.06219291  .00006049  00000+0  85505-3 0  9995
2 87456  65.7682  32.0216 0503781 216.4872 140.0892 14.16921776652870
UNKNOWN                 
1 87517U          26277.52055733  .00000688  00000+0  22381-3 0  9992
2 87517  65.8248 230.8906 0658181 164.7949 314.0244 13.63113930633202
UNKNOWN                 
1 87541U          26274.40524457  .00000054  00000+0  18680-3 0  9991
2 87541  99.6721 118.2331 0058968 274.5305 206.4501 13.35682902621109
UNKNOWN                 
1 87553U          26275.65567569  .00000523  00000+0  20040-3 0  9997
2 87553  65.6724   3.8347 0675934  95.4786 272.3697 13.54924185631051
UNKNOWN                 
1 87557U          26276.99317333  .00003773  00000+0  80625-2 0  9995
2 87557 101.8539 178.5671 0071332  65.6533 295.2009 13.30107348604254
UNKNOWN                 
1 87561U          26275.89806939 -.00000105  00000+0 -48801-3 0  9992
2 87561 101.9731 329.8227 0174850 114.0438  60.5453 12.32144387578660
UNKNOWN                 
1 87565U          26273.28291428  .00000722  00000+0  40800-3 0  9992
2 87565  99.9459 298.7062 0171729 101.3167 260.7348 14.06624604657414
UNKNOWN                 
1 87569U          26277.32118847 -.00000037  00000+0  59947-4 0  9991
2 87569 101.9916 111.1204 0055815  33.6262 141.5038 12.68550486595949
UNKNOWN                 
1 87587U          26276.74296179  .00000098  00000+0  39265-4 0  9998
2 87587  74.0221 277.2992 0021509 243.9564 115.9377 14.40189622676279
UNKNOWN                 
1 87590U          26274.91271156  .00000366  00000+0  22835-3 0  9999
2 87590  98.7563 309.9284 0026923 171.6112 312.1013 14.10652436195575
UNKNOWN                 
1 87616U          26277.01317924  .00000358  00000+0  13934-2 0  9996
2 87616  66.0345 287.8472 0627329  11.9009  13.4574 12.47092603573059
UNKNOWN                 
1 87624U          26277.11895464  .00003623  00000+0  53491-3 0  9997
2 87624  98.7099 239.7118 0094251  43.2574 317.5983 14.72985925623726
UNKNOWN                 
1 87650U          26275.96642881  .00004962  00000+0  88645-3 0  9996
2 87650 100.2512 168.5492 0028054 129.9958 230.3708 14.67306812122844
UNKNOWN                 
1 87672U          26272.24239750  .00001486  00000+0  59706-3 0  9999
2 87672  70.8614  98.3902 0055839 189.3473 170.6623 14.28980934665947
UNKNOWN                 
1 87681U          26275.83010225  .00000228  00000+0  30656-3 0  9997
2 87681  66.7354 121.7468 0156832 323.5768  35.4708 13.71603746642165
UNKNOWN                 
1 87690U          26275.79452028  .00002992  00000+0  41405-3 0  9997
2 87690  65.7921 307.2410 0585325 258.5176  94.9650 14.03244725648600
UNKNOWN                 
1 87706U          26277.05057644  .00001385  00000+0  24142-3 0  9995
2 87706  98.6621 121.9389 0102839  70.5554  81.2306 14.66427772621773
UNKNOWN                 
1 87730U          26276.98433090  .00000065  00000+0  52582-4 0  9990
2 87730  82.9491  15.6440 0028598 260.2502  99.5424 13.74548056625895
UNKNOWN                 
1 87737U          26276.89677067 -.00000005  00000+0  38618-4 0  9990
2 87737  99.3294 146.6547 0133570 139.3834 221.7371 13.72382894644344
UNKNOWN                 
1 87764U          26276.83981574  .00002989  00000+0  45737-3 0  9996
2 87764  65.6695  66.7274 0365264 285.5669 145.7422 14.39171976661534
UNKNOWN                 
1 87771U          26275.79246017  .00000022  00000+0  16387-3 0  9999
2 87771 100.7212 123.1121 0120224  55.5624 305.6783 13.19589202573876
UNKNOWN                 
1 87782U          26275.22546605  .00002486  00000+0  80907-2 0  9999
2 87782 102.4119 192.2142 0075364 351.0527   8.9223 13.02024835606162
UNKNOWN                 
1 87843U          26277.48301899  .00000585  00000+0  14043-2 0  9997
2 87843  99.6587  11.8755 0230953  31.5652 329.9086 13.17486180603091
UNKNOWN                 
1 87845U          26277.52408982 -.00000570  00000+0 -98161-3 0  9995
2 87845  98.8656 182.5345 0575128 292.4888  61.6309 12.89869674603333
UNKNOWN                 
1 87878U          26272.14167851  .00001586  00000+0  49055-3 0  9995
2 87878  99.1843  57.8758 0035447 131.3988 229.0256 14.42425515653148
UNKNOWN                 
1 87884U          26275.53386598  .00000032  00000+0  41486-4 0  9995
2 87884  98.7429  14.2094 0152873 321.8612  37.1815 14.06149538659652
UNKNOWN                 
1 87934U          26265.76606391  .00000079  00000+0  68649-4 0  9992
2 87934  82.9318  89.8019 0030034 328.6780  42.4572 13.73148579643299
UNKNOWN                 
1 87991U          26264.90973645  .00002963  00000+0  57758-2 0  9990
2 87991  28.6204 150.2500 0889610 170.2341 191.6764 12.35711374558030
UNKNOWN                 
1 89003U          26277.46092297  .00000119  00000+0  49606-4 0  9992
2 89003  74.0480 191.8042 0015594 181.7190 178.3912 14.36362442674004
UNKNOWN                 
1 89005U          26276.21706745  .00001948  00000+0  43965-3 0  9998
2 89005  97.8506  88.7812 0187137 203.5605 155.6936 14.47106698576662
UNKNOWN                 
1 89029U          26275.49416423  .00002616  00000+0  22866-3 0  9994
2 89029  98.0280 187.6344 0022659  72.1531 288.2159 14.97502108695005
UNKNOWN                 
1 89055U          26253.24579042  .00000035  00000+0  57973-3 0  9999
2 89055 101.5830 259.0727 0031265  21.3392 338.8969 12.39650008579377
UNKNOWN                 
1 89101U          26275.55344670 -.00000118  00000+0 -22367-3 0  9999
2 89101 100.4829 208.2622 0146345 173.2371 187.0754 13.04070974593143
UNKNOWN                 
1 89132U          26267.49562303  .00000225  00000+0  35152-3 0  9995
2 89132  63.4138  77.8065 2916380 319.7833  21.9533  8.88169977350482
UNKNOWN                 
1 89146U          26277.10341014  .00001330  00000+0  24248-3 0  9995
2 89146  98.2620 211.6505 0088826 208.6393 150.9916 14.65239468672105
UNKNOWN                 
1 89172U          26277.04834255  .00004769  00000+0  71129-3 0  9990
2 89172  82.0604 303.2784 0274231  87.4701 275.7855 14.52207117644689
UNKNOWN                 
1 89177U          26270.66855472  .00000049  00000+0  35510-4 0  9992
2 89177  82.9201  54.8991 0033494  60.0920 300.3555 13.73767606102495
UNKNOWN                 
1 89183U          26277.55711117  .00000403  00000+0  38886-3 0  9993
2 89183  99.2060 186.8365 0131084  88.6871 272.9296 13.81896308647820
UNKNOWN                 
1 89184U          26276.49340995  .00017153  00000+0  15483-2 0  9995
2 89184  98.3639 163.2766 0005270 261.8197  98.2424 14.95576342536031
UNKNOWN                 
1 89213U          26275.88190982  .00000227  00000+0  16981-3 0  9998
2 89213  98.7403 138.0894 0228217  38.5645 323.1574 13.91855514493588
UNKNOWN                 
1 89251U          26274.59633909  .00000339  00000+0  23124-3 0  9999
2 89251  62.4887 338.5161 2802020 128.1205 260.7144  9.29808345400367
UNKNOWN                 
1 89261U          26271.23965971  .00000485  00000+0  15520-3 0  9998
2 89261  98.1751 258.7332 0013033   5.6946 354.4391 14.43606715575574
UNKNOWN                 
1 89304U          26277.58104880  .00052764  00000+0  21521-1 0  9997
2 89304  84.0562  20.4776 2821770 312.5843  36.2176  9.34828385465550
UNKNOWN                 
1 89379U          26277.05261275  .00003503  00000+0  43763-2 0  9993
2 89379 100.4891 319.8098 0046035 121.3300 239.2357 13.64753780621034
UNKNOWN                 
1 89395U          26276.40104495  .00000157  00000+0  22411-2 0  9998
2 89395 102.4058 233.6247 0226772 345.0587 171.6169 12.01602741560131
UNKNOWN                 
1 89403U          26274.76740616  .00000901  00000+0  30030-2 0  9999
2 89403  90.2572  12.5444 0032428 169.3254 344.9394 12.99080412515867
UNKNOWN                 
1 89493U          26275.94715946  .00001328  00000+0  65555-3 0  9992
2 89493  99.0095 353.8866 0079081 283.2962  75.9402 14.17640712505610
UNKNOWN                 
1 89494U          26276.15648656  .00001361  00000+0  67159-3 0  9999
2 89494  99.0093 353.9405 0079789 282.9611  76.2662 14.17577207505497
