METOP-B                 
1 38771U 12049A   26273.21214599  .00000037  00000+0  36794-4 0  9997
2 38771  98.6388 322.5580 0003108  60.2263 299.9224 14.21461851728182
SARAL                   
1 39086U 13009A   26273.20304331  .00000023  00000+0  24334-4 0  9999
2 39086  98.5559  98.4610 0001825  15.2932 344.8307 14.32909622710640
METOP-C                 
1 43689U 18087A   26273.08647154  .00000040  00000+0  38354-4 0  9999
2 43689  98.7316 330.8793 0000353  88.2721 271.8497 14.21475363409735
OTB-3-GAZELLE           
1 54023U 22127A   26273.20224232  .00000040  00000+0  25176-4 0  9993
2 54023  98.4052 263.3617 0012125 228.7422 131.2724 14.42704454209501
EOS-6 (OCEANSAT-3)      
1 54361U 22158A   26273.26951042  .00000124  00000+0  46026-4 0  9994
2 54361  98.3557  10.0716 0001975  67.0408 293.0993 14.46984024203035
KINEIS-1B               
1 60079U 24114A   26273.26905880  .00000287  00000+0  44139-4 0  9993
2 60079  97.9794 296.9451 0003815 108.0779 252.0849 14.80760366122954
KINEIS-1C               
1 60081U 24114C   26273.30275339  .00000276  00000+0  42685-4 0  9992
2 60081  97.9814 296.8510 0001402 134.5408 225.5919 14.80757795122931
KINEIS-1D               
1 60082U 24114D   26273.29706260  .00000263  00000+0  45137-4 0  9994
2 60082  97.9864 292.2895 0001324 152.7837 207.3442 14.76434119122637
KINEIS-1E               
1 60083U 24114E   26273.25160936  .00000338  00000+0  50582-4 0  9998
2 60083  97.8921 295.0178 0001848 196.0615 164.0540 14.80785178122932
KINEIS-1A               
1 60084U 24114F   26273.28633638  .00000397  00000+0  58314-4 0  9992
2 60084  97.8894 295.1181 0004865 143.9119 216.2423 14.80750698122949
KINEIS-3C               
1 61220U 24172A   26273.20855867  .00001107  00000+0  18281-3 0  9999
2 61220  98.0406   1.9778 0002107 139.1139 221.0227 14.72359904108525
KINEIS-3D               
1 61221U 24172B   26273.20205420  .00001102  00000+0  18211-3 0  9992
2 61221  98.0405   1.9806 0002042 134.8477 225.2897 14.72349888108802
KINEIS-3E               
1 61222U 24172C   26273.25177235  .00000959  00000+0  15914-3 0  9996
2 61222  98.0400   2.0081 0001604 115.4859 244.6515 14.72410105108811
KINEIS-3A               
1 61223U 24172D   26273.23606611  .00001090  00000+0  18001-3 0  9997
2 61223  98.0397   2.0864 0003188 109.1685 250.9867 14.72366804108234
KINEIS-3B               
1 61224U 24172E   26273.08303976  .00001091  00000+0  18017-3 0  9997
2 61224  98.0392   1.9514 0003161  96.3660 263.7908 14.72364588108786
KINEIS-5C               
1 62081U 24219A   26273.26393183  .00000348  00000+0  62623-4 0  9997
2 62081  97.9165  69.2796 0003044 320.2036  39.8948 14.72329594 99210
KINEIS-5D               
1 62082U 24219B   26273.27845591  .00000517  00000+0  88885-4 0  9990
2 62082  97.9282  69.4955 0003785 304.1348  55.9500 14.72602601 99226
KINEIS-5E               
1 62083U 24219C   26273.24146412  .00000317  00000+0  57873-4 0  9995
2 62083  97.9126  69.3088 0005100 294.5126  65.5550 14.72301357 99225
KINEIS-5A               
1 62084U 24219D   26273.28624435  .00001891  00000+0  30723-3 0  9998
2 62084  97.9068  69.5799 0003845 350.2626   9.8506 14.72254800 99234
KINEIS-5B               
1 62085U 24219E   26273.22316124  .00000596  00000+0  88705-4 0  9991
2 62085  98.0179  76.5376 0000775 325.7290  34.3870 14.78510861 99529
KINEIS-2C               
1 62929U 25028B   26273.10165417  .00000685  00000+0  11308-3 0  9994
2 62929  98.1133 327.5678 0002450 303.2353  56.8619 14.73591796 88062
KINEIS-2D               
1 62930U 25028C   26273.07424418  .00000735  00000+0  11415-3 0  9996
2 62930  97.9177 323.4594 0002514 201.9646 158.1456 14.75936858 88183
KINEIS-2E               
1 62931U 25028D   26273.08611693  .00000620  00000+0  94541-4 0  9996
2 62931  97.8847 322.4434 0001455 120.0187 240.1168 14.77234243 88265
KINEIS-2A               
1 62932U 25028E   26273.07867489  .00000659  00000+0  10912-3 0  9993
2 62932  98.1192 328.6067 0004650 176.2564 183.8679 14.73592227 88057
KINEIS-2B               
1 62934U 25028G   26273.12408434  .00000650  00000+0  10746-3 0  9998
2 62934  97.9559 324.0379 0004019 156.2402 203.8992 14.73594705 88118
KINEIS-4E               
1 63300U 25056A   26273.18120796  .00000839  00000+0  14024-3 0  9997
2 63300  97.9159  34.2356 0002130 147.1731 212.9610 14.72340121 82575
KINEIS-4C               
1 63301U 25056B   26273.26214904  .00000857  00000+0  14323-3 0  9994
2 63301  97.9212  34.6126 0003333   8.9269 351.1998 14.72308957 82599
KINEIS-4D               
1 63302U 25056C   26273.26593340  .00000860  00000+0  14351-3 0  9994
2 63302  97.9132  34.5134 0002658  30.6372 329.4990 14.72385628 82595
KINEIS-4A               
1 63303U 25056D   26273.30065413  .00000838  00000+0  14025-3 0  9998
2 63303  97.9228  34.5889 0000869   2.7412 357.3800 14.72317447 82590
KINEIS-4B               
1 63304U 25056E   26273.28329994  .00000832  00000+0  13927-3 0  9997
2 63304  97.9240  34.6405 0004653 332.5154  27.5807 14.72316604 82588
