BEIDOU-2 IGSO-1 (C06)   
1 36828U 10036A   26256.66970756 -.00000130  00000+0  00000+0 0  9997
2 36828  54.3037 162.1610 0058541 217.4777 320.7749  1.00289463 58981
BEIDOU-2 G4 (C04)       
1 37210U 10057A   26274.65894918 -.00000114  00000+0  00000+0 0  9992
2 37210   3.9049  68.1674 0008903 180.8477 158.6077  1.00272984 58355
BEIDOU-2 IGSO-2 (C07)   
1 37256U 10068A   26273.94211554 -.00000175  00000+0  00000+0 0  9991
2 37256  47.3603 270.5068 0057111 216.4511 326.3582  1.00247735 57854
BEIDOU-2 IGSO-3 (C08)   
1 37384U 11013A   26273.98959521 -.00000176  00000+0  00000+0 0  9992
2 37384  62.5640  39.1658 0034758 184.5512 249.1326  1.00287450 56729
BEIDOU-2 IGSO-4 (C09)   
1 37763U 11038A   26273.75193078 -.00000048  00000+0  00000+0 0  9990
2 37763  54.6015 164.7346 0160690 230.7425 338.5656  1.00264383 55705
BEIDOU-2 IGSO-5 (C10)   
1 37948U 11073A   26270.97961485 -.00000126  00000+0  00000+0 0  9997
2 37948  47.4986 270.2599 0116511 224.3210 320.7744  1.00274862 54167
BEIDOU-2 G5 (C05)       
1 38091U 12008A   26274.62215050  .00000055  00000+0  00000+0 0  9992
2 38091   3.8323  68.9012 0007573 233.5826 350.5443  1.00273570 53433
BEIDOU-2 M3 (C11)       
1 38250U 12018A   26273.96934201 -.00000018  00000+0  00000+0 0  9992
2 38250  55.6636 301.3011 0023592 273.7899  85.9885  1.86230006 97911
BEIDOU-2 M4 (C12)       
1 38251U 12018B   26273.36484514 -.00000017  00000+0  00000+0 0  9993
2 38251  55.5639 300.5272 0014839 274.0533  85.8258  1.86229730 97901
BEIDOU-2 M6 (C14)       
1 38775U 12050B   26273.61096677 -.00000007  00000+0  00000+0 0  9996
2 38775  56.6420  59.4155 0010585   2.8399 357.1659  1.86230716 95277
BEIDOU-2 G6 (C02)       
1 38953U 12059A   26274.58165013 -.00000178  00000+0  00000+0 0  9990
2 38953   4.6838  72.2971 0006528 319.5482 271.9065  1.00273955 50973
BEIDOU-3S IGSO-1S (C31) 
1 40549U 15019A   26274.48755715 -.00000164  00000+0  00000+0 0  9991
2 40549  48.9942 294.1709 0039204 201.6534 146.5266  1.00284534 42138
BEIDOU-3S M2S (C58)     
1 40748U 15037A   26274.10241088 -.00000015  00000+0  00000+0 0  9999
2 40748  54.7743 298.3902 0012171 262.7182  97.1867  1.86232155 76091
BEIDOU-3S M1S (C57)     
1 40749U 15037B   26274.29686495 -.00000014  00000+0  00000+0 0  9994
2 40749  54.7710 298.3691 0001828  35.0542 325.0010  1.86254822 76109
BEIDOU-3S IGSO-2S (C56) 
1 40938U 15053A   26272.91902356 -.00000128  00000+0  00000+0 0  9992
2 40938  49.0687 257.5269 0065676 192.3947 345.8674  1.00280188 40404
BEIDOU-2 IGSO-6 (C13)   
1 41434U 16021A   26273.79712806 -.00000158  00000+0  00000+0 0  9999
2 41434  60.3798  36.9990 0062207 228.6818 127.4669  1.00278381 38533
BEIDOU-2 G7 (C03)       
1 41586U 16037A   26274.60134736 -.00000356  00000+0  00000+0 0  9995
2 41586   1.9785  69.7021 0004843 348.2854 279.3528  1.00276089  7954
BEIDOU-3 M1 (C19)       
1 43001U 17069A   26274.45017005 -.00000005  00000+0  00000+0 0  9998
2 43001  56.7897  59.5917 0007164 319.6176  40.3302  1.86230868 60582
BEIDOU-3 M2 (C20)       
1 43002U 17069B   26274.38917293 -.00000005  00000+0  00000+0 0  9999
2 43002  56.7887  59.6294 0005687   1.1240 358.8782  1.86230693 60578
BEIDOU-3 M7 (C27)       
1 43107U 18003A   26273.59469847 -.00000017  00000+0  00000+0 0  9996
2 43107  54.2313 298.6299 0002869 103.1136 256.9627  1.86228210 59315
BEIDOU-3 M8 (C28)       
1 43108U 18003B   26274.07477514 -.00000016  00000+0  00000+0 0  9990
2 43108  54.2237 298.5939 0004519 264.7872  95.2044  1.86231119 59337
BEIDOU-3 M4 (C22)       
1 43207U 18018A   26273.98152317 -.00000006  00000+0  00000+0 0  9995
2 43207  56.7483  59.6675 0005464  44.2500 315.7941  1.86230744 58719
BEIDOU-3 M3 (C21)       
1 43208U 18018B   26274.04802181 -.00000005  00000+0  00000+0 0  9994
2 43208  56.7480  59.6692 0005189 343.3568  16.6267  1.86230877 58712
BEIDOU-3 M9 (C29)       
1 43245U 18029A   26274.26660080 -.00000012  00000+0  00000+0 0  9999
2 43245  54.0960 296.2279 0001834 239.2055 120.8161  1.86228068 57870
BEIDOU-3 M10 (C30)      
1 43246U 18029B   26274.20041706 -.00000013  00000+0  00000+0 0  9993
2 43246  54.0934 296.2573 0002850  10.0645 349.9810  1.86229238 57851
BEIDOU-2 IGSO-7 (C16)   
1 43539U 18057A   26274.60375925 -.00000113  00000+0  00000+0 0  9997
2 43539  55.2111 162.1485 0107892 236.2761 301.8560  1.00271349 30195
BEIDOU-3 M5 (C23)       
1 43581U 18062A   26273.88748368  .00000023  00000+0  00000+0 0  9993
2 43581  54.0809 178.7127 0003514 320.1063  39.9273  1.86228675 55604
BEIDOU-3 M6 (C24)       
1 43582U 18062B   26274.28833478  .00000017  00000+0  00000+0 0  9999
2 43582  54.0806 178.6882 0006836  35.6638 324.4405  1.86228036 55616
BEIDOU-3 M12 (C26)      
1 43602U 18067A   26273.15302848  .00000031  00000+0  00000+0 0  9990
2 43602  54.1767 177.4828 0009103  39.4053 320.7233  1.86227660 55076
BEIDOU-3 M11 (C25)      
1 43603U 18067B   26273.28836771  .00000030  00000+0  00000+0 0  9991
2 43603  54.1741 177.4417 0005489  30.0758 330.0182  1.86227196 55100
BEIDOU-3 M13 (C32)      
1 43622U 18072A   26274.31600032 -.00000006  00000+0  00000+0 0  9996
2 43622  56.7220  59.1646 0003930 322.8440  37.1296  1.86231035 54635
BEIDOU-3 M14 (C33)      
1 43623U 18072B   26273.64445715 -.00000007  00000+0  00000+0 0  9998
2 43623  56.7231  59.1811 0003283  24.3336 335.6817  1.86231080 54614
BEIDOU-3 M16 (C35)      
1 43647U 18078A   26273.26136719 -.00000014  00000+0  00000+0 0  9997
2 43647  53.9927 296.2912 0006157  29.7161 330.3605  1.86232253 54109
BEIDOU-3 M15 (C34)      
1 43648U 18078B   26273.39240973 -.00000014  00000+0  00000+0 0  9990
2 43648  53.9885 296.2867 0002714  32.1425 327.9154  1.86227361 54136
BEIDOU-3 G1 (C59)       
1 43683U 18085A   26274.58839505 -.00000110  00000+0  00000+0 0  9991
2 43683   2.6558  94.3615 0005261  27.7145 260.1498  1.00271000 29125
BEIDOU-3 M17 (C36)      
1 43706U 18093A   26273.34182082  .00000029  00000+0  00000+0 0  9998
2 43706  54.1643 178.7313 0008054 305.2589 272.4506  1.86228246 53490
BEIDOU-3 M18 (C37)      
1 43707U 18093B   26273.95540925  .00000022  00000+0  00000+0 0  9993
2 43707  54.1651 178.7027 0007206 343.5395  16.4965  1.86226557 53500
BEIDOU-3 IGSO-1 (C38)   
1 44204U 19023A   26273.73633801 -.00000211  00000+0  00000+0 0  9993
2 44204  58.8455  36.5728 0028087 224.1379 131.8743  1.00260446  8261
BEIDOU-2 G8 (C01)       
1 44231U 19027A   26274.65078743 -.00000249  00000+0  00000+0 0  9998
2 44231   1.9207  74.2057 0008822 276.2206  38.7606  1.00275357 27149
BEIDOU-3 IGSO-2 (C39)   
1 44337U 19035A   26274.60460439 -.00000125  00000+0  00000+0 0  9999
2 44337  55.2494 157.9278 0038760 210.3373 339.2936  1.00267187 26739
BEIDOU-3 M24 (C46)      
1 44542U 19061A   26266.50572373 -.00000008  00000+0  00000+0 0  9997
2 44542  54.4306 179.4090 0020747  95.6918 264.5686  1.86175926 47622
BEIDOU-3 M23 (C45)      
1 44543U 19061B   26274.33700713  .00000017  00000+0  00000+0 0  9998
2 44543  54.3904 179.1187 0006072   8.7730 113.0304  1.86227521 47772
BEIDOU-3 IGSO-3 (C40)   
1 44709U 19073A   26273.42297128 -.00000168  00000+0  00000+0 0  9993
2 44709  54.6251 279.7496 0046553 198.5456 161.2828  1.00258026 25519
BEIDOU-3 M22 (C44)      
1 44793U 19078A   26271.17892248 -.00000014  00000+0  00000+0 0  9995
2 44793  53.8399 296.1946 0004867  38.8470 321.2374  1.86227454 46560
BEIDOU-3 M21 (C43)      
1 44794U 19078B   26274.00336417 -.00000013  00000+0  00000+0 0  9991
2 44794  53.8109 296.0536 0002772  25.9353 334.1182  1.86227801 46627
BEIDOU-3 M19 (C41)      
1 44864U 19090A   26272.63340284 -.00000008  00000+0  00000+0 0  9991
2 44864  56.6549  59.3453 0015845 291.5142  68.1515  1.86231249 46179
BEIDOU-3 M20 (C42)      
1 44865U 19090B   26274.11435523 -.00000006  00000+0  00000+0 0  9996
2 44865  56.6579  59.3314 0013068 306.6149  55.5196  1.86231083 46192
BEIDOU-3 G2 (C60)       
1 45344U 20017A   26274.62639718 -.00000142  00000+0  00000+0 0  9999
2 45344   2.6197  48.6591 0002626 153.0410 114.2340  1.00272661 24321
BEIDOU-3 G3 (C61)       
1 45807U 20040A   26274.63246387 -.00000356  00000+0  00000+0 0  9993
2 45807   2.7026  67.3533 0003051 276.4727   4.8093  1.00269756 23133
BEIDOU-3 G4 (C62)       
1 56564U 23066A   26274.50788087 -.00000283  00000+0  00000+0 0  9999
2 56564   0.4447   2.6223 0005828 209.6427 120.8787  1.00273690 12458
BEIDOU-3 M28 (C50)      
1 58654U 23207A   26273.54296830 -.00000010  00000+0  00000+0 0  9999
2 58654  55.8515  58.7559 0000156  40.1099 319.8912  1.86229500 18806
BEIDOU-3 M26 (C48)      
1 58655U 23207B   26274.41441094 -.00000009  00000+0  00000+0 0  9999
2 58655  55.8543  58.7132 0001463 242.4611 117.5251  1.86229370 18808
BEIDOU-3 M25 (C47)      
1 61186U 24168B   26274.33763576 -.00000016  00000+0  00000+0 0  9990
2 61186  54.3765 298.5430 0004773 290.1167 136.2130  1.86229815 13767
BEIDOU-3 M27 (C49)      
1 61187U 24168C   26274.64341509 -.00000015  00000+0  00000+0 0  9992
2 61187  54.3716 298.5148 0001170 320.8289  85.5699  1.86229925 11243
