COSMOS 1408 DEB         
1 50032U 82092RU  26278.95065586  .00003697  00000+0  68493-4 0  9998
2 50032  82.5596 113.1528 0014048 205.8486 154.2064 15.48496211271999
COSMOS 1408 DEB         
1 50058U 82092SW  26278.56205077  .00230340  21321-4  37906-3 0  9999
2 50058  82.5998 111.6531 0005323  61.1653 299.0161 16.03096990274873
COSMOS 1408 DEB         
1 50621U 82092ALR 26278.59212986  .00058745  00000+0  33658-3 0  9998
2 50621  82.5586 120.2794 0016926 116.3787 243.9219 15.78383972268988
