COSMOS 2251             
1 22675U 93036A   26281.74423619  .00000064  00000+0  32439-4 0  9992
2 22675  74.0374 127.7142 0024106 141.2937 218.9947 14.33272316740714
COSMOS 2251 DEB         
1 33757U 93036E   26282.32080927  .00000055  00000+0  29804-4 0  9993
2 33757  74.0350 134.8663 0013703  78.8705  93.9539 14.32640555923003
COSMOS 2251 DEB         
1 33758U 93036F   26282.23573676  .00001646  00000+0  40260-3 0  9997
2 33758  74.0291   8.1055 0016922 359.9479  30.5762 14.53262744926688
COSMOS 2251 DEB         
1 33760U 93036H   26282.84899485  .00000157  00000+0  63046-4 0  9990
2 33760  74.0297  88.7621 0019566 118.7945 309.4147 14.35819400924462
COSMOS 2251 DEB         
1 33761U 93036J   26282.14715659  .00000844  00000+0  25817-3 0  9990
2 33761  74.0359  54.4312 0022182  63.5512 110.9601 14.43215634925676
COSMOS 2251 DEB         
1 33762U 93036K   26282.25518697  .00000071  00000+0  34933-4 0  9998
2 33762  74.0392 120.5873 0014295 114.8307   4.3299 14.33736602923544
COSMOS 2251 DEB         
1 33764U 93036M   26282.82425123  .00000530  00000+0  17637-3 0  9995
2 33764  74.0319  76.4297 0022545 326.0731 102.8224 14.39994190924906
COSMOS 2251 DEB         
1 33765U 93036N   26282.28397852  .00044854  00000+0  14048-2 0  9992
2 33765  73.9971 260.7022 0047383 269.9919  89.5854 15.31766256941882
COSMOS 2251 DEB         
1 33766U 93036P   26282.82010091  .00000768  00000+0  26858-3 0  9999
2 33766  74.1853 307.8224 0061258  64.5975 296.1502 14.35715577920651
COSMOS 2251 DEB         
1 33768U 93036R   26282.85442560  .00000174  00000+0  17233-3 0  9992
2 33768  74.0667  93.7618 0366603 184.7733 246.0541 13.58647121873851
COSMOS 2251 DEB         
1 33779U 93036U   26282.09498213  .00010464  00000+0  15107-2 0  9996
2 33779  74.0433 305.0729 0017503 270.8023 112.4448 14.76214887929536
COSMOS 2251 DEB         
1 33782U 93036X   26282.87647976  .00000766  00000+0  24572-3 0  9999
2 33782  74.0311  80.2837 0019989  75.3221  74.7606 14.41071651924639
COSMOS 2251 DEB         
1 33785U 93036AA  26282.18242896  .00007361  00000+0  10803-2 0  9997
2 33785  73.8651 187.9648 0015567  68.7518  90.0797 14.75616639929325
COSMOS 2251 DEB         
1 33789U 93036AE  26282.79683573  .00000489  00000+0  33502-3 0  9995
2 33789  74.0617 296.2834 0240603 341.1447 194.1885 13.89131388892752
COSMOS 2251 DEB         
1 33791U 93036AG  26282.26697875  .00001089  00000+0  32246-3 0  9991
2 33791  74.1735 203.5083 0029303 304.7903 211.7750 14.44312278923896
COSMOS 2251 DEB         
1 33792U 93036AH  26282.29595914  .00000146  00000+0  16127-3 0  9999
2 33792  73.8992 225.0923 0431599 236.6190 290.5662 13.46243055864860
COSMOS 2251 DEB         
1 33793U 93036AJ  26282.12197190  .00000819  00000+0  32674-3 0  9998
2 33793  73.9812 323.5558 0076095  44.2913 347.0836 14.28513622914951
COSMOS 2251 DEB         
1 33795U 93036AL  26282.17039619  .00022013  00000+0  10189-2 0  9992
2 33795  74.0437 173.6689 0028817 181.8777 335.3575 15.19681464945654
COSMOS 2251 DEB         
1 33797U 93036AN  26282.19711705  .00000881  00000+0  18952-3 0  9995
2 33797  74.0464 183.3409 0062302 195.0836 319.4890 14.58906398933652
COSMOS 2251 DEB         
1 33798U 93036AP  26282.79007019  .00000267  00000+0  81040-4 0  9995
2 33798  74.0278 295.0214 0091652 341.4242 193.8927 14.44870211929412
COSMOS 2251 DEB         
1 33799U 93036AQ  26282.79230242  .00009962  00000+0  11130-2 0  9994
2 33799  74.0315 205.2222 0024533 204.9350 186.4494 14.86839909932768
COSMOS 2251 DEB         
1 33805U 93036AW  26282.86429338  .00000812  00000+0  17712-3 0  9994
2 33805  74.0282  98.1738 0061132 210.8134 148.9438 14.58440671936164
COSMOS 2251 DEB         
1 33811U 93036BC  26282.30573339  .00022592  00000+0  11082-2 0  9993
2 33811  73.8283  32.8852 0028002  51.1662 340.0879 15.17688984945602
COSMOS 2251 DEB         
1 33816U 93036BH  26282.12272533  .00000489  00000+0  36461-3 0  9990
2 33816  73.8947 316.0558 0266678 272.4046  84.6573 13.82161411888239
COSMOS 2251 DEB         
1 33818U 93036BK  26282.88289222  .00204499  00000+0  27851-2 0  9997
2 33818  74.0643 245.6879 0010730 194.4236 165.6676 15.56699345944715
COSMOS 2251 DEB         
1 33819U 93036BL  26282.29576311  .00001226  00000+0  43670-3 0  9992
2 33819  74.1810  25.7240 0087567 162.9633 228.7011 14.33129147918004
COSMOS 2251 DEB         
1 33821U 93036BN  26282.24514594  .00043391  00000+0  86881-3 0  9995
2 33821  74.0224 217.0996 0033549 174.0728 186.0888 15.45918057796146
COSMOS 2251 DEB         
1 33822U 93036BP  26282.29001280  .00000755  00000+0  36382-3 0  9992
2 33822  74.0692  22.3271 0153012 355.4208  34.6841 14.14479154903024
COSMOS 2251 DEB         
1 33823U 93036BQ  26282.17696184  .00000537  00000+0  32041-3 0  9999
2 33823  73.8115 342.4983 0206379  55.0610 337.0139 13.99533676898129
COSMOS 2251 DEB         
1 33825U 93036BS  26282.14185828  .00005157  00000+0  75762-3 0  9996
2 33825  73.9823 161.3525 0075101  56.0594  98.5337 14.73819511933001
COSMOS 2251 DEB         
1 33826U 93036BT  26282.22203520  .00003755  00000+0  83879-3 0  9996
2 33826  74.0640 203.2356 0081955 173.0796 337.4791 14.55057363921350
COSMOS 2251 DEB         
1 33828U 93036BV  26282.32103120  .00000786  00000+0  23151-3 0  9992
2 33828  74.0474  38.7393 0028350  37.0362 353.7685 14.45060412926544
COSMOS 2251 DEB         
1 33830U 93036BX  26282.22468682  .00002722  00000+0  36043-3 0  9997
2 33830  74.0331 359.5611 0040411  41.8634 349.6177 14.79876416939138
COSMOS 2251 DEB         
1 33832U 93036BZ  26282.16784939  .00003122  00000+0  60031-3 0  9997
2 33832  74.0564 354.9838 0024674 310.3618  75.2719 14.63879198928176
COSMOS 2251 DEB         
1 33835U 93036CC  26282.88284420  .00002638  00000+0  49285-3 0  9998
2 33835  74.0549 243.8753 0056104 220.3203 169.6442 14.64441327931958
COSMOS 2251 DEB         
1 33836U 93036CD  26282.24252435  .00006079  00000+0  72550-3 0  9994
2 33836  73.9978  23.4278 0021455 156.6233 228.6814 14.84302074685415
COSMOS 2251 DEB         
1 33837U 93036CE  26282.79427422  .00000610  00000+0  15974-3 0  9997
2 33837  74.0123 208.5300 0033984 354.2443   5.8322 14.51207364931627
COSMOS 2251 DEB         
1 33838U 93036CF  26282.04075140  .00000747  00000+0  20319-3 0  9992
2 33838  74.0360 307.0420 0027061 349.8247  36.8124 14.49067428929184
COSMOS 2251 DEB         
1 33839U 93036CG  26282.88303561  .00000591  00000+0  11052-3 0  9997
2 33839  74.0408 347.4517 0083243  22.0912  96.8411 14.65087485939893
COSMOS 2251 DEB         
1 33841U 93036CJ  26281.93883010  .00000371  00000+0  13066-3 0  9990
2 33841  74.0355  85.1567 0019918  96.2765  64.6711 14.38179442924294
COSMOS 2251 DEB         
1 33842U 93036CK  26282.28520013  .00000476  00000+0  14767-3 0  9996
2 33842  74.0355  21.5093 0045911  55.1803 305.3659 14.43203835926728
COSMOS 2251 DEB         
1 33844U 93036CM  26282.85204144  .00000593  00000+0  21738-3 0  9991
2 33844  74.0657 222.7253 0048290 172.4226 218.6503 14.34293389920421
COSMOS 2251 DEB         
1 33848U 93036CR  26282.13910858  .00001861  00000+0  52661-3 0  9990
2 33848  74.0292 157.7876 0042831 145.0641  12.5428 14.45747633921707
COSMOS 2251 DEB         
1 33892U 93036CV  26281.97747508  .00000863  00000+0  36138-3 0  9992
2 33892  73.8000 273.8995 0115814 252.0390 137.4789 14.24107851912283
COSMOS 2251 DEB         
1 33894U 93036CX  26282.02211713  .00000614  00000+0  64735-3 0  9993
2 33894  73.7633 244.2963 0567848 121.2784 244.5205 13.22017431846757
COSMOS 2251 DEB         
1 33896U 93036CZ  26282.10360772  .00000880  00000+0  39693-3 0  9994
2 33896  73.7676 330.9870 0122303  96.4365 291.1803 14.19768718910029
COSMOS 2251 DEB         
1 33899U 93036DC  26282.88065306  .00001950  00000+0  37696-3 0  9997
2 33899  74.0513 229.5027 0057500 214.8892 171.3388 14.63071676932413
COSMOS 2251 DEB         
1 33900U 93036DD  26282.08970014  .00000968  00000+0  20780-3 0  9997
2 33900  74.0167 147.0716 0048259 223.2511 296.4011 14.59349482934167
COSMOS 2251 DEB         
1 33905U 93036DJ  26282.82405623  .00000886  00000+0  30698-3 0  9991
2 33905  73.8838 118.9175 0056700 304.5921  68.0268 14.36288803920096
COSMOS 2251 DEB         
1 33906U 93036DK  26282.00837184  .00004682  00000+0  95318-3 0  9991
2 33906  74.0259 108.7949 0034822  72.3275  92.0463 14.60936305923884
COSMOS 2251 DEB         
1 33907U 93036DL  26282.77861899  .00002541  00000+0  86331-3 0  9993
2 33907  74.0675 205.2655 0115459 187.8742 202.8352 14.33426543908903
COSMOS 2251 DEB         
1 33908U 93036DM  26282.30587832  .00001148  00000+0  54114-3 0  9991
2 33908  73.8364  31.4169 0219351   0.3894 359.7372 14.09186478897058
COSMOS 2251 DEB         
1 33911U 93036DQ  26282.85418553  .00008857  00000+0  11325-2 0  9998
2 33911  74.0877 291.9122 0008985 163.7607 256.6958 14.81466781930951
COSMOS 2251 DEB         
1 33912U 93036DR  26282.87709669  .00001387  00000+0  33972-3 0  9996
2 33912  74.0348 341.6322 0011778 340.9506 135.6391 14.53385130928064
COSMOS 2251 DEB         
1 33913U 93036DS  26282.16685782  .00000769  00000+0  20546-3 0  9994
2 33913  74.0350 340.2487 0047101   6.5813  24.8945 14.49455557928093
COSMOS 2251 DEB         
1 33914U 93036DT  26281.86881953  .00000455  00000+0  37688-3 0  9996
2 33914  74.0888 240.2715 0305052 273.3439 111.7235 13.72301521881983
COSMOS 2251 DEB         
1 33915U 93036DU  26282.21382243  .00000546  00000+0  18609-3 0  9998
2 33915  74.0428 203.0637 0106755 221.9019 210.3245 14.35747024920697
COSMOS 2251 DEB         
1 33916U 93036DV  26281.98350932  .00000421  00000+0  35652-3 0  9991
2 33916  74.0492 267.1770 0323598  12.0734  17.1169 13.68829645879996
COSMOS 2251 DEB         
1 33917U 93036DW  26282.17607540  .00000917  00000+0  72371-3 0  9993
2 33917  74.1075 349.4253 0331672  18.9082 342.4013 13.70068298878474
COSMOS 2251 DEB         
1 33920U 93036DZ  26281.86661602  .00003989  00000+0  79588-3 0  9990
2 33920  74.0570  86.1158 0033498  20.8012 339.4509 14.61936291924966
COSMOS 2251 DEB         
1 33922U 93036EB  26281.55776841  .00000679  00000+0  18076-3 0  9998
2 33922  74.0460 305.1728 0023383 335.5595 181.7699 14.50275024929238
COSMOS 2251 DEB         
1 33924U 93036ED  26282.88890603  .00000364  00000+0  36111-3 0  9991
2 33924  73.9112 146.0026 0401329 126.6519 237.2194 13.50543811868049
COSMOS 2251 DEB         
1 33928U 93036EH  26282.78413909  .00000573  00000+0  15883-3 0  9999
2 33928  73.9253 205.4822 0058881  74.7927 285.9732 14.47923678930015
COSMOS 2251 DEB         
1 33932U 93036EM  26282.81104233  .00000727  00000+0  24026-3 0  9995
2 33932  74.0311 120.2875 0035978 126.4599 233.9881 14.39418378923298
COSMOS 2251 DEB         
1 33933U 93036EN  26282.84957373  .00000446  00000+0  16429-3 0  9996
2 33933  74.0876 231.0526 0071304 164.3889 195.9486 14.33979917921005
COSMOS 2251 DEB         
1 33934U 93036EP  26282.86485918  .00002704  00000+0  55670-3 0  9990
2 33934  74.0355 245.8131 0017741 284.9889  74.9313 14.60943523931344
COSMOS 2251 DEB         
1 33936U 93036ER  26282.19310268  .00001430  00000+0  29064-3 0  9996
2 33936  74.0166 182.3894 0028622 258.3356 101.4598 14.61850189932787
COSMOS 2251 DEB         
1 33938U 93036ET  26282.20686191  .00000822  00000+0  23004-3 0  9993
2 33938  74.0474   5.7217 0016258  10.5094  16.9097 14.47646390927472
COSMOS 2251 DEB         
1 33939U 93036EU  26282.12424126  .00673867  00000+0  61043-2 0  9992
2 33939  73.9811 167.2581 0019515 164.8711 195.3098 15.65709989933231
COSMOS 2251 DEB         
1 33940U 93036EV  26281.99885275  .00002322  00000+0  47920-3 0  9995
2 33940  74.0368 290.5714 0013708 289.7273 100.0305 14.60967265929762
COSMOS 2251 DEB         
1 33942U 93036EX  26282.87210031  .00000390  00000+0  13659-3 0  9992
2 33942  74.0346  80.0674 0019666  93.7418  56.4083 14.38306490924630
COSMOS 2251 DEB         
1 33944U 93036EZ  26282.77842287  .00000523  00000+0  16960-3 0  9993
2 33944  74.0374 114.8286 0112580 141.4016 232.2171 14.37788190923543
COSMOS 2251 DEB         
1 33945U 93036FA  26282.24082351  .00000176  00000+0  71232-4 0  9992
2 33945  74.0271 115.5547 0022093 134.0493 226.2484 14.34780331923258
COSMOS 2251 DEB         
1 33948U 93036FD  26281.97593526  .00000261  00000+0  98805-4 0  9995
2 33948  74.0330 114.1435 0022643 121.5677 238.7691 14.35883071923326
COSMOS 2251 DEB         
1 33971U 93036FE  26282.85605633  .00000505  00000+0  16793-3 0  9998
2 33971  74.0248  56.9943 0017855  88.1061  68.4539 14.40143657924731
COSMOS 2251 DEB         
1 33972U 93036FF  26282.19105462  .00002071  00000+0  62871-3 0  9999
2 33972  73.9966 355.9264 0118520  93.3581 297.2389 14.38799392913925
COSMOS 2251 DEB         
1 33973U 93036FG  26282.21582881  .00000269  00000+0  82993-4 0  9992
2 33973  74.0063 261.7375 0045816   6.3567   5.6746 14.45623352929428
COSMOS 2251 DEB         
1 33975U 93036FJ  26281.97128138  .00000353  00000+0  21655-3 0  9998
2 33975  73.7988 276.5056 0190571 356.9119   3.0820 14.00875513900331
COSMOS 2251 DEB         
1 33980U 93036FP  26282.80881647  .00001866  00000+0  39156-3 0  9993
2 33980  74.0192 204.7552 0029952 269.8170 120.1028 14.60144306931874
COSMOS 2251 DEB         
1 33982U 93036FR  26282.88833755  .00001108  00000+0  22178-3 0  9995
2 33982  74.0680 145.5679 0073576 112.5979 260.8563 14.61340641935570
COSMOS 2251 DEB         
1 33983U 93036FS  26282.80748707  .00000977  00000+0  25033-3 0  9996
2 33983  74.0484 301.0705 0021835 322.6262 210.3879 14.51580765929960
COSMOS 2251 DEB         
1 33984U 93036FT  26282.85406983  .00002462  00000+0  42730-3 0  9993
2 33984  74.0054 124.4212 0023353 240.3062 132.7381 14.68625523934843
COSMOS 2251 DEB         
1 33986U 93036FV  26281.95848374  .00001121  00000+0  33033-3 0  9996
2 33986  74.0329 104.4369 0041108 106.5676  44.1783 14.44285002923616
COSMOS 2251 DEB         
1 33990U 93036FZ  26281.77959742  .00000293  00000+0  29345-3 0  9993
2 33990  73.9270 164.1749 0404290 128.8846 300.6933 13.50311638867794
COSMOS 2251 DEB         
1 33992U 93036GB  26282.87761666  .00002616  00000+0  45011-3 0  9992
2 33992  74.0203 115.7702 0052645 158.3270 265.2145 14.68222079935424
COSMOS 2251 DEB         
1 33994U 93036GD  26281.90435575  .00000132  00000+0  48901-4 0  9997
2 33994  74.0457 354.8572 0022116  55.0616  64.8008 14.41374166927445
COSMOS 2251 DEB         
1 33995U 93036GE  26282.74014682  .00001257  00000+0  43271-3 0  9996
2 33995  74.0584 288.0516 0061926 229.2268 130.3502 14.35934990918384
COSMOS 2251 DEB         
1 33999U 93036GJ  26281.59177384  .00007412  00000+0  76722-3 0  9997
2 33999  73.9174 349.3553 0037914 173.8517 186.3138 14.89695176937076
COSMOS 2251 DEB         
1 34001U 93036GL  26281.43554597  .00000254  00000+0  93617-4 0  9990
2 34001  74.0362  90.3762 0019407 102.4890 283.5850 14.37355856924524
COSMOS 2251 DEB         
1 34003U 93036GN  26282.03911349  .00001385  00000+0  92316-3 0  9991
2 34003  74.0752 139.1134 0275442 181.1119 178.9433 13.85182636885824
COSMOS 2251 DEB         
1 34004U 93036GP  26281.52414300  .00002172  00000+0  55167-3 0  9998
2 34004  74.0312 109.8564 0030762  54.1694 306.2318 14.51097179923764
COSMOS 2251 DEB         
1 34005U 93036GQ  26282.27611495  .00000163  00000+0  59348-4 0  9990
2 34005  74.0477  18.2788 0019437  63.0125 328.2025 14.40490563927060
COSMOS 2251 DEB         
1 34006U 93036GR  26281.87207999  .00098427  00000+0  37574-2 0  9991
2 34006  74.0510 244.5274 0004518 223.6158 164.1700 15.26165612931989
COSMOS 2251 DEB         
1 34007U 93036GS  26282.81196644  .00001962  00000+0  35314-3 0  9990
2 34007  74.0152 126.3149 0045924 185.2229 174.8467 14.66637599934913
COSMOS 2251 DEB         
1 34008U 93036GT  26282.07647861  .00000157  00000+0  66272-4 0  9994
2 34008  74.0328 141.5717 0022511  66.1661  86.4874 14.33303001922675
COSMOS 2251 DEB         
1 34009U 93036GU  26282.32304720  .00000174  00000+0  72248-4 0  9996
2 34009  74.0360 147.5468 0027112 148.3009 334.0222 14.33408554922524
COSMOS 2251 DEB         
1 34011U 93036GW  26281.63149826  .00001374  00000+0  41411-3 0  9996
2 34011  74.0115 132.9768 0038042 147.5794 212.7711 14.43043621922405
COSMOS 2251 DEB         
1 34014U 93036GZ  26282.83945985  .00004458  00000+0  64450-3 0  9996
2 34014  74.0163  51.7260 0036886 115.6259  39.6888 14.76015964937426
COSMOS 2251 DEB         
1 34015U 93036HA  26282.09039628  .00002745  00000+0  54943-3 0  9996
2 34015  74.0225 304.6858 0022633 320.7433  65.4434 14.62168246929182
COSMOS 2251 DEB         
1 34018U 93036HD  26282.07392801  .00000363  00000+0  27917-3 0  9997
2 34018  73.8762 302.9457 0266858 283.4614 104.0574 13.81379266888049
COSMOS 2251 DEB         
1 34019U 93036HE  26282.83357417  .00001427  00000+0  50049-3 0  9990
2 34019  73.9523 216.4928 0061564 327.0741  65.5769 14.34921457918383
COSMOS 2251 DEB         
1 34021U 93036HG  26282.27089331  .00000772  00000+0  20296-3 0  9991
2 34021  74.0339 285.1169 0020345 348.1526  24.6658 14.50705495929879
COSMOS 2251 DEB         
1 34022U 93036HH  26282.87293196  .00000372  00000+0  12798-3 0  9998
2 34022  74.0526  75.7468 0021594  68.1951  82.2221 14.39293392925272
COSMOS 2251 DEB         
1 34023U 93036HJ  26282.81200977  .00000580  00000+0  18802-3 0  9991
2 34023  74.0249  54.2892 0017774  80.1683  70.7492 14.41055378925500
COSMOS 2251 DEB         
1 34024U 93036HK  26282.85098799  .00000280  00000+0  10567-3 0  9990
2 34024  74.0440 123.9731 0020464 105.6501 267.8148 14.35649945923453
COSMOS 2251 DEB         
1 34026U 93036HM  26282.20114133  .00000978  00000+0  80946-3 0  9994
2 34026  73.7673 197.4697 0346038  20.7554 127.1488 13.65836818876337
COSMOS 2251 DEB         
1 34028U 93036HP  26282.89956669  .00000427  00000+0  50343-3 0  9996
2 34028  73.8808 245.3728 0546052 332.4993  52.6160 13.20836857849845
COSMOS 2251 DEB         
1 34031U 93036HS  26282.14868098  .00002585  00000+0  51792-3 0  9992
2 34031  74.0099 280.5844 0024195 319.3689 160.8326 14.62131609929530
COSMOS 2251 DEB         
1 34035U 93036HW  26281.73548174  .00002589  00000+0  60371-3 0  9997
2 34035  74.0625 143.4160 0040764  74.3299  38.0416 14.54777246923255
COSMOS 2251 DEB         
1 34036U 93036HX  26282.07071664  .00129744  00000+0  44180-2 0  9993
2 34036  73.9970 247.3472 0015350 228.2889 131.7001 15.29689356931061
COSMOS 2251 DEB         
1 34037U 93036HY  26282.81317463  .00000726  00000+0  25765-3 0  9993
2 34037  74.0502 219.0035 0054396 196.6605 163.2763 14.35387332920364
COSMOS 2251 DEB         
1 34040U 93036JB  26281.96192899  .00000768  00000+0  60853-3 0  9999
2 34040  73.9544 289.3670 0338446 184.2878 175.5326 13.69316688877086
COSMOS 2251 DEB         
1 34045U 93036JG  26282.87737476  .00000136  00000+0  57513-4 0  9990
2 34045  74.0365 119.7688 0025749 133.8040 288.3615 14.34193434923507
COSMOS 2251 DEB         
1 34046U 93036JH  26282.14262910  .00002267  00000+0  58837-3 0  9993
2 34046  74.0369 168.4023 0076425 178.0502 341.0043 14.48589905921739
COSMOS 2251 DEB         
1 34050U 93036JM  26282.83194156  .00000340  00000+0  21400-3 0  9996
2 34050  74.0870 213.2001 0218747 205.6426 185.0056 13.96777342896358
COSMOS 2251 DEB         
1 34053U 93036JQ  26281.94703993  .00000305  00000+0  30001-3 0  9993
2 34053  73.8420 118.2164 0422657 216.8522 140.2847 13.49422143867332
COSMOS 2251 DEB         
1 34056U 93036JT  26281.95808756  .00001646  00000+0  69412-3 0  9997
2 34056  74.0555 258.6776 0127944 234.9371 154.9018 14.22134441906776
COSMOS 2251 DEB         
1 34058U 93036JV  26282.81452404  .00000119  00000+0  12732-3 0  9997
2 34058  73.9331  49.9462 0378707 348.0364 164.5723 13.56375312872249
COSMOS 2251 DEB         
1 34059U 93036JW  26282.17052316  .00001254  00000+0  30132-3 0  9990
2 34059  74.0387 338.7434 0018836 337.1608  53.7853 14.54334154928259
COSMOS 2251 DEB         
1 34061U 93036JY  26282.85243625  .00000593  00000+0  19299-3 0  9999
2 34061  74.0384  66.5310 0019684  72.4904  78.4066 14.40850245925164
COSMOS 2251 DEB         
1 34062U 93036JZ  26281.91691792  .00011596  00000+0  12567-2 0  9993
2 34062  74.0235 263.3194 0069504 265.0273 120.5585 14.86484655930464
COSMOS 2251 DEB         
1 34064U 93036KB  26282.89120389  .00000997  00000+0  30381-3 0  9990
2 34064  74.0307  71.7413 0021630  67.5256  87.0234 14.43139401924858
COSMOS 2251 DEB         
1 34065U 93036KC  26282.88127431  .00000257  00000+0  92803-4 0  9992
2 34065  74.0351  63.2979 0015530  91.5841  65.8029 14.38301378925349
COSMOS 2251 DEB         
1 34070U 93036KH  26282.84621376  .00012115  00000+0  14194-2 0  9992
2 34070  73.9968 240.3451 0021034 274.4940 110.0273 14.84910299930707
COSMOS 2251 DEB         
1 34114U 93036KK  26281.80318579  .00004690  00000+0  94726-3 0  9993
2 34114  74.0570 192.6895 0042361 118.1990 298.9559 14.61109434921780
COSMOS 2251 DEB         
1 34115U 93036KL  26282.24585991  .00004647  00000+0  56313-3 0  9999
2 34115  74.0080   7.1555 0027296 112.7518 247.6549 14.83650454938635
COSMOS 2251 DEB         
1 34116U 93036KM  26282.11930062  .00001546  00000+0  36895-3 0  9997
2 34116  74.0411 335.3282 0012551 331.4081  55.3294 14.54521884928520
COSMOS 2251 DEB         
1 34117U 93036KN  26282.07415137  .00001009  00000+0  31617-3 0  9995
2 34117  74.0378 148.4216 0056464 153.1289 207.2811 14.40980235924481
COSMOS 2251 DEB         
1 34118U 93036KP  26281.67096765  .00015858  00000+0  10626-2 0  9996
2 34118  73.9506 356.1523 0047519 108.9648  42.9412 15.05940820936741
COSMOS 2251 DEB         
1 34120U 93036KR  26282.81928300  .00000408  00000+0  25937-3 0  9992
2 34120  73.9926  54.5500 0181974 176.8772 335.4654 13.98937701901902
COSMOS 2251 DEB         
1 34121U 93036KS  26282.78965184  .00001029  00000+0  64690-3 0  9999
2 34121  73.9907 300.8100 0234102  81.3302  91.7208 13.92881559893153
COSMOS 2251 DEB         
1 34122U 93036KT  26281.96217797  .00004301  00000+0  71778-3 0  9990
2 34122  74.0330 259.2597 0076371  79.1228 309.6303 14.68321803930870
COSMOS 2251 DEB         
1 34127U 93036KY  26282.26059522  .00003776  00000+0  12793-2 0  9995
2 34127  74.1764 219.6835 0110242 332.8258 177.6675 14.33697975910758
COSMOS 2251 DEB         
1 34128U 93036KZ  26282.77898030  .00086344  00000+0  35508-2 0  9998
2 34128  73.9895  31.5510 0020155  65.0294  88.9366 15.23553743937170
COSMOS 2251 DEB         
1 34129U 93036LA  26281.94997836  .00006243  00000+0  81942-3 0  9995
2 34129  74.0290 109.6535 0032707 118.7436 241.7033 14.80110465657346
COSMOS 2251 DEB         
1 34136U 93036LH  26282.13183947  .00001587  00000+0  19359-3 0  9994
2 34136  74.0185 169.2614 0085335 214.5879 297.9911 14.81757987944577
COSMOS 2251 DEB         
1 34139U 93036LL  26282.78019802  .00004432  00000+0  86808-3 0  9991
2 34139  74.0303  38.3021 0040753  35.9355 122.6076 14.62567422925464
COSMOS 2251 DEB         
1 34141U 93036LN  26282.17408128  .00002510  00000+0  61497-3 0  9992
2 34141  74.0090 182.8185 0051381 197.2963 322.4622 14.52210518920510
COSMOS 2251 DEB         
1 34270U 93036LQ  26282.13630577  .00001864  00000+0  33447-3 0  9991
2 34270  74.0081  86.9160 0048839 165.5593 194.6986 14.66716460934981
COSMOS 2251 DEB         
1 34271U 93036LR  26281.84912476  .00007882  00000+0  11080-2 0  9994
2 34271  74.0195 332.5572 0019359 316.0338 163.2648 14.77396841926583
COSMOS 2251 DEB         
1 34273U 93036LT  26282.81852311  .00002840  00000+0  55468-3 0  9993
2 34273  74.0347 230.6069 0016549 270.4240 114.6539 14.63331338930237
COSMOS 2251 DEB         
1 34274U 93036LU  26282.81000970  .00003631  00000+0  64205-3 0  9998
2 34274  74.0030 206.9556 0023384 274.2656 116.2246 14.67596006930896
COSMOS 2251 DEB         
1 34276U 93036LW  26282.29783659  .00001765  00000+0  38318-3 0  9996
2 34276  74.0211 233.0510 0023481 297.4871 212.9857 14.58721263929732
COSMOS 2251 DEB         
1 34297U 93036MT  26282.84847516  .00000199  00000+0  76220-4 0  9998
2 34297  74.0460  91.2133 0016349  89.9896 337.6959 14.36822431923896
COSMOS 2251 DEB         
1 34301U 93036MX  26281.99636887  .00016472  00000+0  13015-2 0  9998
2 34301  73.9994 281.6779 0015375 277.7569 113.0335 15.00573746928821
COSMOS 2251 DEB         
1 34302U 93036MY  26282.85034455  .00001445  00000+0  44672-3 0  9996
2 34302  74.1761 291.9419 0074424  60.6624 359.6536 14.40544474920555
COSMOS 2251 DEB         
1 34303U 93036MZ  26282.87436764  .00005651  00000+0  11134-2 0  9997
2 34303  74.0025  75.6700 0132278 141.0512   9.2345 14.57280279923456
COSMOS 2251 DEB         
1 34304U 93036NA  26281.71480501  .00002241  00000+0  66145-3 0  9993
2 34304  74.0101 288.3091 0126266 352.7340 129.0338 14.39603079916113
COSMOS 2251 DEB         
1 34307U 93036ND  26282.18182274  .00000672  00000+0  61992-3 0  9995
2 34307  74.0542 190.8015 0392027 316.2464 197.5827 13.54798311869301
COSMOS 2251 DEB         
1 34314U 93036NL  26282.72938296  .00000604  00000+0  29146-3 0  9996
2 34314  74.0033 130.9490 0104187 169.0603 312.1846 14.17973787909238
COSMOS 2251 DEB         
1 34316U 93036NN  26281.49824899  .00018594  00000+0  13627-2 0  9997
2 34316  74.0591  90.1295 0011481 117.9626 242.2727 15.03448877936997
COSMOS 2251 DEB         
1 34317U 93036NP  26281.40641691  .00000241  00000+0  21971-3 0  9998
2 34317  73.9212 262.2499 0336270 195.5816 319.1534 13.65462986877091
COSMOS 2251 DEB         
1 34321U 93036NT  26282.09974858  .00001078  00000+0  27882-3 0  9999
2 34321  74.0278 311.4950 0015189 359.2837  31.5127 14.51058380928426
COSMOS 2251 DEB         
1 34323U 93036NV  26281.92130617  .00008187  00000+0  10233-2 0  9998
2 34323  73.9480 250.1247 0055620 226.6681 164.4501 14.81365431928767
COSMOS 2251 DEB         
1 34325U 93036NX  26281.73670574  .00001287  00000+0  68234-3 0  9999
2 34325  73.8713  23.5452 0191291 344.0088 138.5718 14.05735628897298
COSMOS 2251 DEB         
1 34327U 93036NZ  26282.28481088  .00008922  00000+0  79501-3 0  9994
2 34327  73.9896 286.0809 0029471  20.8942 351.9372 14.95799117939930
COSMOS 2251 DEB         
1 34340U 93036PN  26282.15881986  .00000253  00000+0  19377-3 0  9990
2 34340  74.0765 165.7545 0288295 204.0534 314.0893 13.80237776884125
COSMOS 2251 DEB         
1 34343U 93036PR  26282.80406668  .00006199  00000+0  95133-3 0  9994
2 34343  74.0176 223.4084 0016929  62.5597 323.9942 14.73712768931605
COSMOS 2251 DEB         
1 34344U 93036PS  26282.01829185  .00002112  00000+0  93545-3 0  9997
2 34344  73.9757 293.4554 0148197  49.2280 341.0111 14.18035305903514
COSMOS 2251 DEB         
1 34346U 93036PU  26282.05419586  .00000357  00000+0  21418-3 0  9992
2 34346  73.9942 150.6586 0206465 262.5457 251.2190 14.00597369896132
COSMOS 2251 DEB         
1 34387U 93036QC  26282.22108615  .00000563  00000+0  16983-3 0  9994
2 34387  74.0429  13.0789 0037586  35.1224 351.3735 14.44390913925198
COSMOS 2251 DEB         
1 34388U 93036QD  26282.29350427  .00001362  00000+0  35321-3 0  9997
2 34388  74.0405  18.6733 0013579 351.3597  38.7177 14.50700397925122
COSMOS 2251 DEB         
1 34389U 93036QE  26282.85742917  .00000790  00000+0  24692-3 0  9992
2 34389  74.0189  51.1203 0028411  92.6570  67.7057 14.42142050923521
COSMOS 2251 DEB         
1 34396U 93036QM  26282.88992948  .00009665  00000+0  12519-2 0  9998
2 34396  74.0254 252.1803 0009473 241.6198 146.0851 14.80907183927963
COSMOS 2251 DEB         
1 34409U 93036RA  26282.84626470  .00000550  00000+0  11975-3 0  9993
2 34409  74.0606  94.7046 0078856  91.7674 334.9437 14.58499660935825
COSMOS 2251 DEB         
1 34412U 93036RD  26282.81736992  .00003591  00000+0  76209-3 0  9994
2 34412  73.9440 117.0786 0184514 145.1453 216.1957 14.49371564920106
COSMOS 2251 DEB         
1 34413U 93036RE  26282.87154787  .00001821  00000+0  67538-3 0  9996
2 34413  74.0282  77.1130 0090906  82.6733  68.3487 14.30646906914359
COSMOS 2251 DEB         
1 34420U 93036RM  26282.29257155  .00000629  00000+0  10477-3 0  9998
2 34420  74.0315 242.3120 0106353 285.6865 143.1762 14.68804313941823
COSMOS 2251 DEB         
1 34425U 93036RS  26282.18453924  .00001872  00000+0  36450-3 0  9993
2 34425  74.0172 197.8270 0027582 243.9331 115.8997 14.63583539931341
COSMOS 2251 DEB         
1 34430U 93036RX  26281.94782054  .00000683  00000+0  21940-3 0  9998
2 34430  74.0486 109.1320 0060018 105.9079 254.8702 14.40243933922764
COSMOS 2251 DEB         
1 34431U 93036RY  26282.19875205  .00000795  00000+0  31279-3 0  9998
2 34431  74.0770 350.9284 0069038 261.8524  97.4790 14.29544520914351
COSMOS 2251 DEB         
1 34432U 93036RZ  26282.04842264  .00000779  00000+0  44221-3 0  9995
2 34432  73.8252 292.8661 0184154 321.0152  67.8097 14.03566778898971
COSMOS 2251 DEB         
1 34433U 93036SA  26282.17885894  .00000240  00000+0  12499-3 0  9991
2 34433  74.0106 342.1048 0148327  50.8379 310.5831 14.14130276901950
COSMOS 2251 DEB         
1 34434U 93036SB  26282.83994485  .00003842  00000+0  22064-2 0  9991
2 34434  74.0602 216.8085 0278041 282.3879 104.7813 13.92033459881538
COSMOS 2251 DEB         
1 34446U 93036SP  26282.81027007  .00000269  00000+0  76456-4 0  9995
2 34446  74.0415 212.5403 0052083 273.3977  86.1226 14.49604472930566
COSMOS 2251 DEB         
1 34449U 93036SS  26282.14840437  .00045557  00000+0  22788-2 0  9990
2 34449  74.0289 173.6526 0023560 153.9317 356.3964 15.16961357932162
COSMOS 2251 DEB         
1 34451U 93036SU  26282.15215276  .00056698  00000+0  25538-2 0  9995
2 34451  74.0411 189.6940 0018641 147.1371 213.0990 15.20629721931649
COSMOS 2251 DEB         
1 34452U 93036SV  26282.14972520  .00012422  00000+0  55236-3 0  9993
2 34452  74.0225 276.1525 0056899 272.5900  86.8785 15.20060339952164
COSMOS 2251 DEB         
1 34454U 93036SX  26282.17604212  .00000358  00000+0  12312-3 0  9991
2 34454  74.0565  84.1539 0034419  73.2433 287.2493 14.39149093923891
COSMOS 2251 DEB         
1 34459U 93036TC  26281.88820790  .00000509  00000+0  30364-3 0  9999
2 34459  74.0763  95.0920 0190674  92.9863 269.3108 14.00855104899141
COSMOS 2251 DEB         
1 34468U 93036TM  26282.12209762  .00000636  00000+0  17242-3 0  9998
2 34468  74.0105 274.1632 0075335 344.7513  15.1374 14.48131803928091
COSMOS 2251 DEB         
1 34472U 93036TR  26282.09391455  .00000969  00000+0  75895-3 0  9997
2 34472  74.0840 323.8014 0326715  24.3874 337.2312 13.71037232878427
COSMOS 2251 DEB         
1 34474U 93036TT  26282.09738034  .00001673  00000+0  83093-3 0  9999
2 34474  74.0749 160.9323 0199840 163.1028 347.7687 14.07976025897345
COSMOS 2251 DEB         
1 34476U 93036TV  26281.71997762  .00002309  00000+0  14702-2 0  9991
2 34476  74.0066 295.8156 0300128  89.9986 273.5526 13.84300408877865
COSMOS 2251 DEB         
1 34477U 93036TW  26282.25443007  .00002002  00000+0  42279-3 0  9991
2 34477  73.9777 216.0310 0074296 329.7493 181.0130 14.58364610930043
COSMOS 2251 DEB         
1 34481U 93036UA  26282.30522358  .00000815  00000+0  29754-3 0  9992
2 34481  73.9781 222.3864 0069559 325.6341 188.2831 14.33302833917549
COSMOS 2251 DEB         
1 34482U 93036UB  26282.22707677  .00005970  00000+0  87527-3 0  9992
2 34482  74.0372 358.4239 0041781 343.0205  47.7640 14.75192382926117
COSMOS 2251 DEB         
1 34544U 93036UE  26281.79657731  .00000323  00000+0  31170-3 0  9997
2 34544  73.9133  78.0907 0381833  50.8931  13.4372 13.55063125869465
COSMOS 2251 DEB         
1 34546U 93036UG  26282.13912826  .00001088  00000+0  30922-3 0  9990
2 34546  74.0305  48.4925 0021052  50.9075   5.3689 14.46442626923689
COSMOS 2251 DEB         
1 34547U 93036UH  26281.27952718  .00005213  00000+0  73384-3 0  9992
2 34547  74.0272 234.7815 0020928 242.2020 117.7034 14.77426957929397
COSMOS 2251 DEB         
1 34553U 93036UP  26282.13821653  .00002772  00000+0  57825-3 0  9997
2 34553  74.0264 338.9693 0019911 338.3495  43.6310 14.60296645924782
COSMOS 2251 DEB         
1 34554U 93036UQ  26281.94550672  .00000510  00000+0  17530-3 0  9993
2 34554  74.0357 105.9822 0022678  99.3584  50.8051 14.38383633920719
COSMOS 2251 DEB         
1 34556U 93036US  26281.40197406  .00008373  00000+0  96240-3 0  9998
2 34556  74.0112 251.5526 0011748 250.6127 266.3073 14.85884047927699
COSMOS 2251 DEB         
1 34560U 93036UW  26281.96027414  .00007624  00000+0  10542-2 0  9993
2 34560  74.0135 274.1052 0017653 279.2637 109.3399 14.78124443926806
COSMOS 2251 DEB         
1 34563U 93036UZ  26282.20604647  .00000780  00000+0  21997-3 0  9996
2 34563  74.0405   2.2823 0013075  18.4934  10.4672 14.47340925925437
COSMOS 2251 DEB         
1 34564U 93036VA  26282.13396434  .00000371  00000+0  12313-3 0  9999
2 34564  74.0338  42.0168 0018011  74.9223 349.4965 14.41089607923338
COSMOS 2251 DEB         
1 34567U 93036VD  26281.60370928  .00000215  00000+0  10151-3 0  9998
2 34567  74.0431 336.9640 0074392 337.6259 173.3196 14.24245865913933
COSMOS 2251 DEB         
1 34569U 93036VF  26282.24638707  .00000848  00000+0  32585-3 0  9990
2 34569  73.9932  14.3585 0154913 134.6253 257.2522 14.25496259912492
COSMOS 2251 DEB         
1 34570U 93036VG  26282.08031545  .00000830  00000+0  49350-3 0  9990
2 34570  73.9584  55.6761 0190748 235.0557 244.6933 14.00353042898045
COSMOS 2251 DEB         
1 34571U 93036VH  26281.58049165  .00004726  00000+0  11117-2 0  9999
2 34571  74.0399 338.0328 0065372 300.0869  59.3821 14.53340386916449
COSMOS 2251 DEB         
1 34572U 93036VJ  26281.97816854  .00005113  00000+0  11827-2 0  9999
2 34572  74.0067 268.4971 0065940 269.1573 121.2572 14.54069246917379
COSMOS 2251 DEB         
1 34574U 93036VL  26282.17074194  .00003141  00000+0  46654-3 0  9993
2 34574  74.0674 179.1993 0063156 123.4910  34.0953 14.74096885932014
COSMOS 2251 DEB         
1 34576U 93036VN  26282.01970969  .00001700  00000+0  38414-3 0  9997
2 34576  74.0312 288.4381 0008737 330.5622  60.3284 14.57013372928380
COSMOS 2251 DEB         
1 34579U 93036VR  26282.11266444  .00000812  00000+0  23429-3 0  9990
2 34579  74.0547  24.2712 0026575  16.6969  40.5422 14.46051195925152
COSMOS 2251 DEB         
1 34582U 93036VU  26281.87395762  .00001238  00000+0  36278-3 0  9991
2 34582  74.0174  73.6865 0048066 112.8802 247.7440 14.44285607922796
COSMOS 2251 DEB         
1 34588U 93036WA  26282.20374265  .00000736  00000+0  22873-3 0  9998
2 34588  74.0418  71.1264 0018069  52.7178 121.8349 14.42708866922826
COSMOS 2251 DEB         
1 34589U 93036WB  26281.94535941  .00000282  00000+0  20594-3 0  9993
2 34589  73.9228 264.2656 0247776 149.6340 242.7009 13.86522153888726
COSMOS 2251 DEB         
1 34590U 93036WC  26282.32420575  .00000293  00000+0  72542-4 0  9997
2 34590  74.0413 113.7872 0068983 167.9479   4.8170 14.55112255934926
COSMOS 2251 DEB         
1 34609U 93036WE  26281.99368052  .00000894  00000+0  37216-3 0  9996
2 34609  73.7301 277.4624 0139162  89.4990 302.9648 14.22706825909016
COSMOS 2251 DEB         
1 34610U 93036WF  26281.49999027  .00001722  00000+0  88065-3 0  9994
2 34610  74.0142  95.9388 0179260 158.2500 202.6377 14.08309050897788
COSMOS 2251 DEB         
1 34611U 93036WG  26282.07256841  .00006952  00000+0  10537-2 0  9998
2 34611  74.0508 237.2198 0023206 207.2008 278.5754 14.74134220928101
COSMOS 2251 DEB         
1 34613U 93036WJ  26280.82841527  .00001817  00000+0  69844-3 0  9993
2 34613  73.9607  94.6610 0108406 219.4441 204.7183 14.27959985907304
COSMOS 2251 DEB         
1 34614U 93036WK  26282.12138635  .00005479  00000+0  20768-2 0  9997
2 34614  73.8741 160.5056 0182910  99.3223  51.1116 14.22525019890320
COSMOS 2251 DEB         
1 34615U 93036WL  26282.13391828  .00000496  00000+0  47347-3 0  9991
2 34615  74.0064 172.2843 0398184  17.4085 131.7954 13.52540980868769
COSMOS 2251 DEB         
1 34619U 93036WQ  26281.84182121  .00000531  00000+0  98464-4 0  9993
2 34619  74.0460 342.8881 0092922 359.8889   0.2242 14.65285351936934
COSMOS 2251 DEB         
1 34620U 93036WR  26282.24780586  .00005154  00000+0  11792-2 0  9992
2 34620  74.0508  13.6705 0075086 335.9234  23.8424 14.54178138911891
COSMOS 2251 DEB         
1 34622U 93036WT  26281.54811301  .00001181  00000+0  50612-3 0  9997
2 34622  74.0388 128.6217 0106079 140.9622 247.3075 14.22909755907236
COSMOS 2251 DEB         
1 34626U 93036WX  26281.96830551  .00003654  00000+0  54535-3 0  9990
2 34626  74.0440  98.6228 0027466 113.7276  41.0578 14.74932282935676
COSMOS 2251 DEB         
1 34634U 93036XF  26282.15580903  .00000723  00000+0  16723-3 0  9995
2 34634  74.0515 185.7945 0046138 216.0059 295.7930 14.56416378931540
COSMOS 2251 DEB         
1 34635U 93036XG  26282.22487723  .00003296  00000+0  53125-3 0  9995
2 34635  74.0437 208.1845 0030794 202.3244 308.4086 14.71579428776351
COSMOS 2251 DEB         
1 34637U 93036XJ  26281.88905433  .00002090  00000+0  41527-3 0  9995
2 34637  74.0465 247.6852 0051161 240.9162 147.7770 14.62007374929112
COSMOS 2251 DEB         
1 34641U 93036XN  26282.30799845  .00002123  00000+0  51315-3 0  9999
2 34641  73.8365 227.6420 0013859  87.6840  64.0441 14.53699466926216
COSMOS 2251 DEB         
1 34642U 93036XP  26281.19802633  .00000863  00000+0  50324-3 0  9994
2 34642  74.0041 180.6286 0206909 292.5577 224.8813 13.99907942894823
COSMOS 2251 DEB         
1 34671U 93036XR  26281.98224216  .00004526  00000+0  74013-3 0  9999
2 34671  74.0232 272.3977 0014948 277.8715 113.4768 14.71066679927073
COSMOS 2251 DEB         
1 34672U 93036XS  26278.90944854  .00000296  00000+0  10903-3 0  9993
2 34672  74.0312 119.4281 0023832 124.0757 300.9342 14.36744337694452
COSMOS 2251 DEB         
1 34678U 93036XY  26282.20555461  .00000008  00000+0  12843-4 0  9996
2 34678  74.0380 179.4265 0025019 160.0408 358.7027 14.30102702916741
COSMOS 2251 DEB         
1 34680U 93036YA  26281.04208183  .00002288  00000+0  45179-3 0  9995
2 34680  74.0408 277.0985 0009091 284.1596 132.8996 14.63002975927023
COSMOS 2251 DEB         
1 34681U 93036YB  26281.83650125  .00007466  00000+0  80116-3 0  9993
2 34681  74.0603  54.2141 0023083  37.7909 115.0855 14.88568427937290
COSMOS 2251 DEB         
1 34682U 93036YC  26281.82950278  .00001928  00000+0  40208-3 0  9990
2 34682  74.0369 230.5641 0020089 279.8563 106.8772 14.60529462930657
COSMOS 2251 DEB         
1 34683U 93036YD  26282.30813157  .00003416  00000+0  60830-3 0  9996
2 34683  74.0267 232.7601 0021014 265.5290 253.8798 14.67343892927535
COSMOS 2251 DEB         
1 34685U 93036YF  26282.22573991  .00002039  00000+0  43436-3 0  9991
2 34685  74.0273 296.3148 0015721 317.0795 167.0472 14.59575937929138
COSMOS 2251 DEB         
1 34689U 93036YK  26281.83425226  .00003007  00000+0  14220-2 0  9992
2 34689  74.0864  59.6738 0224488  55.4428  93.1626 14.07713649885601
COSMOS 2251 DEB         
1 34721U 93036YP  26282.11691017  .00001443  00000+0  84958-3 0  9992
2 34721  73.9216 164.6653 0215456  43.5591 104.7542 13.97876478893450
COSMOS 2251 DEB         
1 34722U 93036YQ  26282.09828348  .00001147  00000+0  55923-3 0  9990
2 34722  73.8713 160.1181 0162693  28.3474 120.5473 14.12570458904857
COSMOS 2251 DEB         
1 34726U 93036YU  26282.03716559  .00001039  00000+0  21768-3 0  9998
2 34726  74.0259 132.9193 0043688 207.0165 152.8728 14.60510169928857
COSMOS 2251 DEB         
1 34728U 93036YW  26278.60336370  .00002743  00000+0  42753-3 0  9997
2 34728  74.0181  33.6181 0040412 117.0803 243.4502 14.72903627931688
COSMOS 2251 DEB         
1 34729U 93036YX  26282.00489845  .00011025  00000+0  11314-2 0  9994
2 34729  74.0122 119.5318 0015550 161.3541 349.8451 14.90391874929211
COSMOS 2251 DEB         
1 34732U 93036ZA  26281.35119664  .00000225  00000+0  68024-4 0  9996
2 34732  74.0433 253.1856 0040030 326.3576 184.2762 14.47532022924781
COSMOS 2251 DEB         
1 34738U 93036ZG  26282.31782010  .00000491  00000+0  14140-3 0  9994
2 34738  74.0142 301.1927 0045919  12.5998 358.1244 14.46821874922050
COSMOS 2251 DEB         
1 34750U 93036ZU  26281.33380898  .00002534  00000+0  48230-3 0  9994
2 34750  74.1086 349.7753 0036107 221.7452 258.8318 14.64224588926124
COSMOS 2251 DEB         
1 34752U 93036ZW  26281.96492493  .00011243  00000+0  73301-3 0  9994
2 34752  74.0072 105.6299 0044949 155.1330 205.2041 15.07115641943633
COSMOS 2251 DEB         
1 34754U 93036ZY  26282.12405559  .00000384  00000+0  12741-3 0  9997
2 34754  74.0325  31.7755 0028374  75.9076 342.2990 14.40812189924598
COSMOS 2251 DEB         
1 34755U 93036ZZ  26282.07592773  .00000409  00000+0  39639-3 0  9990
2 34755  73.9235 167.0895 0404713 131.6503 301.0907 13.51022529865794
COSMOS 2251 DEB         
1 34756U 93036AAA 26282.12619389  .00000638  00000+0  52078-3 0  9996
2 34756  74.0050 330.0800 0338267 143.4012 219.0742 13.67926902875281
COSMOS 2251 DEB         
1 34758U 93036AAC 26281.70252165  .00000406  00000+0  36122-3 0  9991
2 34758  74.1062 176.3296 0385357 230.8872 125.7392 13.58674767869831
COSMOS 2251 DEB         
1 34760U 93036AAE 26282.02205463  .00000533  00000+0  24954-3 0  9990
2 34760  74.0607 126.1950 0096205 106.5294  44.0188 14.20122076909502
COSMOS 2251 DEB         
1 34761U 93036AAF 26281.37527776  .00000751  00000+0  25002-3 0  9999
2 34761  74.0279 170.1097 0037012 136.9849 223.4210 14.38969601919583
COSMOS 2251 DEB         
1 34784U 93036AAM 26279.93596133  .00001057  00000+0  21374-3 0  9994
2 34784  74.0033 112.9704 0050262 207.7691 152.0792 14.61913613928916
COSMOS 2251 DEB         
1 34790U 93036AAT 26281.85482587  .00000736  00000+0  30625-3 0  9994
2 34790  74.0527  62.9267 0099162  52.1379  99.1301 14.25409552908485
COSMOS 2251 DEB         
1 34792U 93036AAV 26282.26064709  .00001753  00000+0  38763-3 0  9995
2 34792  74.0168 318.2108 0013560 331.0836 149.5211 14.57982275920278
COSMOS 2251 DEB         
1 34793U 93036AAW 26282.15039817  .00000446  00000+0  15069-3 0  9998
2 34793  74.0028  55.1545 0050467 139.8206 276.5617 14.39015887916517
COSMOS 2251 DEB         
1 34796U 93036AAZ 26281.95852174  .00001109  00000+0  27712-3 0  9992
2 34796  74.0319  12.7985 0097757  40.4535  79.0263 14.49888054923779
COSMOS 2251 DEB         
1 34797U 93036ABA 26282.19902718  .00002925  00000+0  81282-3 0  9999
2 34797  73.9739 258.7672 0073544 300.0996  59.2884 14.45344458917530
COSMOS 2251 DEB         
1 34813U 93036ABC 26282.22579346  .00001842  00000+0  15063-2 0  9999
2 34813  73.9255   9.3439 0448050 346.7934  12.1741 13.52058560857143
COSMOS 2251 DEB         
1 34814U 93036ABD 26282.26594072  .00000989  00000+0  33071-3 0  9998
2 34814  73.8925 127.5733 0053476 312.0691 170.4350 14.37971707916519
COSMOS 2251 DEB         
1 34815U 93036ABE 26282.25922839  .00002870  00000+0  36076-3 0  9993
2 34815  74.0468   9.8883 0054847   0.7046 359.4198 14.81547016930742
COSMOS 2251 DEB         
1 34816U 93036ABF 26281.34063947  .00000286  00000+0  26613-3 0  9994
2 34816  73.8892  14.0372 0373233  24.3490  43.0806 13.58812200868521
COSMOS 2251 DEB         
1 34818U 93036ABH 26280.50041168  .00000309  00000+0  11215-3 0  9992
2 34818  74.0330 107.4377 0023928 114.6613 274.1465 14.37291724916621
COSMOS 2251 DEB         
1 34819U 93036ABJ 26282.00574715  .00004230  00000+0  75118-3 0  9998
2 34819  74.0152 283.5051 0018225 297.2705  93.5463 14.67410366926296
COSMOS 2251 DEB         
1 34823U 93036ABN 26280.36697766  .00001013  00000+0  20279-3 0  9996
2 34823  74.0381 256.3649 0154269 265.1216  93.2319 14.56006176927269
COSMOS 2251 DEB         
1 34845U 93036ABP 26278.44606658  .00000409  00000+0  12128-3 0  9998
2 34845  74.0248 314.2856 0020617  40.1893 320.0785 14.46320011917555
COSMOS 2251 DEB         
1 34846U 93036ABQ 26282.14546725  .00001457  00000+0  39344-3 0  9992
2 34846  74.0290  59.2377 0025204  54.9568 305.3951 14.48573085917527
COSMOS 2251 DEB         
1 34852U 93036ABW 26282.11768872  .00000182  00000+0  69971-4 0  9999
2 34852  74.0317  70.4432 0015512 105.6667 254.6199 14.37179607918493
COSMOS 2251 DEB         
1 34854U 93036ABY 26282.30021628  .00002566  00000+0  34182-3 0  9996
2 34854  74.0267 288.1778 0064219 320.9373  38.7173 14.78806456763220
COSMOS 2251 DEB         
1 34856U 93036ACA 26281.71489777  .00025594  00000+0  11011-2 0  9996
2 34856  74.0038 179.9713 0028996 232.9357 158.1083 15.22146870936530
COSMOS 2251 DEB         
1 34857U 93036ACB 26282.20449137  .00002577  00000+0  51817-3 0  9993
2 34857  74.0127 252.6516 0065844 300.4974  71.8939 14.60798740922861
COSMOS 2251 DEB         
1 34874U 93036ACM 26281.89572071  .00000979  00000+0  33020-3 0  9990
2 34874  74.0369 241.8404 0052697 197.9728 193.1068 14.37507338913565
COSMOS 2251 DEB         
1 34875U 93036ACN 26282.08988081  .00000790  00000+0  21190-3 0  9991
2 34875  74.0440 315.0498 0015570 356.8130  33.7807 14.49722927921076
COSMOS 2251 DEB         
1 34878U 93036ACR 26273.84403336  .00000115  00000+0  13352-3 0  9995
2 34878  73.9649 303.7384 0437207 231.4249 308.7884 13.44557297851982
COSMOS 2251 DEB         
1 34879U 93036ACS 26281.11360563  .00000458  00000+0  43672-3 0  9997
2 34879  73.9056 180.6954 0489256 207.9564 149.4458 13.39985390623492
COSMOS 2251 DEB         
1 34882U 93036ACV 26281.65939184  .00000383  00000+0  79048-4 0  9995
2 34882  74.0501  11.9100 0080519  61.8572 299.0701 14.62033517929075
COSMOS 2251 DEB         
1 34883U 93036ACW 26281.59711443  .00010672  00000+0  21872-2 0  9997
2 34883  74.1956 220.2051 0084199 308.8315  50.5354 14.58567000908028
COSMOS 2251 DEB         
1 34884U 93036ACX 26282.12270926  .00031328  00000+0  21297-2 0  9996
2 34884  74.0107 166.5759 0008574 182.4150 327.9240 15.06184050923058
COSMOS 2251 DEB         
1 34885U 93036ACY 26282.14442225  .00001305  00000+0  32368-3 0  9996
2 34885  74.0314 336.6383 0015511 342.8794  47.4338 14.52851127918408
COSMOS 2251 DEB         
1 34908U 93036ADD 26282.17289044  .00000779  00000+0  26235-3 0  9993
2 34908  74.0578 191.1252 0040129 137.2668  13.4886 14.38241564915976
COSMOS 2251 DEB         
1 34909U 93036ADE 26282.20267643  .00001743  00000+0  22472-3 0  9990
2 34909  74.0153 204.9549 0083369 263.1216  96.0471 14.79508482712937
COSMOS 2251 DEB         
1 34910U 93036ADF 26281.64333818  .00000174  00000+0  19520-3 0  9994
2 34910  73.8768 347.9688 0465149  55.3437  93.9128 13.38035204855356
COSMOS 2251 DEB         
1 34911U 93036ADG 26282.31104763  .00000325  00000+0  71262-4 0  9995
2 34911  74.0427  31.7085 0082400  81.2124 311.6322 14.59700074929724
COSMOS 2251 DEB         
1 34913U 93036ADJ 26282.17038603  .00000056  00000+0  28968-4 0  9996
2 34913  74.0258  91.8921 0020279 134.2382 347.5070 14.34706185694960
COSMOS 2251 DEB         
1 34918U 93036ADP 26273.32939720  .00002127  00000+0  40209-3 0  9990
2 34918  74.0668 115.3715 0026343   9.7398 165.2855 14.64842331696015
COSMOS 2251 DEB         
1 34924U 93036ADV 26282.31830991  .00002036  00000+0  40366-3 0  9999
2 34924  74.0385 234.8981 0056066 242.3932 269.1425 14.61958848921133
COSMOS 2251 DEB         
1 34944U 93036ADX 26281.34410402  .00001206  00000+0  50725-3 0  9992
2 34944  73.7499  51.1512 0218926 210.5508 148.2733 14.14877226683196
COSMOS 2251 DEB         
1 34946U 93036ADZ 26282.25521333  .00001391  00000+0  27028-3 0  9996
2 34946  74.0204 125.6027 0050460 187.4979 172.5440 14.63370619926031
COSMOS 2251 DEB         
1 34949U 93036AEC 26281.59830940  .00002016  00000+0  28791-3 0  9995
2 34949  74.0157 243.1285 0078868 310.8208  48.6144 14.75340033927824
COSMOS 2251 DEB         
1 34953U 93036AEG 26281.13509360  .00002450  00000+0  38977-3 0  9998
2 34953  74.0914 168.4364 0053629  81.8965  67.9617 14.71639435925291
COSMOS 2251 DEB         
1 34955U 93036AEJ 26279.49362577  .00004927  00000+0  32949-3 0  9997
2 34955  74.0380 358.1851 0071004 348.0405  11.9094 15.05171627945082
COSMOS 2251 DEB         
1 34962U 93036AER 26282.19017971  .00000733  00000+0  20719-3 0  9994
2 34962  74.0317 351.6910 0017762  28.2486 331.9632 14.47317409919248
COSMOS 2251 DEB         
1 34963U 93036AES 26276.54646133  .00002488  00000+0  59850-3 0  9992
2 34963  74.1692 211.5167 0040532 315.6385  44.1533 14.53347513910819
COSMOS 2251 DEB         
1 34964U 93036AET 26278.08541732  .00002734  00000+0  14979-2 0  9999
2 34964  73.9702 191.4846 0208812 345.5024  14.0174 14.01878714886294
COSMOS 2251 DEB         
1 34965U 93036AEU 26281.70126794  .00000547  00000+0  15004-3 0  9991
2 34965  74.0496 286.6084 0026325 333.6163  26.3655 14.49253269914585
COSMOS 2251 DEB         
1 34967U 93036AEW 26279.67153982  .00001209  00000+0  34890-3 0  9995
2 34967  73.9919  57.5041 0038429 134.8765 225.5525 14.45310967692600
COSMOS 2251 DEB         
1 34968U 93036AEX 26282.31228243  .00000334  00000+0  72745-4 0  9994
2 34968  74.0406  33.8994 0085290  78.4866 282.5861 14.59769648928631
COSMOS 2251 DEB         
1 34969U 93036AEY 26282.04760186  .00000440  00000+0  16650-3 0  9992
2 34969  74.0143 194.1685 0075545 255.1643 104.1131 14.32666503694374
COSMOS 2251 DEB         
1 34971U 93036AFA 26280.14260508  .00000451  00000+0  10604-3 0  9992
2 34971  73.9767  77.3240 0070496 231.9634 247.3952 14.56045545705151
COSMOS 2251 DEB         
1 34972U 93036AFB 26281.17554193  .00004390  00000+0  61056-3 0  9996
2 34972  73.9860 182.2244 0033493 260.2826 250.9474 14.77764958920674
COSMOS 2251 DEB         
1 34976U 93036AFF 26282.19284973  .00002542  00000+0  33146-3 0  9995
2 34976  74.0532  76.0694 0043635  45.7516 128.5950 14.80472268927159
COSMOS 2251 DEB         
1 34979U 93036AFJ 26281.71097558  .00004897  00000+0  58843-3 0  9992
2 34979  74.0397  34.7770 0045719  36.2646 324.1616 14.83499499926634
COSMOS 2251 DEB         
1 34990U 93036AFN 26278.64832219  .00000595  00000+0  18548-3 0  9993
2 34990  74.0445  60.5973 0015278  52.2701 307.9838 14.42984632916288
COSMOS 2251 DEB         
1 34997U 93036AFV 26280.84389418  .00002096  00000+0  54280-3 0  9994
2 34997  73.8759 106.7467 0091330  21.2725 339.2190 14.48020748750736
COSMOS 2251 DEB         
1 34998U 93036AFW 26282.08157944  .00000953  00000+0  25109-3 0  9998
2 34998  74.0098 315.2194 0019868  23.3691   6.4254 14.50284270917735
COSMOS 2251 DEB         
1 35012U 93036AFZ 26281.98170884  .00000323  00000+0  95528-4 0  9996
2 35012  74.0182 271.2328 0080899 337.0335  22.7212 14.45795252919007
COSMOS 2251 DEB         
1 35014U 93036AGB 26279.39201353  .00006387  00000+0  83356-3 0  9997
2 35014  73.9961 177.3588 0009997 248.3295 111.6818 14.80689960757350
COSMOS 2251 DEB         
1 35015U 93036AGC 26282.04718161  .00002499  00000+0  65247-3 0  9993
2 35015  73.9497  29.7425 0072959 190.9499 346.0427 14.48409521697867
COSMOS 2251 DEB         
1 35016U 93036AGD 26279.25072984  .00000435  00000+0  14980-3 0  9995
2 35016  73.9272 105.1415 0112860 317.1365 154.4269 14.35614435910511
COSMOS 2251 DEB         
1 35018U 93036AGF 26280.56951080  .00000844  00000+0  67675-3 0  9999
2 35018  73.9791 337.5131 0343939 186.6621 172.9865 13.67891336872719
COSMOS 2251 DEB         
1 35020U 93036AGH 26281.59333824  .00000387  00000+0  77063-4 0  9991
2 35020  74.0476 344.2964 0089434  20.8896 339.5887 14.63178551926239
COSMOS 2251 DEB         
1 35022U 93036AGK 26282.25160805  .00001039  00000+0  21077-3 0  9992
2 35022  74.0216 106.7724 0047063 228.8303 130.8800 14.61867114635336
COSMOS 2251 DEB         
1 35023U 93036AGL 26282.25296525  .00013036  00000+0  89685-3 0  9991
2 35023  74.0340 320.8371 0030161 322.1306 155.4655 15.05563493927881
COSMOS 2251 DEB         
1 35025U 93036AGN 26282.18051854  .00001610  00000+0  23709-3 0  9999
2 35025  73.9370 193.5373 0080806  36.8658 323.8031 14.74110569930689
COSMOS 2251 DEB         
1 35026U 93036AGP 26281.91122770  .00000158  00000+0  42947-4 0  9998
2 35026  74.0443 112.0689 0082927 150.2778 279.1333 14.53767525925059
COSMOS 2251 DEB         
1 35028U 93036AGR 26282.10825296  .00000257  00000+0  61408-4 0  9998
2 35028  74.0378  60.8574 0082209 119.6086 355.0708 14.56776187926592
COSMOS 2251 DEB         
1 35031U 93036AGU 26279.09611818  .00000255  00000+0  91948-4 0  9999
2 35031  74.0369  71.2866 0017996  95.8911 264.4295 14.38548405695596
COSMOS 2251 DEB         
1 35032U 93036AGV 26282.31959581  .00001690  00000+0  34307-3 0  9990
2 35032  73.8487 147.2884 0065217 294.7866 188.6096 14.60736641920602
COSMOS 2251 DEB         
1 35033U 93036AGW 26279.43809128  .00001099  00000+0  27761-3 0  9990
2 35033  74.0270 335.7058 0014156   2.7131 357.4105 14.52192415702477
COSMOS 2251 DEB         
1 35038U 93036AHB 26281.54840688  .00001934  00000+0  75573-3 0  9998
2 35038  74.1052 223.0439 0109516 132.8581 345.6264 14.26974364898431
COSMOS 2251 DEB         
1 35043U 93036AHG 26281.12199815  .00017232  00000+0  16175-2 0  9997
2 35043  73.9431 168.0754 0068798 298.9954  60.4344 14.92145885718621
COSMOS 2251 DEB         
1 35045U 93036AHJ 26278.62919872  .00000566  00000+0  34423-3 0  9992
2 35045  73.7170 248.1178 0178023  85.7053 276.4398 14.00911917888000
COSMOS 2251 DEB         
1 35060U 93036AHP 26282.03058395  .00000593  00000+0  18814-3 0  9999
2 35060  74.0372  47.7938 0017354  62.0955 298.1956 14.42120049915703
COSMOS 2251 DEB         
1 35061U 93036AHQ 26278.91103568  .00002038  00000+0  34348-3 0  9991
2 35061  74.0409  90.8102 0039741 126.9628 233.5192 14.69692518929386
COSMOS 2251 DEB         
1 35062U 93036AHR 26281.97000604  .00002231  00000+0  88561-3 0  9990
2 35062  74.0749 273.7424 0126506 201.8826 157.6892 14.25068649897732
COSMOS 2251 DEB         
1 35065U 93036AHU 26281.56260883  .00000715  00000+0  20580-3 0  9997
2 35065  74.0218 354.2313 0018632  44.8621 315.4040 14.46475941726859
COSMOS 2251 DEB         
1 35071U 93036AJA 26276.30113109  .00004891  00000+0  29608-3 0  9997
2 35071  73.9283 284.4943 0058531 109.1465 251.6075 15.09461388719730
COSMOS 2251 DEB         
1 35073U 93036AJC 26278.70333214  .00086454  00000+0  28011-2 0  9997
2 35073  73.9785  70.3412 0013662 104.0432 256.2291 15.31511046719784
COSMOS 2251 DEB         
1 35284U 93036AJN 26282.14900355  .00000273  00000+0  97667-4 0  9990
2 35284  74.0479  71.1665 0015656  76.7699  98.9186 14.38567359698452
COSMOS 2251 DEB         
1 35287U 93036AJR 26281.89638733  .00000207  00000+0  79088-4 0  9996
2 35287  74.0281  84.4816 0017136 113.7162  36.5864 14.36566859912028
COSMOS 2251 DEB         
1 35288U 93036AJS 26279.37412315  .00002958  00000+0  51078-3 0  9996
2 35288  73.9484 157.5918 0035864 316.2444  43.5884 14.68516313922439
COSMOS 2251 DEB         
1 35290U 93036AJU 26282.14525414  .00009685  00000+0  10411-2 0  9992
2 35290  74.0021 181.7538 0007836 218.5721 141.4901 14.88615775924173
COSMOS 2251 DEB         
1 35433U 93036AKB 26281.34833600  .00000319  00000+0  12048-3 0  9995
2 35433  74.0338 149.3037 0026031 136.4323 339.8571 14.35114666908781
COSMOS 2251 DEB         
1 35434U 93036AKC 26278.70597911  .00000607  00000+0  25264-3 0  9998
2 35434  74.0415  37.2175 0086110  36.2670 324.4272 14.26440280903510
COSMOS 2251 DEB         
1 35435U 93036AKD 26282.13356095  .00013762  00000+0  15538-2 0  9995
2 35435  74.0069 228.5743 0013468 248.3059 124.8718 14.86496825919926
COSMOS 2251 DEB         
1 35439U 93036AKH 26277.45023697  .00000769  00000+0  47459-3 0  9998
2 35439  74.0201 347.4702 0236413  90.1611 272.6610 13.93998331880801
COSMOS 2251 DEB         
1 35440U 93036AKJ 26276.49476115  .00000905  00000+0  15082-3 0  9999
2 35440  74.0161 355.7244 0067006  62.6927 298.1045 14.70143918730959
COSMOS 2251 DEB         
1 35441U 93036AKK 26278.81821525  .00004903  00000+0  88196-3 0  9995
2 35441  74.1313  90.1674 0031785 256.0853 103.6781 14.66562687917800
COSMOS 2251 DEB         
1 35442U 93036AKL 26282.23072121  .00018047  00000+0  15953-2 0  9991
2 35442  74.0218 216.4999 0006700 212.3622 147.7152 14.96288498918311
COSMOS 2251 DEB         
1 35443U 93036AKM 26278.83135297  .01266641  00000+0  93792-2 0  9990
2 35443  73.9416  66.1130 0008466  57.5367 302.6673 15.70133584913923
COSMOS 2251 DEB         
1 35445U 93036AKP 26281.89061268  .00006254  00000+0  10687-2 0  9991
2 35445  74.0321  85.5446 0136783  97.8227 263.8493 14.63060287917149
COSMOS 2251 DEB         
1 35446U 93036AKQ 26280.95451524  .00000224  00000+0  57119-4 0  9990
2 35446  74.0442 112.3086 0075190 155.4178 205.0600 14.54863801923590
COSMOS 2251 DEB         
1 35448U 93036AKS 26280.30611734  .00001819  00000+0  41877-3 0  9996
2 35448  73.9000 239.3784 0010702 331.7436  28.3145 14.56110429916785
COSMOS 2251 DEB         
1 35453U 93036AKX 26279.47015242  .00001034  00000+0  33431-3 0  9996
2 35453  74.0086 190.5268 0068564 251.9475 107.4201 14.39022476905007
COSMOS 2251 DEB         
1 35455U 93036AKZ 26282.15043161  .00003042  00000+0  72485-3 0  9991
2 35455  74.0243  89.7831 0098726 120.2327 240.8655 14.51251871908999
COSMOS 2251 DEB         
1 35456U 93036ALA 26282.28855341  .00007737  00000+0  11303-2 0  9993
2 35456  73.9463 249.2871 0056889  24.8820 335.5076 14.74763648702996
COSMOS 2251 DEB         
1 35459U 93036ALD 26278.49090097  .00000337  00000+0  12084-3 0  9990
2 35459  73.8735 355.5166 0017797 244.1879 115.7438 14.37865800626261
COSMOS 2251 DEB         
1 35462U 93036ALG 26282.17197328  .00001780  00000+0  65977-3 0  9991
2 35462  74.0329  82.0902 0084044  45.5880 315.2108 14.31011629706762
COSMOS 2251 DEB         
1 35465U 93036ALK 26279.65683294  .00000604  00000+0  17666-3 0  9991
2 35465  74.0009   1.0259 0062203  91.0058 269.8228 14.45015218915449
COSMOS 2251 DEB         
1 35469U 93036ALP 26280.41149141  .00000150  00000+0  44835-4 0  9994
2 35469  74.0174 182.3528 0077977 263.8015  95.4258 14.50032756924408
COSMOS 2251 DEB         
1 35475U 93036ALV 26280.39844770  .00004798  00000+0  71260-3 0  9991
2 35475  74.0203 303.3477 0022335 300.6299  59.2672 14.75133927700148
COSMOS 2251 DEB         
1 35476U 93036ALW 26281.88922057  .00008386  00000+0  10509-2 0  9997
2 35476  73.9758 187.9545 0013660 116.7568   3.6150 14.82286065923264
COSMOS 2251 DEB         
1 35580U 93036ALX 26281.98215373  .00001199  00000+0  79587-3 0  9997
2 35580  73.9020  27.5780 0281292 335.6193  23.1832 13.84967251664121
COSMOS 2251 DEB         
1 35583U 93036AMA 26281.86387335  .00000357  00000+0  33273-3 0  9992
2 35583  73.9138  85.3403 0386688  53.8726 309.7526 13.55931115864790
COSMOS 2251 DEB         
1 35585U 93036AMC 26281.79499453  .00001479  00000+0  10986-2 0  9992
2 35585  73.9711 207.0653 0303939  57.5426 334.9329 13.76135088681904
COSMOS 2251 DEB         
1 35586U 93036AMD 26282.00924795  .00000480  00000+0  45552-3 0  9999
2 35586  74.0219 181.3430 0402997 353.5444  18.3489 13.52374450644417
COSMOS 2251 DEB         
1 35587U 93036AME 26281.14045545  .00000758  00000+0  11628-3 0  9996
2 35587  74.0042 194.9006 0101180 306.8634  52.3293 14.72261841707517
COSMOS 2251 DEB         
1 35593U 93036AML 26279.26806053  .00000804  00000+0  32366-3 0  9996
2 35593  74.0824 112.3621 0103961  45.0657 315.8865 14.26691093893079
COSMOS 2251 DEB         
1 35594U 93036AMM 26279.52575123  .00009699  00000+0  88404-3 0  9992
2 35594  73.8033 220.4569 0029754 269.4565  90.3209 14.94893581926264
COSMOS 2251 DEB         
1 35602U 93036AMV 26280.27617076  .00016557  00000+0  29470-3 0  9999
2 35602  73.9886 253.4851 0069270 239.4608 184.5039 15.47391934946929
COSMOS 2251 DEB         
1 35606U 93036AMZ 26281.34569055  .00000547  00000+0  55738-3 0  9993
2 35606  73.8082 253.1533 0450935  51.1679 312.8780 13.41555879650577
COSMOS 2251 DEB         
1 35611U 93036ANE 26281.06447635  .00006230  00000+0  82565-3 0  9990
2 35611  74.0190 311.9121 0022741 308.8505  51.0641 14.79900082917095
COSMOS 2251 DEB         
1 35614U 93036ANH 26282.85419316  .00003255  00000+0  53307-3 0  9992
2 35614  73.9546 102.2845 0073011 243.7901 115.5751 14.69458592921498
COSMOS 2251 DEB         
1 35645U 93036ANL 26281.58762869  .00004003  00000+0  10477-2 0  9991
2 35645  73.9619 244.6873 0068137 328.3914  31.3160 14.48283199911092
COSMOS 2251 DEB         
1 35646U 93036ANM 26282.04588778  .00000524  00000+0  52880-3 0  9998
2 35646  73.8684 299.2678 0458532 357.5164  29.5161 13.41227677858840
COSMOS 2251 DEB         
1 35647U 93036ANN 26282.16530758  .00001302  00000+0  37770-3 0  9993
2 35647  74.0191  95.0728 0046457 123.3074 237.2545 14.44765173720016
COSMOS 2251 DEB         
1 35650U 93036ANR 26281.60645174  .00008948  00000+0  88878-3 0  9992
2 35650  74.0422 140.7605 0015385 130.6158 260.4962 14.91746473920959
COSMOS 2251 DEB         
1 35660U 93036APB 26281.73672546  .00000770  00000+0  20272-3 0  9999
2 35660  74.0382 289.6799 0017650 356.4987 119.7407 14.50699470702202
COSMOS 2251 DEB         
1 35661U 93036APC 26278.53400795  .00003862  00000+0  37836-3 0  9998
2 35661  74.0116 206.2649 0085184 233.6586 125.6713 14.89940794922845
COSMOS 2251 DEB         
1 35663U 93036APE 26276.28000347  .00003272  00000+0  55891-3 0  9995
2 35663  74.0181 274.9837 0010205 275.5715  84.4291 14.69314836777033
COSMOS 2251 DEB         
1 35667U 93036APJ 26282.28074932  .00002317  00000+0  46356-3 0  9992
2 35667  74.0521 286.0215 0022083 267.5377  92.3262 14.62281026751935
COSMOS 2251 DEB         
1 35668U 93036APK 26281.91059836  .00000617  00000+0  11641-3 0  9998
2 35668  74.0472   3.9548 0081327  31.6625 328.9396 14.64676126920416
COSMOS 2251 DEB         
1 35669U 93036APL 26279.68045547  .00000464  00000+0  41589-3 0  9998
2 35669  73.8630  33.0807 0384539  93.3030 271.2138 13.57677939648323
COSMOS 2251 DEB         
1 35670U 93036APM 26281.38377386  .00009060  00000+0  68050-3 0  9992
2 35670  73.8918 171.2959 0027482  68.8313 291.5807 15.02416479922166
COSMOS 2251 DEB         
1 35671U 93036APN 26282.32004686  .00000435  00000+0  12162-3 0  9998
2 35671  74.0164 235.5329 0040716 333.4602 177.9889 14.48704393911153
COSMOS 2251 DEB         
1 35674U 93036APR 26281.95155781  .00003500  00000+0  73922-3 0  9999
2 35674  74.0553 108.0010 0092368  77.7978 283.3513 14.57075053904807
COSMOS 2251 DEB         
1 35701U 93036APW 26282.00968654  .00001404  00000+0  97180-3 0  9991
2 35701  74.0025 156.9289 0287952 301.1032  56.2127 13.81896964663057
COSMOS 2251 DEB         
1 35703U 93036APY 26281.35072229  .00003281  00000+0  29798-3 0  9999
2 35703  74.0396 160.8622 0062011 152.7227 207.7238 14.94247386710869
COSMOS 2251 DEB         
1 35705U 93036AQA 26279.27595726  .00013105  00000+0  16245-2 0  9999
2 35705  74.2678 279.8930 0017839 143.1028 217.1383 14.82597667903227
COSMOS 2251 DEB         
1 35706U 93036AQB 26282.30405610  .00000823  00000+0  67441-3 0  9998
2 35706  73.8851 285.8283 0346839 280.9887  75.2400 13.66636282661673
COSMOS 2251 DEB         
1 35711U 93036AQG 26278.54446044  .00000430  00000+0  83245-4 0  9996
2 35711  74.0479  10.5715 0083297  35.0464 325.6145 14.64454907921158
COSMOS 2251 DEB         
1 35716U 93036AQM 26280.57448010  .00000194  00000+0  44378-4 0  9993
2 35716  73.9955 342.1882 0087840 111.6887 318.8214 14.60400970919893
COSMOS 2251 DEB         
1 35717U 93036AQN 26276.07839112  .00002273  00000+0  70134-3 0  9999
2 35717  74.1604  38.0665 0074552 174.6148 185.5828 14.40338807783350
COSMOS 2251 DEB         
1 35718U 93036AQP 26277.26865027  .00003609  00000+0  56574-3 0  9992
2 35718  74.0288 275.6791 0013868 258.0540 101.9078 14.73008150701869
COSMOS 2251 DEB         
1 35721U 93036AQS 26279.44216095  .00001671  00000+0  51692-3 0  9996
2 35721  73.9510 348.4379 0141306  68.5395 293.0759 14.36431955620615
COSMOS 2251 DEB         
1 35724U 93036AQV 26282.18210684  .00000720  00000+0  15677-3 0  9999
2 35724  74.0298  90.5632 0059906 169.0928 191.1553 14.58763607919092
COSMOS 2251 DEB         
1 35759U 93036ARD 26272.55092416  .00000591  00000+0  11019-3 0  9990
2 35759  74.0399  16.3643 0074872  60.4192 300.4411 14.65660004703955
COSMOS 2251 DEB         
1 35764U 93036ARJ 26269.89088928  .00005241  00000+0  67969-3 0  9994
2 35764  74.0208 136.0943 0025054 183.3695 176.7317 14.80825635703087
COSMOS 2251 DEB         
1 35771U 93036ARR 26281.06078118  .00003978  00000+0  15784-2 0  9997
2 35771  74.1557 141.7030 0201839   0.7156 359.4236 14.18595787870981
COSMOS 2251 DEB         
1 35773U 93036ART 26282.28978374  .00001354  00000+0  26343-3 0  9997
2 35773  74.0041 123.6061 0046341 207.6402 152.2301 14.63491336912344
COSMOS 2251 DEB         
1 35777U 93036ARX 26280.25230159  .00000451  00000+0  46523-3 0  9997
2 35777  73.7708 205.7248 0448552  56.1724  89.5980 13.41566380836872
COSMOS 2251 DEB         
1 35784U 93036ASE 26281.57831332  .00000609  00000+0  16105-3 0  9999
2 35784  74.0362 246.3960 0042327 299.4585  60.2355 14.50554928700530
COSMOS 2251 DEB         
1 35786U 93036ASG 26278.09652790  .00002958  00000+0  50591-3 0  9999
2 35786  74.0127 190.3529 0036184 243.0452 116.7021 14.68921917777561
COSMOS 2251 DEB         
1 35789U 93036ASK 26278.91754838  .00000158  00000+0  62200-4 0  9990
2 35789  74.0359  98.8045 0047117 127.7689 232.7747 14.36152932654931
COSMOS 2251 DEB         
1 35793U 93036ASP 26279.46183251  .00008401  00000+0  97592-3 0  9991
2 35793  74.0383 191.4426 0007308 204.4257 274.1068 14.85478305702094
COSMOS 2251 DEB         
1 35824U 93036ASW 26280.26331780  .00001442  00000+0  92961-3 0  9991
2 35824  73.8421 255.1299 0254350 287.3877  69.9582 13.89328612883723
COSMOS 2251 DEB         
1 35825U 93036ASX 26281.94337824  .00000659  00000+0  48249-3 0  9992
2 35825  74.1137   8.6154 0351772  32.7175 329.5204 13.71878166866241
COSMOS 2251 DEB         
1 35829U 93036ATB 26279.54428136  .00008771  00000+0  10811-2 0  9992
2 35829  74.0210 231.6176 0010344 232.6865 127.3371 14.82997127921818
COSMOS 2251 DEB         
1 35830U 93036ATC 26279.15390026  .00000860  00000+0  34363-3 0  9997
2 35830  73.8584  84.0481 0121316 355.6458   4.3621 14.26078414655011
COSMOS 2251 DEB         
1 35834U 93036ATG 26281.35473293  .00000110  00000+0  68667-4 0  9997
2 35834  73.9310 131.2749 0110501 228.9570 306.6870 14.13176351704953
COSMOS 2251 DEB         
1 35835U 93036ATH 26280.90079358  .00000800  00000+0  53545-3 0  9996
2 35835  74.0605 124.9929 0292202 197.6689 161.4108 13.83669655658368
COSMOS 2251 DEB         
1 35836U 93036ATJ 26280.50671859  .00005003  00000+0  71385-3 0  9999
2 35836  74.0304 309.4231 0025005 293.3114  66.5430 14.76795412679239
COSMOS 2251 DEB         
1 35837U 93036ATK 26280.11901829  .00002078  00000+0  14375-2 0  9994
2 35837  73.7237  70.2139 0410856 308.9809 169.2155 13.65768627620479
COSMOS 2251 DEB         
1 35840U 93036ATN 26280.80312241  .00002470  00000+0  73111-3 0  9998
2 35840  73.9313 322.4169 0108519 161.6177 198.8949 14.40574865895945
COSMOS 2251 DEB         
1 35883U 93036ATW 26278.85607657  .00000548  00000+0  13950-3 0  9994
2 35883  74.0228 230.7863 0084439 285.5813 103.2947 14.51107519666953
COSMOS 2251 DEB         
1 35884U 93036ATX 26279.03653059  .00001723  00000+0  66805-3 0  9996
2 35884  73.9890 156.7658 0110824 234.1071 124.9751 14.27417726265977
COSMOS 2251 DEB         
1 35885U 93036ATY 26282.84031911  .00000473  00000+0  16468-3 0  9998
2 35885  74.0257 100.1824 0023201 112.1529 248.2090 14.37934222693438
COSMOS 2251 DEB         
1 35887U 93036AUA 26279.75430596  .00003354  00000+0  83428-3 0  9999
2 35887  73.9770 304.4175 0075924  25.9450 334.5485 14.50411269688436
COSMOS 2251 DEB         
1 35888U 93036AUB 26281.30857037  .00000738  00000+0  16023-3 0  9997
2 35888  74.0312 145.9347 0049908 202.2163 157.6841 14.59234128906422
COSMOS 2251 DEB         
1 35890U 93036AUD 26279.70590608  .00004196  00000+0  84276-3 0  9996
2 35890  73.9361  30.9417 0052200  88.7846 271.9299 14.61114744694988
COSMOS 2251 DEB         
1 35891U 93036AUE 26275.04412054  .00683608  20731-3  14675-2 0  9991
2 35891  73.9649 164.6126 0020914 193.6834 166.3840 15.98013474717759
COSMOS 2251 DEB         
1 35895U 93036AUJ 26276.14786387  .00001028  00000+0  56607-3 0  9995
2 35895  74.0463 196.2490 0204995 226.0905 132.3152 14.02764578631393
COSMOS 2251 DEB         
1 35898U 93036AUM 26281.75630968  .00006908  00000+0  54431-3 0  9999
2 35898  73.9898  48.7572 0075040 116.0291 314.4039 14.98719104712994
COSMOS 2251 DEB         
1 35902U 93036AUR 26278.81130882  .00001436  00000+0  55624-3 0  9994
2 35902  73.9820  54.7409 0101226 102.6547 258.5942 14.28108968653697
COSMOS 2251 DEB         
1 35905U 93036AUU 26281.45307373  .00003849  00000+0  26959-3 0  9991
2 35905  74.0311 320.2414 0084702 319.8368  39.6578 15.02723572930807
COSMOS 2251 DEB         
1 35956U 93036AUW 26281.87321786  .00005809  00000+0  24906-2 0  9994
2 35956  74.0700  85.1088 0226209  89.9417 272.7642 14.12196623660947
COSMOS 2251 DEB         
1 35959U 93036AUZ 26281.96135552  .00000176  00000+0  71695-4 0  9992
2 35959  74.0301 122.3860 0021684 135.0691 225.2221 14.34295449892321
COSMOS 2251 DEB         
1 35961U 93036AVB 26277.07838979  .00001092  00000+0  57558-3 0  9994
2 35961  73.9279  44.0922 0186685 277.7146  80.2828 14.06681921668334
COSMOS 2251 DEB         
1 35966U 93036AVG 26282.16809143  .00004609  00000+0  12776-2 0  9995
2 35966  74.0275  95.5798 0113474 115.1499 246.1480 14.43093883178430
COSMOS 2251 DEB         
1 35975U 93036AVR 26279.33259513  .00001693  00000+0  64229-3 0  9991
2 35975  74.0480 150.9246 0111652 158.7267 201.8579 14.28435317683493
COSMOS 2251 DEB         
1 35979U 93036AVV 26278.02771211  .00003548  00000+0  49039-3 0  9997
2 35979  74.0106  17.2313 0056740  75.1980  98.8418 14.77374233930058
COSMOS 2251 DEB         
1 35980U 93036AVW 26279.31797114  .00004063  00000+0  79643-3 0  9999
2 35980  73.9089 269.5203 0052726 334.2863  25.5682 14.62220663658325
COSMOS 2251 DEB         
1 35982U 93036AVY 26280.59034049  .00001159  00000+0  21999-3 0  9998
2 35982  74.0547 134.0703 0063737 124.6733 236.0465 14.64133835905385
COSMOS 2251 DEB         
1 35987U 93036AWD 26274.32610028  .00001092  00000+0  31909-3 0  9992
2 35987  73.9954 141.2396 0049210 197.5469 162.3991 14.44577502652883
COSMOS 2251 DEB         
1 35989U 93036AWF 26279.23697501  .00000253  00000+0  93390-4 0  9991
2 35989  74.0350  96.6230 0021491 109.7411 250.6063 14.37362528914536
COSMOS 2251 DEB         
1 35993U 93036AWK 26279.28800453  .00001675  00000+0  30172-3 0  9990
2 35993  74.0110 118.4244 0029655 228.8297 131.0314 14.67152279648042
COSMOS 2251 DEB         
1 35996U 93036AWN 26277.09314259  .00005381  00000+0  27035-3 0  9996
2 35996  74.0322 210.9995 0084769 226.0665 133.3514 15.14387800767904
COSMOS 2251 DEB         
1 35997U 93036AWP 26277.49582488  .00001024  00000+0  25659-3 0  9992
2 35997  74.0451 350.2984 0015731 347.7471  12.3306 14.52630089751777
COSMOS 2251 DEB         
1 36000U 93036AWS 26275.55218687  .00016580  00000+0  11412-2 0  9994
2 36000  73.9837 209.5580 0030147 245.7312 114.0728 15.05500919645706
COSMOS 2251 DEB         
1 36005U 93036AWX 26281.32485822  .00000317  00000+0  91646-4 0  9998
2 36005  74.0247 253.3073 0061868 315.1642  44.4527 14.47658810919193
COSMOS 2251 DEB         
1 36008U 93036AXA 26275.18414862  .00004809  00000+0  16885-2 0  9994
2 36008  74.0019  97.6107 0162654 173.4300 186.9038 14.28076322648099
COSMOS 2251 DEB         
1 36045U 93036AXG 26282.09720620  .00008752  00000+0  12394-2 0  9997
2 36045  73.7627 183.4481 0044286 148.1646 212.2218 14.76510406128132
COSMOS 2251 DEB         
1 36046U 93036AXH 26278.68022462  .00001676  00000+0  30040-3 0  9994
2 36046  74.0144  63.6283 0055687 136.1688 237.2674 14.66617882683550
COSMOS 2251 DEB         
1 36047U 93036AXJ 26281.85930288  .00032519  00000+0  17147-2 0  9994
2 36047  74.0121  77.9552 0008625  52.9440 307.2542 15.15395386704580
COSMOS 2251 DEB         
1 36048U 93036AXK 26282.21038256  .00000365  00000+0  12825-3 0  9993
2 36048  74.0542 106.5198 0025685  84.9726  36.6104 14.38220760898218
COSMOS 2251 DEB         
1 36049U 93036AXL 26281.95127059  .00002950  00000+0  55728-3 0  9995
2 36049  74.0271 262.6419 0014242 272.5348  87.4189 14.64832174897572
COSMOS 2251 DEB         
1 36050U 93036AXM 26281.33645541  .00004669  00000+0  30704-3 0  9996
2 36050  74.0294 301.5679 0082583 300.5677  58.7382 15.05092812715376
COSMOS 2251 DEB         
1 36053U 93036AXQ 26281.03884582  .00002637  00000+0  54477-3 0  9992
2 36053  73.8687 296.4949 0028493 188.9323 171.1339 14.60664457918108
COSMOS 2251 DEB         
1 36058U 93036AXV 26279.46525020  .00001070  00000+0  22629-3 0  9994
2 36058  74.0220 185.3469 0046444 243.4823 116.1577 14.59946379704548
COSMOS 2251 DEB         
1 36060U 93036AXX 26279.68602959  .00000500  00000+0  15848-3 0  9990
2 36060  74.0301  41.7427 0014253  68.4318 291.8355 14.42533033893058
COSMOS 2251 DEB         
1 36061U 93036AXY 26277.96975372  .00000333  00000+0  12730-3 0  9993
2 36061  74.0246 177.3374 0039112 196.1726 163.8181 14.34112866693508
COSMOS 2251 DEB         
1 36073U 93036AYL 26281.33256324  .00000286  00000+0  10879-3 0  9990
2 36073  74.0303 133.2121 0024131 133.4687 226.8478 14.35250278745059
COSMOS 2251 DEB         
1 36074U 93036AYM 26282.28317823  .00001194  00000+0  34290-3 0  9990
2 36074  73.9889 139.2914 0043882 161.9336 198.3394 14.45447815902505
COSMOS 2251 DEB         
1 36366U 93036AYT 26282.80323883  .00002591  00000+0  86983-3 0  9993
2 36366  74.0626  82.4201 0087297  37.1247 323.5899 14.35555496906062
COSMOS 2251 DEB         
1 36367U 93036AYU 26282.13565223  .00000832  00000+0  55186-3 0  9993
2 36367  74.1018  84.2346 0263183  85.1171 277.9948 13.87247302616940
COSMOS 2251 DEB         
1 36369U 93036AYW 26282.14152992  .00006822  00000+0  92964-3 0  9991
2 36369  74.0285 201.8781 0014307 212.5714 147.4581 14.78808971903565
COSMOS 2251 DEB         
1 36371U 93036AYY 26282.76346703  .00007590  00000+0  10932-2 0  9994
2 36371  74.0094 293.2914 0012612 267.8441  92.1289 14.76437115758808
COSMOS 2251 DEB         
1 36379U 93036AZG 26277.28253681  .00000312  00000+0  11397-3 0  9997
2 36379  74.0101 123.1963 0046337 183.1431 294.7123 14.36462299690719
COSMOS 2251 DEB         
1 36385U 93036AZN 26281.42282111  .00006995  00000+0  84328-3 0  9992
2 36385  73.9660 285.4801 0127950  26.1556 334.6006 14.78271208895234
COSMOS 2251 DEB         
1 36420U 93036AZT 26278.73937957  .00000197  00000+0  74873-4 0  9990
2 36420  74.0349  89.3900 0017474 109.5970 264.2041 14.37112604893038
COSMOS 2251 DEB         
1 36430U 93036BAD 26270.78761350  .00000441  00000+0  17832-3 0  9993
2 36430  74.0033 303.6092 0095403  25.0572 335.5161 14.28251484686834
COSMOS 2251 DEB         
1 36437U 93036BAL 26278.39195921  .00005758  00000+0  85047-3 0  9999
2 36437  73.9398 172.3347 0019269 321.2925  38.6866 14.75365666704201
COSMOS 2251 DEB         
1 36439U 93036BAN 26278.25791976  .00000494  00000+0  47183-3 0  9999
2 36439  73.9660 283.1652 0427370 198.6247 159.8805 13.48572146626095
COSMOS 2251 DEB         
1 36441U 93036BAQ 26282.77638775  .00008673  00000+0  45916-3 0  9990
2 36441  73.8296  81.1624 0100599 116.8374 244.3148 15.11193162915079
COSMOS 2251 DEB         
1 36451U 93036BBA 26258.52384170  .00001671  00000+0  67851-3 0  9997
2 36451  73.9525 197.9457 0183507 321.0354  37.7681 14.19719852881529
COSMOS 2251 DEB         
1 36453U 93036BBC 26278.49641385  .00001474  00000+0  34249-3 0  9997
2 36453  73.9229 307.8927 0066637 147.5004 285.4028 14.54530280887802
COSMOS 2251 DEB         
1 36459U 93036BBJ 26272.46391952  .00001918  00000+0  72513-3 0  9995
2 36459  74.0425 193.5984 0116713 219.1768 140.0891 14.28226125120305
COSMOS 2251 DEB         
1 36528U 93036BCN 26279.44243133  .00001051  00000+0  38884-3 0  9995
2 36528  74.0164 322.2415 0086138 300.4525  58.8137 14.31558931686868
COSMOS 2251 DEB         
1 36529U 93036BCP 26278.27652870  .00049743  00000+0  40980-2 0  9997
2 36529  74.0024 119.2207 0047888 121.6696 353.8824 14.97910167655545
COSMOS 2251 DEB         
1 36531U 93036BCR 26275.21001904  .00003845  00000+0  11891-2 0  9999
2 36531  74.0859 196.8091 0151842 142.2039 218.9896 14.35138108637002
COSMOS 2251 DEB         
1 36533U 93036BCT 26280.39744109  .00000834  00000+0  21709-3 0  9992
2 36533  74.0088 272.8973 0048281 346.7242  13.2643 14.50555212888146
COSMOS 2251 DEB         
1 36539U 93036BCZ 26282.77913170  .00001750  00000+0  36212-3 0  9991
2 36539  74.0220 200.0628 0028651 264.7402  95.0494 14.60838340883410
COSMOS 2251 DEB         
1 36540U 93036BDA 26281.79987275  .00002333  00000+0  48050-3 0  9992
2 36540  74.0278 327.6683 0016210 319.9985  39.9986 14.61021208903895
COSMOS 2251 DEB         
1 36550U 93036BDL 26279.51353705  .00000646  00000+0  26220-3 0  9995
2 36550  74.0466  13.6754 0077972 351.4258   8.5552 14.27983407888457
COSMOS 2251 DEB         
1 36551U 93036BDM 26281.50833073  .00010724  00000+0  56170-3 0  9994
2 36551  73.8941 110.6291 0031735 354.0052   6.0757 15.15438653714550
COSMOS 2251 DEB         
1 36557U 93036BDT 26277.21527012  .00012531  00000+0  13429-2 0  9993
2 36557  73.9768 258.3873 0020812 320.7593  39.2077 14.88548290382804
COSMOS 2251 DEB         
1 36558U 93036BDU 26281.48573373  .00001650  00000+0  37260-3 0  9999
2 36558  74.0411 306.1191 0014357 312.0547  47.9394 14.57031862896320
COSMOS 2251 DEB         
1 36559U 93036BDV 26282.24129053  .00002467  00000+0  12996-2 0  9992
2 36559  74.1224 214.3857 0260558 175.1828 185.1910 13.98519895852916
COSMOS 2251 DEB         
1 36614U 93036BEC 26278.40778017  .00003380  00000+0  66246-3 0  9990
2 36614  74.0232 326.1789 0016782 319.7120  40.2803 14.63091074699481
COSMOS 2251 DEB         
1 36622U 93036BEL 26280.38146879  .00002385  00000+0  32161-3 0  9997
2 36622  74.0105 278.7567 0066521 336.8032  23.0143 14.78237187711601
COSMOS 2251 DEB         
1 36632U 93036BEW 26282.85218323  .00001454  00000+0  42739-3 0  9994
2 36632  73.9984  91.2873 0033557 129.9339 230.4775 14.44337736695618
COSMOS 2251 DEB         
1 37084U 93036BFE 26282.30377241  .00004884  00000+0  31987-3 0  9994
2 37084  74.0244 267.1743 0092008 267.0020  92.0637 15.04556947707839
COSMOS 2251 DEB         
1 37089U 93036BFK 26281.32926047  .00005278  00000+0  10394-2 0  9990
2 37089  74.0352 297.7817 0130184 321.2284  37.9590 14.57499754704694
COSMOS 2251 DEB         
1 37094U 93036BFQ 26279.71512265  .00001109  00000+0  35241-3 0  9997
2 37094  74.1069 294.1592 0081815 183.6573 176.3995 14.39197673887913
COSMOS 2251 DEB         
1 37095U 93036BFR 26281.64915709  .00000774  00000+0  42480-3 0  9993
2 37095  73.8479  21.0494 0192166  24.8304 336.1927 14.04522099668456
COSMOS 2251 DEB         
1 37101U 93036BFX 26280.55474403  .00003364  00000+0  58370-3 0  9994
2 37101  74.0277 237.2611 0045474 247.1253 112.5112 14.67962270700533
COSMOS 2251 DEB         
1 37108U 93036BGE 26282.14646887  .00001959  00000+0  56209-3 0  9992
2 37108  74.0405 243.5149 0094165 245.6071 113.5237 14.43045260898386
COSMOS 2251 DEB         
1 37118U 93036BGQ 26268.63116363  .00013900  00000+0  16181-2 0  9995
2 37118  74.0111 235.5086 0008321 252.9131 107.1137 14.85283992698028
COSMOS 2251 DEB         
1 37126U 93036BGY 26279.95355618  .00000526  00000+0  76944-4 0  9994
2 37126  73.9493 129.9655 0121371 297.1400  61.7437 14.73866723124913
COSMOS 2251 DEB         
1 37132U 93036BHE 26278.57024262  .00004312  00000+0  54660-3 0  9993
2 37132  74.0015   8.1150 0038138  89.1655 271.3892 14.81553175668076
COSMOS 2251 DEB         
1 37269U 93036BHH 26276.12334208  .00001971  00000+0  73306-3 0  9993
2 37269  74.1651 220.3714 0102026  16.4710 343.9713 14.29847670102722
COSMOS 2251 DEB         
1 37270U 93036BHJ 26282.21446998  .00001574  00000+0  12402-2 0  9990
2 37270  73.9300 204.6117 0393187 161.0336 200.5907 13.61674583811574
COSMOS 2251 DEB         
1 37278U 93036BHS 26267.49067481  .00003569  00000+0  11770-2 0  9990
2 37278  73.7861 193.0581 0295717 325.9007 154.5821 14.16537554678733
COSMOS 2251 DEB         
1 37280U 93036BHU 26279.58153311  .00001830  00000+0  78844-3 0  9999
2 37280  74.0280 243.9277 0133477 299.7591  59.0330 14.20626933615518
COSMOS 2251 DEB         
1 37284U 93036BHY 26277.45172569  .00001291  00000+0  61579-3 0  9991
2 37284  74.0169 352.6399 0156853  74.7053 299.2712 14.13936573633538
COSMOS 2251 DEB         
1 37292U 93036BJG 26279.26185616  .00001461  00000+0  76038-3 0  9993
2 37292  74.1241 253.6482 0207288 182.3697 177.6481 14.04995787640252
COSMOS 2251 DEB         
1 37293U 93036BJH 26282.10219762  .00002053  00000+0  56165-3 0  9998
2 37293  73.9254  76.9921 0064813 281.4304  77.9579 14.46663411697152
COSMOS 2251 DEB         
1 37295U 93036BJK 26281.82673306  .00002428  00000+0  43523-3 0  9996
2 37295  74.0048  62.3004 0044244 167.2404 192.9897 14.66724952867022
COSMOS 2251 DEB         
1 37305U 93036BJV 26276.25021415  .00000735  00000+0  25389-3 0  9996
2 37305  73.8670 103.7511 0047264   4.8859 355.2744 14.37027516710965
COSMOS 2251 DEB         
1 37312U 93036BKC 26280.92463252  .00000719  00000+0  20500-3 0  9994
2 37312  74.0335   5.2708 0017306  33.1213 327.1025 14.46940815904906
COSMOS 2251 DEB         
1 37316U 93036BKG 26281.54264676  .00023941  00000+0  13516-2 0  9996
2 37316  74.0126 126.9629 0027333 129.1190 231.2440 15.12730939906515
COSMOS 2251 DEB         
1 37320U 93036BKL 26279.58603629  .00002821  00000+0  35406-3 0  9994
2 37320  74.0476 351.1716 0044461 359.4672   0.6449 14.81985401705550
COSMOS 2251 DEB         
1 37326U 93036BKS 26282.87861005  .00001496  00000+0  29260-3 0  9998
2 37326  74.0209 117.4929 0056220 172.1531 188.0530 14.62811228898851
COSMOS 2251 DEB         
1 37330U 93036BKW 26282.12943240  .00001029  00000+0  21465-3 0  9994
2 37330  74.0155  81.2421 0057660 214.3416 145.4018 14.60283543907525
COSMOS 2251 DEB         
1 37331U 93036BKX 26282.13653292  .00000872  00000+0  30443-3 0  9992
2 37331  74.0720 238.0835 0056445 179.5771 180.5441 14.35821948890701
COSMOS 2251 DEB         
1 37336U 93036BLC 26279.00228260  .00000065  00000+0  33173-4 0  9990
2 37336  74.0406 148.4883 0029481 157.4273 202.8183 14.32856847693778
COSMOS 2251 DEB         
1 37340U 93036BLG 26281.83704458  .00000304  00000+0  11070-3 0  9994
2 37340  74.0231  84.9063 0017437 112.5824 247.7176 14.37189240883788
COSMOS 2251 DEB         
1 37483U 93036BLL 26281.73623405  .00000354  00000+0  10649-3 0  9999
2 37483  73.9732 303.4146 0090711  81.1261 280.0152 14.43966164696098
COSMOS 2251 DEB         
1 37484U 93036BLM 26278.02788784  .00001196  00000+0  36205-3 0  9991
2 37484  73.8247  11.5510 0038738 348.9713 186.4874 14.43046516696515
COSMOS 2251 DEB         
1 37486U 93036BLP 26281.40665660  .00001810  00000+0  74266-3 0  9998
2 37486  73.6904 291.3960 0215039 115.9505 313.2641 14.16049499676089
COSMOS 2251 DEB         
1 37487U 93036BLQ 26282.78627054  .00026582  00000+0  22804-2 0  9999
2 37487  73.8909 304.8376 0021292  53.7809 306.5339 14.97222861857287
COSMOS 2251 DEB         
1 37491U 93036BLU 26282.82947073  .00000928  00000+0  68152-3 0  9998
2 37491  73.9033 129.0111 0313492  65.2749 298.0655 13.76042977598879
COSMOS 2251 DEB         
1 37496U 93036BLZ 26281.04678089  .00016302  00000+0  10671-2 0  9999
2 37496  73.9440  69.4884 0050354  11.5980 348.6356 15.06679428705070
COSMOS 2251 DEB         
1 37498U 93036BMB 26279.85094310  .00002053  00000+0  46556-3 0  9996
2 37498  74.0371 338.7358 0012608 324.4319  35.6004 14.56692794696939
COSMOS 2251 DEB         
1 37499U 93036BMC 26279.31220730  .00000179  00000+0  72351-4 0  9995
2 37499  74.0362 137.3215 0027405 145.0468 215.2490 14.34554939894162
COSMOS 2251 DEB         
1 37528U 93036BNH 26279.27593435  .00000758  00000+0  19706-3 0  9995
2 37528  74.0345 282.5618 0020400 349.7771  10.2972 14.51290908902467
COSMOS 2251 DEB         
1 37530U 93036BNK 26281.98780301  .00000334  00000+0  12648-3 0  9997
2 37530  74.0345 143.6189 0026249 137.2779 290.2358 14.34804869895383
COSMOS 2251 DEB         
1 37531U 93036BNL 26269.82599630  .00007210  00000+0  12186-2 0  9996
2 37531  74.0062  68.3923 0034449  82.4911 278.0171 14.69150999742765
COSMOS 2251 DEB         
1 37532U 93036BNM 26281.98013980  .00000408  00000+0  13022-3 0  9990
2 37532  74.0529  19.0798 0014700  44.4974  73.1606 14.42795104892455
COSMOS 2251 DEB         
1 37533U 93036BNN 26273.72434355  .00001070  00000+0  51620-3 0  9999
2 37533  74.0690  36.3927 0157885  22.3592 338.4330 14.13500029670457
COSMOS 2251 DEB         
1 37535U 93036BNQ 26282.83708837  .00001907  00000+0  40128-3 0  9992
2 37535  74.0217 219.0426 0029066 277.7354 112.4587 14.60016970897172
COSMOS 2251 DEB         
1 37537U 93036BNS 26277.73614136  .00000319  00000+0  11294-3 0  9993
2 37537  74.0099  79.4385 0050850 150.8267 209.5745 14.37791460892877
COSMOS 2251 DEB         
1 37546U 93036BPB 26282.25023701  .00015436  00000+0  15944-2 0  9999
2 37546  74.0185 219.9286 0007470 206.8855 153.1940 14.90134781703518
COSMOS 2251 DEB         
1 37959U 93036BPJ 26282.23965556  .00001454  00000+0  30524-3 0  9995
2 37959  74.0093 203.5157 0058404 270.0208 242.2379 14.59553132845094
COSMOS 2251 DEB         
1 37960U 93036BPK 26277.04566320  .00000541  00000+0  24852-3 0  9999
2 37960  74.0599  28.9127 0247495 336.8990  22.1167 14.08714845815633
COSMOS 2251 DEB         
1 37961U 93036BPL 26277.77030861  .00001705  00000+0  35782-3 0  9993
2 37961  74.0381 293.1236 0041888 296.6651  63.0227 14.59934619843838
COSMOS 2251 DEB         
1 37967U 93036BPS 26280.04601326  .00002266  00000+0  60585-3 0  9995
2 37967  74.0127 303.5427 0146264   9.0798 351.2948 14.42723743690357
COSMOS 2251 DEB         
1 37968U 93036BPT 26275.59972486  .00005283  00000+0  34398-3 0  9993
2 37968  73.9998  29.0119 0072734  69.2827 291.6139 15.06008450646364
COSMOS 2251 DEB         
1 37969U 93036BPU 26280.17680831  .00005110  00000+0  12973-2 0  9997
2 37969  73.9719  95.2808 0101419 223.4225 135.8915 14.47965387557812
COSMOS 2251 DEB         
1 37971U 93036BPW 26279.50924257  .00003410  00000+0  82842-3 0  9992
2 37971  73.9909 200.5925 0068798 264.8945  94.4361 14.51832952649955
COSMOS 2251 DEB         
1 37973U 93036BPY 26278.88245995  .00000852  00000+0  26149-3 0  9994
2 37973  74.0283 112.2462 0036633 117.9189 242.5684 14.42786832692733
COSMOS 2251 DEB         
1 37975U 93036BQA 26278.22801355  .00018935  00000+0  19505-2 0  9990
2 37975  73.9963  95.7463 0071425  14.5735 345.7481 14.88318218741411
COSMOS 2251 DEB         
1 37985U 93036BQL 26279.12843174  .00000062  00000+0  30694-4 0  9992
2 37985  74.0233  79.8568 0020675 135.8509 224.4299 14.35554028691844
COSMOS 2251 DEB         
1 37988U 93036BQP 26281.08411222  .00002456  00000+0  38748-3 0  9994
2 37988  74.0606 163.9283 0061238 125.4838 235.2070 14.71715241277966
COSMOS 2251 DEB         
1 37993U 93036BQU 26278.79167081  .00002787  00000+0  55069-3 0  9997
2 37993  74.0229 318.1246 0022754 328.0145  31.9640 14.62744701696577
COSMOS 2251 DEB         
1 37994U 93036BQV 26282.83224839  .00000621  00000+0  20439-3 0  9991
2 37994  74.0342  79.4194 0022348  88.8481 271.5234 14.40121170813988
COSMOS 2251 DEB         
1 37996U 93036BQX 26275.04460150  .00003155  00000+0  13189-2 0  9994
2 37996  74.0610  45.1398 0219404  85.5144 277.1025 14.14336268602775
COSMOS 2251 DEB         
1 37998U 93036BQZ 26281.99491555  .00000953  00000+0  27220-3 0  9995
2 37998  74.0371  34.8883 0018894  36.7724 323.4726 14.46397172686273
COSMOS 2251 DEB         
1 38001U 93036BRC 26279.25949285  .00003862  00000+0  47918-3 0  9993
2 38001  73.9972 264.4271 0063045 337.2889  35.6874 14.81598638791110
COSMOS 2251 DEB         
1 38006U 93036BRH 26278.43453331  .00003738  00000+0  95412-3 0  9993
2 38006  73.8440 196.0919 0066374  90.0105 270.8660 14.49560031672558
COSMOS 2251 DEB         
1 38054U 93036BRL 26281.38935250  .00001990  00000+0  16610-2 0  9999
2 38054  73.9509 134.8610 0352248  54.4036   7.5278 13.63916255712633
COSMOS 2251 DEB         
1 38055U 93036BRM 26279.45660913  .00002758  00000+0  35853-3 0  9990
2 38055  74.0091 340.5188 0062417  32.3317 340.8259 14.79849543650839
COSMOS 2251 DEB         
1 38056U 93036BRN 26280.00016856  .00002585  00000+0  15146-2 0  9995
2 38056  73.9156 124.3255 0279657  53.3538 309.2951 13.90938596684189
COSMOS 2251 DEB         
1 38057U 93036BRP 26279.26190838  .00003511  00000+0  13707-2 0  9996
2 38057  73.9971 257.9437 0140360 338.0642  21.4531 14.24733238641732
COSMOS 2251 DEB         
1 38058U 93036BRQ 26279.07951660  .00001765  00000+0  13235-2 0  9999
2 38058  74.0004 166.1020 0398198 348.1758  11.0204 13.63527560623806
COSMOS 2251 DEB         
1 38060U 93036BRS 26278.72771317  .00001278  00000+0  23840-3 0  9995
2 38060  74.0393  84.6205 0057825 116.0796 244.6340 14.65031925763125
COSMOS 2251 DEB         
1 38062U 93036BRU 26278.10143023  .00032006  00000+0  19877-2 0  9993
2 38062  74.0015  44.5032 0014408  93.4439  79.6780 15.09457577674818
COSMOS 2251 DEB         
1 38064U 93036BRW 26281.94758395  .00002197  00000+0  47775-3 0  9992
2 38064  74.0193 273.2467 0047654 315.1768  44.5551 14.57952720762387
COSMOS 2251 DEB         
1 38067U 93036BRZ 26279.10773470  .00001038  00000+0  20660-3 0  9998
2 38067  74.0155  64.9042 0069268 139.3117 342.8782 14.61911504669006
COSMOS 2251 DEB         
1 38068U 93036BSA 26280.96856918  .00000336  00000+0  12333-3 0  9992
2 38068  74.0194 118.2392 0025561 138.8443 221.4643 14.36357970709427
COSMOS 2251 DEB         
1 38197U 93036BSM 26279.95403668  .00007733  00000+0  82431-3 0  9996
2 38197  73.9332 125.8442 0096952 289.9212  69.1542 14.85593121901676
COSMOS 2251 DEB         
1 38199U 93036BSP 26278.36175338  .00000364  00000+0  30050-3 0  9995
2 38199  73.9538 294.6681 0365933 163.1853 198.1782 13.65197787650695
COSMOS 2251 DEB         
1 38208U 93036BSY 26282.21531994  .00015390  00000+0  14101-2 0  9992
2 38208  74.0015 196.3851 0008440 219.2592 291.8512 14.94902019756341
COSMOS 2251 DEB         
1 38212U 93036BTC 26281.22047297  .00001087  00000+0  14133-3 0  9999
2 38212  74.0500 208.4728 0092119 196.5454 163.2713 14.79135947857363
COSMOS 2251 DEB         
1 38220U 93036BTL 26278.10169065  .00056584  00000+0  31356-2 0  9996
2 38220  74.0055 181.4357 0005515 180.9887 179.1297 15.13505998758253
COSMOS 2251 DEB         
1 38479U 93036BTP 26278.54473788  .00002179  00000+0  66438-3 0  9991
2 38479  74.0082 355.0295 0081446  31.9078  28.9614 14.40652417689595
COSMOS 2251 DEB         
1 38481U 93036BTR 26278.07550142  .00001249  00000+0  75122-3 0  9999
2 38481  73.9310 214.9188 0225267  96.1958 266.4885 13.95895197631943
COSMOS 2251 DEB         
1 38483U 93036BTT 26276.05069131  .00001064  00000+0  39395-3 0  9997
2 38483  74.2597 204.3559 0113818 221.5529 137.6931 14.29927984676833
COSMOS 2251 DEB         
1 38486U 93036BTW 26279.44462003  .00009445  00000+0  11956-2 0  9994
2 38486  73.9401 336.7933 0029062  42.9781 329.8773 14.81609257798331
COSMOS 2251 DEB         
1 38487U 93036BTX 26277.28061132  .00346431  00000+0  25619-2 0  9993
2 38487  73.9499 115.0163 0014463 171.9256 188.2204 15.71720366713418
COSMOS 2251 DEB         
1 39109U 93036BTY 26278.62060365  .00001273  00000+0  20131-3 0  9998
2 39109  74.0437   8.1040 0057118  34.6251  28.2667 14.72367120695414
COSMOS 2251 DEB         
1 39110U 93036BTZ 26281.46892800  .00001264  00000+0  18697-3 0  9997
2 39110  73.9579 194.7709 0093780 355.3621 121.0393 14.73448980668978
COSMOS 2251 DEB         
1 39546U 93036BUC 26280.60307905  .00010651  00000+0  86161-3 0  9993
2 39546  73.9949 251.5310 0039258 330.3021  29.5935 14.99236656689069
COSMOS 2251 DEB         
1 39553U 93036BUK 26276.41471586  .00000839  00000+0  48178-3 0  9995
2 39553  74.0278 179.0909 0205245 247.3551 110.5763 14.00859059797428
COSMOS 2251 DEB         
1 39583U 93036BUN 26279.58592469  .00005152  00000+0  86068-3 0  9996
2 39583  73.9322  32.2166 0128440  79.3177 282.2423 14.64788523661351
COSMOS 2251 DEB         
1 39585U 93036BUQ 26279.21827267  .00000628  00000+0  13544-3 0  9997
2 39585  74.0384  94.7176 0065963 141.1304 219.4633 14.59240646668598
COSMOS 2251 DEB         
1 39586U 93036BUR 26278.66332361  .00000477  00000+0  21696-3 0  9991
2 39586  74.0093  54.9365 0100079 121.4688 253.1358 14.21683025651916
COSMOS 2251 DEB         
1 39591U 93036BUW 26278.65928963  .00000683  00000+0  21338-3 0  9997
2 39591  74.0199  55.6544 0028589  99.1337 274.6001 14.42435597660570
COSMOS 2251 DEB         
1 40218U 93036BUX 26281.71245282  .00000626  00000+0  19795-3 0  9993
2 40218  74.0307  52.6425 0015846  66.0610 294.2203 14.42159740631857
COSMOS 2251 DEB         
1 40228U 93036BVH 26281.74240832  .00000515  00000+0  16615-3 0  9998
2 40228  74.0539  65.6832 0022790  53.8802   9.1130 14.41472668632437
COSMOS 2251 DEB         
1 40230U 93036BVK 26282.04264542  .00001436  00000+0  37204-3 0  9999
2 40230  74.0461  23.1446 0017321   4.9381 175.2225 14.50665047633242
COSMOS 2251 DEB         
1 40233U 93036BVN 26281.89453751  .00002852  00000+0  58161-3 0  9994
2 40233  73.9365 247.0811 0047305 253.8607 105.7349 14.60770533635177
COSMOS 2251 DEB         
1 40235U 93036BVQ 26275.16574152  .00003838  00000+0  59509-3 0  9990
2 40235  74.0152 236.0114 0012702 267.6943 105.1656 14.73466460636809
COSMOS 2251 DEB         
1 40236U 93036BVR 26281.69511972  .00000778  00000+0  85587-3 0  9992
2 40236  73.5426  30.7513 0534466 243.8737 110.6444 13.25188684575974
COSMOS 2251 DEB         
1 40238U 93036BVT 26280.47585469  .00001338  00000+0  13649-2 0  9993
2 40238  73.9885 324.4881 0549629 239.4728 115.1027 13.25949830579955
COSMOS 2251 DEB         
1 40239U 93036BVU 26276.19114079  .00000892  00000+0  17196-3 0  9999
2 40239  74.0292  71.4389 0084371 109.3520  64.1433 14.62837054639154
COSMOS 2251 DEB         
1 40792U 93036BVV 26278.04363576  .00003288  00000+0  54641-3 0  9995
2 40792  74.0436 193.9149 0018979 222.1524 150.4772 14.70444248675367
COSMOS 2251 DEB         
1 40793U 93036BVW 26276.97113809  .00000384  00000+0  20149-3 0  9998
2 40793  73.9820   6.7328 0211180  98.4484 264.0650 14.06425209723952
COSMOS 2251 DEB         
1 40794U 93036BVX 26279.15846331  .00067550  00000+0  31308-2 0  9991
2 40794  73.9669 231.5487 0010746 260.6091 112.9488 15.19693846664021
COSMOS 2251 DEB         
1 40796U 93036BVZ 26277.75918242  .00003888  00000+0  44963-3 0  9994
2 40796  74.0095 274.8934 0053632 333.6078 200.9509 14.84891094805487
COSMOS 2251 DEB         
1 40797U 93036BWA 26274.50996380  .00008181  00000+0  36984-3 0  9999
2 40797  73.9327 201.4857 0055951  39.7932 320.7346 15.19647753690801
COSMOS 2251 DEB         
1 40799U 93036BWC 26277.56146409  .00004249  00000+0  30751-3 0  9996
2 40799  73.9247 214.5757 0111415  26.0979 334.5763 14.99431368544079
COSMOS 2251 DEB         
1 40802U 93036BWF 26279.30672086  .00002372  00000+0  30936-3 0  9990
2 40802  74.0380 287.9527 0061709 307.6721  51.8867 14.79847734688086
COSMOS 2251 DEB         
1 40803U 93036BWG 26277.11092765  .00000553  00000+0  14178-3 0  9997
2 40803  74.0127 214.5342 0032439 355.2225   4.8622 14.52411582630402
COSMOS 2251 DEB         
1 40808U 93036BWM 26281.99369914  .00005162  00000+0  83178-3 0  9993
2 40808  74.0384 283.5156 0011843 255.4827 134.4148 14.71694572680317
COSMOS 2251 DEB         
1 40810U 93036BWP 26281.25193464  .00001644  00000+0  34575-3 0  9998
2 40810  74.0341 223.5017 0019504 290.4031  69.5040 14.60274282660532
COSMOS 2251 DEB         
1 46271U 93036BWT 26274.63218602  .00000546  00000+0  14092-3 0  9993
2 46271  74.0441 246.9908 0041584 291.5209  68.1522 14.51977110888925
COSMOS 2251 DEB         
1 46430U 93036BWU 26277.91061408  .00004416  00000+0  97371-3 0  9995
2 46430  73.9117 152.7059 0090725   8.4192 351.8466 14.55136672839860
COSMOS 2251 DEB         
1 46432U 93036BWW 26275.59875383  .00000044  00000+0  62873-4 0  9997
2 46432  73.8741   8.0934 0471541  75.5272 348.8158 13.36973536708935
COSMOS 2251 DEB         
1 47045U 93036BWZ 26282.85138644  .00000129  00000+0  50099-4 0  9998
2 47045  74.0581 314.4736 0028858  18.2024 156.6816 14.39026594121362
COSMOS 2251 DEB         
1 47048U 93036BXC 26282.85504943  .00004022  00000+0  83967-3 0  9995
2 47048  73.9743 107.9514 0128775 223.5287 202.5989 14.55116320640669
COSMOS 2251 DEB         
1 47051U 93036BXF 26268.22428162  .00001245  00000+0  99312-3 0  9997
2 47051  74.0980  74.9811 0341565 121.4512  52.2255 13.67921555638548
COSMOS 2251 DEB         
1 47052U 93036BXG 26281.38313712  .00000332  00000+0  12119-3 0  9990
2 47052  74.0480 150.8954 0058976 153.0655  21.4241 14.35870351660895
COSMOS 2251 DEB         
1 47053U 93036BXH 26258.44354346  .00000439  00000+0  38508-3 0  9998
2 47053  74.0603 165.8997 0378198 278.2241 204.1965 13.60254609326507
COSMOS 2251 DEB         
1 47062U 93036BXS 26282.81902733  .00001372  00000+0  10414-2 0  9997
2 47062  74.0800 301.2749 0324476 356.5991 180.7353 13.72660237597320
COSMOS 2251 DEB         
1 47067U 93036BXX 26281.43758395  .00005185  00000+0  15219-2 0  9996
2 47067  74.2039 319.8442 0158398  87.9002 334.0645 14.36955721743532
COSMOS 2251 DEB         
1 47068U 93036BXY 26277.50699542  .00001361  00000+0  32219-3 0  9990
2 47068  74.0255   3.8617 0017930  15.9820 344.1905 14.54975946660563
COSMOS 2251 DEB         
1 47069U 93036BXZ 26280.19319424  .00011821  00000+0  11982-2 0  9993
2 47069  74.0076 237.9095 0005405 210.0667 150.0205 14.90954430769322
COSMOS 2251 DEB         
1 47073U 93036BYD 26278.07979378  .00000164  00000+0  10367-3 0  9997
2 47073  74.0830  46.0372 0161292  12.0365 348.4552 14.05194609645235
COSMOS 2251 DEB         
1 47074U 93036BYE 26278.36434662  .00003608  00000+0  10709-2 0  9997
2 47074  74.0897 124.8561 0139492  77.2882  96.4698 14.38086435 69434
COSMOS 2251 DEB         
1 47116U 93036BYJ 26282.87932006  .00027369  00000+0  15215-2 0  9997
2 47116  74.0264 342.0278 0018692 357.6094 124.8397 15.13430252640459
COSMOS 2251 DEB         
1 47119U 93036BYM 26281.78658889  .00012632  00000+0  21536-2 0  9993
2 47119  74.0864 299.5228 0095072 253.0034 231.1282 14.66073985645890
COSMOS 2251 DEB         
1 53093U 93036BYP 26281.55351849  .00001147  00000+0  34859-3 0  9994
2 53093  74.0326 105.0891 0020484 115.4054 244.9226 14.43128303220491
