CUTE-1 (CO-55)          
1 27844U 03031E   26276.98956023  .00000152  00000+0  84464-4 0  9994
2 27844  98.6771 284.2009 0008693 225.1028 134.9446 14.24389312207160
CUBESAT XI-IV (CO-57)   
1 27848U 03031J   26276.82206664  .00000128  00000+0  75422-4 0  9997
2 27848  98.6804 283.6606 0008396 246.7682 113.2613 14.23666825206837
CUBESAT XI-V            
1 28895U 05043F   26277.17550057  .00000769  00000+0  12834-3 0  9990
2 28895  98.3125  75.2004 0013293 215.9642 144.0671 14.72860599117796
CUTE-1.7+APD II (CO-65) 
1 32785U 08021C   26277.59615881  .00003298  00000+0  20530-3 0  9997
2 32785  97.8406 261.4371 0009370  27.1611 333.0106 15.10301009  1717
CANX-2                  
1 32790U 08021H   26277.45684379  .00001819  00000+0  12833-3 0  9990
2 32790  97.8769 259.4871 0011220  41.8209 318.3873 15.06244415  1258
SEEDS II (CO-66)        
1 32791U 08021J   26277.49368196  .00016716  00000+0  47690-3 0  9992
2 32791  97.7577 280.9371 0000438 349.6307  10.4927 15.36128578  4040
SWISSCUBE               
1 35932U 09051B   26277.56139482  .00000550  00000+0  11790-3 0  9999
2 35932  98.3942 187.3063 0005620 226.7440 133.3292 14.62649694905148
BEESAT-1                
1 35933U 09051C   26277.28658497  .00000447  00000+0  99281-4 0  9998
2 35933  98.3867 186.4298 0003984 244.3434 115.7356 14.61861236905125
ITUPSAT1                
1 35935U 09051E   26275.72924208  .00000405  00000+0  93474-4 0  9995
2 35935  98.3947 183.9243 0006171 266.2960  93.7534 14.60569853904431
TISAT 1                 
1 36799U 10035E   26276.68422747  .00017252  00000+0  50030-3 0  9993
2 36799  98.0807 233.2533 0002002 143.7191 216.4186 15.35615225884338
STRAND-1                
1 39090U 13009E   26277.42967770  .00000147  00000+0  63747-4 0  9992
2 39090  98.3970  95.0247 0007476 263.9935  96.0400 14.37214355712753
BRITE-AUSTRIA           
1 39091U 13009F   26277.42076748  .00000088  00000+0  44553-4 0  9997
2 39091  98.4049  94.2036 0009011 274.8655  85.1503 14.36576551712735
NEE-01 PEGASO           
1 39151U 13018B   26277.37674167  .00001667  00000+0  16161-3 0  9994
2 39151  98.1383  65.2779 0012828 158.8366 201.3386 14.94093047727007
POPACS 2                
1 39269U 13055E   26276.55429535  .00020665 -50637-6  33701-3 0  9998
2 39269  80.9930  19.8206 0404098 204.8839 153.2417 14.94484045679384
POPACS 3                
1 39270U 13055F   26276.96943549  .00007058  00000+0  16345-3 0  9998
2 39270  80.9979 111.0671 0545818  97.9995 268.3479 14.57712103654398
ZACUBE-1 (TSHEPISOSAT)  
1 39417U 13066B   26277.43051585  .00002415  00000+0  18677-3 0  9998
2 39417  97.8192 240.3751 0037543 244.7236 115.0096 15.01934397697123
WNISAT-1                
1 39423U 13066H   26277.31861835  .00000560  00000+0  11078-3 0  9996
2 39423  97.7366  58.8383 0161449 247.9953 110.4028 14.58212707682638
TRITON-1                
1 39427U 13066M   26277.61385818  .00000378  00000+0  51339-4 0  9997
2 39427  97.8141 184.8915 0087791 237.0851 122.1895 14.82098884690297
GOMX-1                  
1 39430U 13066Q   26277.60163891  .00000759  00000+0  11932-3 0  9992
2 39430  97.6423 111.1668 0129429  85.7880 275.8106 14.69741492685981
CUBEBUG-2 (LO-74)       
1 39440U 13066AA  26277.29395875  .00002608  00000+0  24011-3 0  9994
2 39440  97.9022 226.8399 0057778  27.0183 333.4024 14.94376336693288
NEE-02 KRYSAOR          
1 39441U 13066AB  26277.57059942  .00001257  00000+0  14123-3 0  9990
2 39441  97.8969 216.0662 0067136  71.2399 289.6086 14.86957379692452
FUNCUBE-1 (AO-73)       
1 39444U 13066AE  26277.45158465  .00003675  00000+0  22251-3 0  9997
2 39444  97.8419 251.3660 0034837 188.4566 171.6081 15.10775287696154
UWE-3                   
1 39446U 13066AG  26277.60992127  .00002859  00000+0  24403-3 0  9991
2 39446  97.8824 234.5399 0047440 315.6498  44.0927 14.97671479693959
BRITE-CA1 (TORONTO)     
1 40020U 14033L   26277.62594727  .00000451  00000+0  75607-4 0  9991
2 40020  97.9887  44.6350 0077072 286.8375  72.4390 14.72832471658328
NANOSATC-BR1            
1 40024U 14033Q   26277.40251864  .00011791  00000+0  35484-3 0  9990
2 40024  98.0626 319.6905 0004461 146.2135 213.9391 15.34540627670719
QB50P1                  
1 40025U 14033R   26277.56668743  .00005074  00000+0  24151-3 0  9992
2 40025  98.0960 296.5067 0007860 200.4600 159.6320 15.19647472669635
QB50P2                  
1 40032U 14033Y   26277.54989195  .00004996  00000+0  26113-3 0  9997
2 40032  98.0818 281.3855 0008002 150.8751 209.2928 15.16365462669231
PERSEUS-M2              
1 40037U 14033AD  26277.58129741  .00000047  00000+0  97621-5 0  9996
2 40037  98.0100 230.4337 0010517 303.2090  56.8121 14.95780102667130
PERSEUS-M1              
1 40039U 14033AF  26277.34402159  .00001354  00000+0  12636-3 0  9992
2 40039  97.9754 223.3382 0010020 299.6775  60.3447 14.95925295666957
POLYITAN-1              
1 40042U 14033AJ  26277.37082329  .00012548  00000+0  35269-3 0  9996
2 40042  98.0868 314.2264 0007832 120.7851 239.4163 15.36651257670346
TIGRISAT                
1 40043U 14033AK  26277.38455932  .00001059  00000+0  12626-3 0  9999
2 40043  97.7988  65.0237 0050224  76.7401 283.9409 14.85487338661832
AEROCUBE 6A             
1 40045U 14033AM  26276.92712286  .00003059  00000+0  25366-3 0  9995
2 40045  97.7321  82.8724 0037077  11.0899 349.1132 14.99040681662905
AEROCUBE 6B             
1 40046U 14033AN  26277.42206290  .00003749  00000+0  29663-3 0  9995
2 40046  97.7410  83.3798 0040230 353.5614   6.5087 15.00608274663136
CANX-4                  
1 40055U 14034C   26277.57786501  .00000485  00000+0  69283-4 0  9997
2 40055  98.2928 156.8120 0013305  24.6551 335.5294 14.81417331660727
CANX-5                  
1 40056U 14034D   26277.64255703  .00000493  00000+0  70237-4 0  9991
2 40056  98.2931 156.9291 0013321  24.5930 335.5914 14.81434911651542
UKUBE-1                 
1 40074U 14037F   26277.59403965  .00005696  00000+0  30983-3 0  9996
2 40074  98.4262 292.5091 0002513 125.1592 234.9873 15.14933985665115
BRITE-PL2 (HEWELIUSZ)   
1 40119U 14049B   26277.55512584  .00000783  00000+0  77177-4 0  9992
2 40119  97.9188  30.4750 0015233 105.1118 255.1788 14.94906490657784
AEROCUBE 5C             
1 40965U 15058B   26277.44807456  .00001797  00000+0  16178-3 0  9994
2 40965  64.7646 282.5340 0139861  22.3247 338.3871 14.91923788381952
AEROCUBE 7              
1 40966U 15058C   26277.32481239  .00003219  00000+0  25282-3 0  9996
2 40966  64.7605 262.7609 0129521  20.4254 340.1972 14.96403221382285
FOX-1A (AO-85)          
1 40967U 15058D   26277.53090756  .00001516  00000+0  14043-3 0  9991
2 40967  64.7729 299.0243 0140509  15.9615 344.5856 14.91444446129871
SINOD-D 1               
1 40968U 15058E   26277.28924131  .00003085  00000+0  24180-3 0  9993
2 40968  64.7733 277.0327 0129280  12.2050 348.2144 14.96592921132986
LMRST-SAT               
1 40971U 15058H   26277.38096235  .00001428  00000+0  13415-3 0  9991
2 40971  64.7734 296.0440 0141873  17.8910 342.7122 14.91039528129835
PROPCUBE 3              
1 40973U 15058K   26277.34390279  .00002691  00000+0  22060-3 0  9993
2 40973  64.7669 271.3040 0133528  18.8393 341.7593 14.94844009131116
BISONSAT                
1 40974U 15058L   26277.17345212  .00009579  00000+0  42618-3 0  9995
2 40974  64.7570 180.6059 0087649   1.4975 358.6396 15.18549993132150
SNAP-3 JIMI             
1 40975U 15058M   26276.32408236  .00005100  00000+0  33574-3 0  9995
2 40975  64.7634 237.3261 0115492  14.0859 346.3433 15.03324042130475
PROPCUBE 1 (FLORA)      
1 40976U 15058N   26277.50405764  .00001131  00000+0  11390-3 0  9992
2 40976  64.7733 316.2969 0140252  20.0879 340.5675 14.89655207132546
SINOD-D 3               
1 40977U 15058P   26277.39175006  .00002081  00000+0  17696-3 0  9993
2 40977  64.7699 294.6125 0128866  16.9589 343.5771 14.94639242131074
RAVAN                   
1 41849U 16067B   26277.23731645  .00075535  00000+0  68153-3 0  9991
2 41849  97.9692 180.3590 0002509  45.4548 314.6916 15.67916021544700
CELTEE 1                
1 41850U 16067C   26277.08046088  .00003260  00000+0  15246-3 0  9997
2 41850  98.0484 151.0478 0001095 121.0491 239.0850 15.20574578542420
OPTICUBE 04             
1 41851U 16067D   26277.56172040  .00001341  00000+0  86619-4 0  9990
2 41851  98.0547 135.5095 0016829 105.8802 254.4282 15.10027474541673
AEROCUBE 8D             
1 41852U 16067E   26277.59603384  .00005512  00000+0  21949-3 0  9992
2 41852  98.0486 156.0952 0004803 106.7909 253.3854 15.25700960542749
AEROCUBE 8C             
1 41853U 16067F   26277.60268081  .00005809  00000+0  22929-3 0  9994
2 41853  98.0365 153.1933 0006304  51.8884 308.2920 15.25964846542742
CORVUS BC2              
1 42846U 17042X   26277.38465326  .00002416  00000+0  16569-3 0  9991
2 42846  97.4199  74.6280 0014274  97.6108 262.6741 15.06856378503501
CORVUS BC1              
1 42847U 17042Y   26277.36768301  .00001744  00000+0  12027-3 0  9997
2 42847  97.4229  75.4945 0013221  76.3329 283.9370 15.07005962503536
MAKERSAT 0              
1 43016U 17073D   26277.63297618  .00018649  00000+0  45560-3 0  9998
2 43016  97.4428 161.1986 0095961 241.8881 117.2639 15.36146368483247
SIRION PATHFINDER-2     
1 43759U 18099B   26277.62759956  .00002945  00000+0  15977-3 0  9999
2 43759  97.4138 324.0714 0006943 281.9728  78.0726 15.15307520429196
CORVUS BC4              
1 43767U 18099K   26277.38796441  .00002646  00000+0  15256-3 0  9999
2 43767  97.3958 317.1605 0007734 355.4718   4.6443 15.13202067428919
M2 PATHFINDER           
1 45727U 20037E   26277.35915538  .00001789  00000+0  13017-3 0  9999
2 45727  97.8112 109.8548 0012159 139.5824 220.6307 15.05075104341916
NETSAT-4                
1 46504U 20068U   26277.60404914  .00018006  00000+0  35459-3 0  9990
2 46504  97.8603 294.9327 0002823 292.1860  67.9089 15.47300365332677
NETSAT-3                
1 46505U 20068V   26277.56244378  .00016222  00000+0  33312-3 0  9996
2 46505  97.8661 292.9792 0003020 324.4383  35.6664 15.46101050332563
NETSAT-1                
1 46506U 20068W   26277.27038892  .00008498  00000+0  23836-3 0  9993
2 46506  97.8788 285.6195 0004223   9.1121 351.0198 15.36851473332043
NETSAT-2                
1 46507U 20068X   26277.59136588  .00019246  00000+0  34343-3 0  9998
2 46507  97.8608 295.2876 0002457 343.6277  16.4894 15.50120405332666
GREENCUBE (IO-117)      
1 53109U 22080E   26276.97409515 -.00000003  00000+0  00000+0 0  9995
2 53109  70.1208 260.3996 0009162 266.6515  93.3097  6.42583783 99052
SITRO-AIS 5 (KATYS)     
1 57176U 23091L   26277.57726450  .00009628  00000+0  31747-3 0  9990
2 57176  97.4941 342.6173 0012016  78.4227 281.8363 15.31589028181078
SITRO-AIS 6 (CHIRKIN)   
1 57192U 23091AC  26277.56042185  .00007462  00000+0  27808-3 0  9990
2 57192  97.4949 341.1064 0012475  83.3632 276.9027 15.27673768180971
SITRO-AIS 8 (ANOKHIN)   
1 57193U 23091AD  26277.58321853  .00011892  00000+0  35512-3 0  9998
2 57193  97.4941 344.6957 0010755  74.6309 285.6122 15.34710835181212
SITRO-AIS 7 (FARTUSHNIY)
1 57194U 23091AE  26277.58763201  .00007393  00000+0  27852-3 0  9995
2 57194  97.4944 340.8966 0012437  84.4275 275.8382 15.27314900180969
SITRO-AIS 10 (BURDAEV)  
1 57199U 23091AK  26277.56745605  .00018358  00000+0  42601-3 0  9998
2 57199  97.4972 350.9676 0006364  50.1895 309.9911 15.42420025181607
SITRO-AIS 9 (SHCHUKIN)  
1 57201U 23091AM  26277.56777970  .00018330  00000+0  43414-3 0  9995
2 57201  97.4969 350.6022 0006657  50.4925 309.6909 15.41803827181586
SITRO-AIS 12 (SMIRENNIY)
1 57204U 23091AQ  26277.60172101  .00016441  00000+0  38568-3 0  9993
2 57204  97.4984 351.1761 0006145  45.0001 315.1743 15.42120681181612
SITRO-AIS 11 (SHEFFER)  
1 57208U 23091AU  26277.58168336  .00018253  00000+0  42037-3 0  9998
2 57208  97.4983 351.4794 0006104  44.5399 315.6338 15.42650682181639
SITRO-AIS 25            
1 59066U 24039R   26277.63057656  .00002136  00000+0  16672-3 0  9992
2 59066  95.3788 310.2561 0141327 305.5667  53.2452 14.94128164141069
SITRO-AIS 26            
1 59067U 24039S   26277.58055654  .00002132  00000+0  16726-3 0  9999
2 59067  95.3790 310.0960 0141736 306.4626  52.3605 14.93908551141046
SITRO-AIS 27            
1 59068U 24039T   26277.58631035  .00002051  00000+0  15954-3 0  9995
2 59068  95.3790 310.4237 0140714 304.7859  54.0189 14.94346519141072
SITRO-AIS 28            
1 59071U 24039U   26277.62821050  .00002059  00000+0  16006-3 0  9999
2 59071  95.3792 310.5058 0140582 304.4520  54.3487 14.94380024141089
GRBBETA                 
1 60237U 24128C   26277.50465675  .00001909  00000+0  13954-3 0  9990
2 60237  61.9889 192.5292 0024533 158.8244 201.3870 15.07267216122744
OOV-CUBE (TUBSAT-30)    
1 60240U 24128F   26277.49777020  .00001043  00000+0  91742-4 0  9993
2 60240  61.9942 204.2955 0028933 159.4783 200.7478 15.03149654122544
ROBUSTA-3A (MEDITERRAN*)
1 60243U 24128J   26277.29779512  .00004003  00000+0  23727-3 0  9998
2 60243  61.9859 182.0092 0025870 149.4441 210.8168 15.12890949122926
LASARSAT                
1 62391U 24247Q   26277.29523491  .00031238  00000+0  48488-3 0  9990
2 62391  44.9728   5.9261 0009783 315.6649  44.3460 15.53420975100240
CROCUBE                 
1 62394U 24247T   26277.50446834  .00047886  00000+0  65549-3 0  9995
2 62394  44.9705 359.7387 0010348 328.4210  31.6061 15.56657973100331
FORESAIL-1 PRIME        
1 66778U 25276DS  26277.47274377  .00002919  00000+0  14081-3 0  9998
2 66778  97.4099 348.7392 0003834  90.1001 270.0673 15.19468821 46997
KNACKSAT-2              
1 67683U 98067YA  26276.89176206  .00061392  00000+0  47629-3 0  9993
2 67683  51.6232 103.4022 0008593 246.2538 113.7559 15.71168655 37307
MARINA                  
1 69920U 26156BD  26276.46151180  .00001345  00000+0  13740-3 0  9995
2 69920  97.7430 175.4576 0006340 212.7434 147.3393 14.92218446 13149
