BEIJING 1               
1 28890U 05043A   26277.33291782 -.00000201  00000+0 -29128-4 0  9998
2 28890  98.3076  51.2537 0013511 303.6768  56.3144 14.63583154116617
HUANJING 1A (HJ-1A)     
1 33320U 08041A   26277.25588501  .00001223  00000+0  15188-3 0  9995
2 33320  97.6822 258.9620 0019879 136.4452 223.8337 14.84189098974581
HUANJING 1B (HJ-1B)     
1 33321U 08041B   26277.27568682  .00000669  00000+0  86799-4 0  9996
2 33321  97.6652 261.8157 0035872 182.8634 177.2381 14.83484218974581
YAOGAN-4                
1 33446U 08061A   26277.31554086  .00000549  00000+0  73443-4 0  9993
2 33446  97.9354 210.0469 0015654  76.3030 283.9926 14.83367602961848
DEIMOS-1                
1 35681U 09041A   26277.24861479  .00000067  00000+0  16962-4 0  9992
2 35681  97.7558  69.8547 0001554 135.8687 224.2647 14.75326866922961
UK-DMC 2                
1 35683U 09041C   26277.29484544  .00000299  00000+0  50478-4 0  9990
2 35683  97.8997  49.7005 0001036  93.4498 266.6830 14.76160283922662
DMC3-FM1                
1 40715U 15032A   26277.23823058  .00000291  00000+0  39336-4 0  9992
2 40715  97.6281 138.0501 0006929  60.5277 299.6629 14.85830602606106
DMC3-FM2                
1 40716U 15032B   26277.25974125  .00000616  00000+0  76594-4 0  9995
2 40716  97.6333 139.7168 0007593  64.6010 295.5992 14.85842038606104
DMC3-FM3                
1 40717U 15032C   26277.28390780 -.00000533  00000+0 -55392-4 0  9991
2 40717  97.6379 141.5595 0006750  64.7388 295.4527 14.85825260606115
