SAUDISAT 1C (SO-50)     
1 27607U 02058C   26274.89354402  .00000389  00000+0  63991-4 0  9994
2 27607  64.5522 158.7894 0070959 242.7918 116.5945 14.83236679280283
SAUDISAT 2              
1 28371U 04025F   26275.25108881  .00000114  00000+0  36555-4 0  9990
2 28371  98.5571 278.0370 0024081 330.4531  29.5304 14.56732788181339
SAUDISAT 3              
1 31118U 07012B   26274.81604934  .00000143  00000+0  31329-4 0  9999
2 31118  98.1578 225.3453 0013346 246.6780 113.3022 14.71477767 43424
PISAT                   
1 41784U 16059B   26274.94279282  .00000457  00000+0  85364-4 0  9994
2 41784  97.8258 270.8604 0027895 222.4181 137.4869 14.69144831535410
FLYING LAPTOP           
1 42831U 17042G   26275.28423241  .00000912  00000+0  74457-4 0  9992
2 42831  97.5031  67.0229 0018621 114.5097 245.8071 15.01649159502528
SALSAT                  
1 46495U 20068K   26274.91233420  .00004082  00000+0  13864-3 0  9997
2 46495  97.8885 284.6082 0007657 291.5448  68.4975 15.31105810331688
