PROBA-1                 
1 26958U 01049B   26273.59541943  .00000553  00000+0  39415-4 0  9992
2 26958  97.9609 285.8513 0055627 125.2804 235.3645 15.07837945359500
CUTE-1 (CO-55)          
1 27844U 03031E   26273.47729090  .00000144  00000+0  81368-4 0  9998
2 27844  98.6771 280.7320 0008561 236.3218 123.7145 14.24387977206667
CUBESAT XI-IV (CO-57)   
1 27848U 03031J   26273.23773697  .00000120  00000+0  71950-4 0  9998
2 27848  98.6803 280.1232 0008319 258.5613 101.4632 14.23665655206327
APRIZESAT 4             
1 35684U 09041D   26273.44616081  .00000319  00000+0  44771-4 0  9999
2 35684  98.1331 350.8214 0042675 341.8532  18.1156 14.84003620926979
APRIZESAT 3             
1 35686U 09041F   26273.41863153  .00000317  00000+0  32677-4 0  9992
2 35686  98.2208  71.8003 0062565  79.6920 281.1346 14.96491798932114
PROBA-2                 
1 36037U 09059B   26273.46572392  .00000073  00000+0  27542-4 0  9993
2 36037  98.2480  95.3934 0012441 319.9616  40.0663 14.54898238896837
APRIZESAT 5             
1 37792U 11044E   26273.52903305  .00000644  00000+0  88270-4 0  9997
2 37792  98.2500 209.5806 0052688  24.8201 335.5528 14.81232235814386
APRIZESAT 6             
1 37793U 11044F   26273.57186501  .00000359  00000+0  57932-4 0  9998
2 37793  98.2284 186.1818 0044259 108.0047  15.3951 14.77036267812706
PROBA-V                 
1 39159U 13021A   26273.47522178  .00000021  00000+0  27120-4 0  9998
2 39159  98.3733 246.9525 0004168 168.4217 191.7059 14.23615270696096
APRIZESAT 7             
1 39416U 13066A   26273.60418101  .00000683  00000+0  72746-4 0  9996
2 39416  97.7831 225.3826 0034580 220.0562 139.8106 14.91773608696943
APRIZESAT 8             
1 39425U 13066K   26273.60140374  .00000609  00000+0  71790-4 0  9996
2 39425  97.8324 219.6558 0044461 300.1253  59.5560 14.87819456695347
BUGSAT-1 (TITA)         
1 40014U 14033E   26273.57231742  .00002275  00000+0  11970-3 0  9997
2 40014  98.0430  12.3556 0027367 177.9761 182.1586 15.16489207671806
SAUDISAT 4              
1 40016U 14033G   26273.61719077  .00000355  00000+0  53300-4 0  9997
2 40016  97.7745  56.2136 0046116  90.3687 270.2809 14.79655627661661
APRIZESAT 9             
1 40018U 14033J   26273.61143150  .00000384  00000+0  63902-4 0  9993
2 40018  97.9213  44.3298 0065120 220.5034 139.1318 14.74319579659091
APRIZESAT 10            
1 40019U 14033K   26273.63347866  .00000239  00000+0  45711-4 0  9993
2 40019  97.9788  38.3231 0077422 297.5770  61.7587 14.70975213657756
TECHDEMOSAT-1 (TDS-1)   
1 40076U 14037H   26273.44369170  .00003817  00000+0  21104-3 0  9995
2 40076  98.3881 276.2461 0004427 272.5515  87.5207 15.14597564664156
TECHNOSAT               
1 42829U 17042E   26273.41623373  .00001308  00000+0  94820-4 0  9996
2 42829  97.4430  67.2010 0019225  94.3823 265.9601 15.05476683502537
FLYING LAPTOP           
1 42831U 17042G   26273.61834775  .00001263  00000+0  10146-3 0  9999
2 42831  97.5028  65.4124 0018441 119.7989 240.5072 15.01646523502274
HAWK-A                  
1 43765U 18099H   26273.38232259  .00002993  00000+0  11837-3 0  9991
2 43765  97.3790 324.2630 0032155 274.5651  85.1915 15.25793331429135
HAWK-B                  
1 43794U 18099AN  26273.40202361  .00002721  00000+0  11450-3 0  9997
2 43794  97.3840 323.4692 0029616 294.7459  65.0697 15.23866262429057
HAWK-C                  
1 43799U 18099AT  26273.11200429  .00003802  00000+0  13291-3 0  9999
2 43799  97.3765 325.4444 0037371 273.4095  86.2871 15.29511384429947
SALSAT                  
1 46495U 20068K   26273.27847941  .00003636  00000+0  12385-3 0  9995
2 46495  97.8883 282.8713 0007716 298.2838  61.7622 15.31092058331437
HAWK-2C                 
1 47502U 21006CT  26273.54619285  .00003179  00000+0  93546-4 0  9997
2 47502  97.2170 315.7767 0006975 167.5129 192.6289 15.35776232315669
HAWK-2A                 
1 47505U 21006CW  26273.35067078  .00003137  00000+0  92265-4 0  9997
2 47505  97.2211 316.3269 0006380 171.5071 188.6282 15.35814027315633
HAWK-2B                 
1 47508U 21006CZ  26273.53253159  .00003609  00000+0  10518-3 0  9991
2 47508  97.2084 314.6755 0006965 169.5436 190.5955 15.35994368315665
HAWK-3B                 
1 48931U 21059BE  26273.34371278  .00048499  00000+0  27161-3 0  9990
2 48931  97.6521 120.7021 0002171 289.4739  70.6292 15.79206477294394
HAWK-3C                 
1 48948U 21059BX  26273.53348145  .00042709  00000+0  23918-3 0  9990
2 48948  97.6622 126.7662 0002320 289.4059  70.6957 15.79230921294425
HAWK-3A                 
1 48957U 21059CG  26273.34326397  .00042545  00000+0  23842-3 0  9998
2 48957  97.6574 123.6798 0002398 295.1824  64.9193 15.79217007294390
HAWK-5C                 
1 52754U 22057Y   26273.45127035  .00015568  00000+0  23538-3 0  9994
2 52754  97.6686  80.2619 0004534  56.7389 303.4298 15.54793306242681
HAWK-5B                 
1 52756U 22057AA  26273.51548664  .00012047  00000+0  18261-3 0  9994
2 52756  97.6710  78.6993 0005004  49.4723 310.6965 15.54786964242695
HAWK-5A                 
1 52757U 22057AB  26273.45089715  .00012252  00000+0  18572-3 0  9998
2 52757  97.6704  79.4556 0004880  52.9506 307.2193 15.54782138242685
HAWK-6B                 
1 55324U 23011A   26273.53605327  .00002276  00000+0  10080-3 0  9995
2 55324  40.4983  97.2215 0001374  10.1532 349.9305 15.23718394203913
HAWK-6C                 
1 55326U 23011C   26273.53541230  .00002539  00000+0  11154-3 0  9994
2 55326  40.4971  94.0531 0002477  14.8422 345.2460 15.23718080203926
HAWK-6A                 
1 55327U 23011D   26273.53545035  .00002185  00000+0  97099-4 0  9992
2 55327  40.4979  95.6866 0002248   2.3782 357.7038 15.23716255203921
HAWK-7A                 
1 56191U 23054P   26273.49012482  .00003019  00000+0  11219-3 0  9995
2 56191  97.2519 158.1200 0004020  47.9625 312.1957 15.28290638193109
HAWK-7B                 
1 56193U 23054R   26273.49006112  .00002959  00000+0  10999-3 0  9996
2 56193  97.2542 156.4199 0003533  61.8291 298.3305 15.28294980193103
HAWK-7C                 
1 56200U 23054Y   26273.48993935  .00002958  00000+0  10996-3 0  9998
2 56200  97.2518 157.1563 0003522  51.7882 308.3675 15.28292861193108
