EUTELSAT 174A           
1 28924U 05052A   26269.79808067  .00000016  00000+0  00000+0 0  9992
2 28924   4.4687  75.2060 0006174 109.7643 281.9725  1.00270164 53355
EUTELSAT 33F            
1 29270U 06032A   26269.55636874  .00000161  00000+0  00000+0 0  9996
2 29270   1.9154  80.9461 0003426 105.7489  52.0818  1.00273957 48324
EUTELSAT HOTBIRD 13C    
1 33459U 08065A   26268.96965197 -.00000277  00000+0  00000+0 0  9994
2 33459   3.2017  77.9041 0003782 113.0703 112.6204  1.00272592 48356
EUTELSAT 36B            
1 36101U 09065A   26269.72544869  .00000117  00000+0  00000+0 0  9998
2 36101   0.7395  81.0366 0005841 103.1708 133.0010  1.00270194 61727
EUTELSAT KA-SAT 9A      
1 37258U 10069A   26269.90779610  .00000066  00000+0  00000+0 0  9995
2 37258   0.0761 354.0495 0005201 166.5559 180.9283  1.00273305 45029
EUTELSAT 7 WEST A       
1 37816U 11051A   26269.83347685 -.00000056  00000+0  00000+0 0  9992
2 37816   0.0721  18.3199 0006178 166.0279 114.0566  1.00272435 54894
EUTELSAT 16A            
1 37836U 11057A   26269.55246873  .00000052  00000+0  00000+0 0  9991
2 37836   0.1212  67.0509 0005879 113.1729  37.2954  1.00020372  8356
EUTELSAT 21B            
1 38992U 12062B   26269.79777723  .00000134  00000+0  00000+0 0  9992
2 38992   0.0700 352.0047 0002930 184.6509 137.7559  1.00270024 50848
EUTELSAT 70B            
1 39020U 12069A   26269.92018949 -.00000039  00000+0  00000+0 0  9990
2 39020   0.0683   9.8795 0003690 176.4870 221.1253  1.00271816 50526
EUTELSAT 117 WEST A     
1 39122U 13012A   26269.59796648 -.00000009  00000+0  00000+0 0  9991
2 39122   0.0104 128.1479 0002980  61.1945 274.5479  1.00272191 49454
EUTELSAT 7B             
1 39163U 13022A   26269.69555356  .00000108  00000+0  00000+0 0  9996
2 39163   0.0681 353.4523 0003677 118.2823 160.1870  1.00270322 48969
EXPRESS-AT1             
1 39612U 14010A   26269.99962733 -.00000112  00000+0  00000+0 0  9993
2 39612   0.5122  84.3113 0004960  85.9713 272.4477  1.00315323 45836
EXPRESS-AT2             
1 39613U 14010B   26269.78696241  .00000082  00000+0  00000+0 0  9994
2 39613   0.0211 218.1510 0000098   9.8696 116.8975  1.00273446 45510
EUTELSAT 3B             
1 39773U 14030A   26269.33658112  .00000024  00000+0  00000+0 0  9995
2 39773   0.0659   6.3864 0004245 178.2712 304.7724  1.00272202 45081
EUTELSAT 115 WEST B     
1 40425U 15010B   26269.59831315 -.00000021  00000+0  00000+0 0  9994
2 40425   0.0430   0.5331 0000120 126.5286 338.8501  1.00271187 42404
EUTELSAT 8 WEST B       
1 40875U 15039B   26269.33441444 -.00000062  00000+0  00000+0 0  9991
2 40875   0.0678 350.9963 0003600 193.7492 292.7960  1.00271444 40671
EUTELSAT 9B             
1 41310U 16005A   26269.69416690  .00000066  00000+0  00000+0 0  9997
2 41310   0.0622  67.2263 0002935 156.1788  41.0063  1.00272738 39132
EUTELSAT 65 WEST A      
1 41382U 16014A   26269.53686866 -.00000273  00000+0  00000+0 0  9994
2 41382   0.0961 298.9505 0002326 241.4505 313.0333  1.00273841 38540
EUTELSAT 117 WEST B     
1 41589U 16038B   26269.59796648 -.00000008  00000+0  00000+0 0  9991
2 41589   0.0196 335.0114 0000236  96.9352  31.7362  1.00271156 37686
EUTELSAT 172B           
1 42741U 17029B   26269.47467306 -.00000002  00000+0  00000+0 0  9990
2 42741   0.0237 145.1372 0000034  12.1765 190.8742  1.00271875 34766
EUTELSAT 7C             
1 44334U 19034B   26269.83633686  .00000053  00000+0  00000+0 0  9999
2 44334   0.0674 183.9685 0003418 346.6542 143.1201  1.00273107  7856
EUTELSAT 5 WEST B       
1 44624U 19067A   26269.83391019 -.00000038  00000+0  00000+0 0  9992
2 44624   0.0675 348.8902 0003215 197.4696 114.5071  1.00271494 25449
EUTELSAT KONNECT        
1 45027U 20005B   26269.19484251  .00000053  00000+0  00000+0 0  9990
2 45027   0.0659  97.8769 0001825 128.7828 215.7278  1.00269812 25343
EUTELSAT QUANTUM        
1 49056U 21069B   26269.77312057  .00000130  00000+0  00000+0 0  9991
2 49056   0.0168 123.8738 0002408  69.5761 138.1709  1.00272208 18944
EUTELSAT KONNECT VHTS   
1 53765U 22110A   26268.05352161  .00000018  00000+0  00000+0 0  9996
2 53765   0.0554 104.5802 0002658  53.0728 228.2461  1.00269414  7838
EUTELSAT HOTBIRD 13F    
1 54048U 22134A   26269.55238206  .00000091  00000+0  00000+0 0  9997
2 54048   0.0648 286.6384 0001892  72.4239 218.1708  1.00272282 14393
EUTELSAT HOTBIRD 13G    
1 54225U 22146A   26269.55238206  .00000091  00000+0  00000+0 0  9997
2 54225   0.0515 237.7771 0002134 302.6997  36.7597  1.00272078  8485
EUTELSAT 10B            
1 54259U 22157A   26269.62309993  .00000073  00000+0  00000+0 0  9996
2 54259   0.0552 101.3552 0001193 357.9930 140.4255  1.00273227 14040
EUTELSAT 36D            
1 59346U 24059A   26269.69945359  .00000160  00000+0  00000+0 0  9997
2 59346   0.0027 178.9527 0000187 100.4730  13.7698  1.00271150  9165
