TDRS 3                  
1 19548U 88091B   26273.95411941 -.00000297  00000+0  00000+0 0  9994
2 19548  12.5244 340.2927 0038904 350.6418 333.3814  1.00267688126445
FLTSATCOM 8 (USA 46)    
1 20253U 89077A   26274.61646074 -.00000368  00000+0  00000+0 0  9994
2 20253  12.3942 350.5103 0003304 236.8977 130.4252  1.00264522261631
TDRS 5                  
1 21639U 91054B   26274.49747378  .00000084  00000+0  00000+0 0  9990
2 21639  14.0593 352.9788 0009780 251.0148 137.7283  1.00268750128788
TDRS 6                  
1 22314U 93003B   26272.91923359 -.00000291  00000+0  00000+0 0  9998
2 22314  14.1863 356.2690 0009743 205.2826  92.2396  1.00269529123456
UFO 2 (USA 95)          
1 22787U 93056A   26273.83866306  .00000126  00000+0  00000+0 0  9996
2 22787  11.9328   2.9561 0002509 212.8585 124.4153  1.00269937119606
UFO 4 (USA 108)         
1 23467U 95003A   26274.64741421 -.00000023  00000+0  00000+0 0  9993
2 23467   9.7127  12.7248 0002959 177.5747 225.4400  1.00272085116029
TDRS 7                  
1 23613U 95035B   26274.62967028 -.00000239  00000+0  00000+0 0  9991
2 23613  13.2940 347.4483 0010371  98.4379 240.3290  1.00268951114313
USA 115 (MILSTAR-1 2)   
1 23712U 95060A   26274.29806156 -.00000202  00000+0  00000+0 0  9996
2 23712  14.1112   2.9431 0005940 170.3079 214.1540  1.00271749 33959
INMARSAT 3-F1           
1 23839U 96020A   26274.65394625 -.00000203  00000+0  00000+0 0  9997
2 23839  10.8201  45.6217 0007415 163.7563 193.2064  1.00003709111314
INMARSAT 3-F2           
1 24307U 96053A   26274.04814161  .00000139  00000+0  00000+0 0  9996
2 24307  10.0925  52.8326 0005614 136.2266 237.9475  0.99984626109980
INMARSAT 3-F3           
1 24674U 96070A   26274.42464411 -.00000268  00000+0  00000+0 0  9997
2 24674  10.5443  48.6018 0006551 165.7171 244.9602  0.99986316108977
USA 134                 
1 25019U 97065A   26274.39878056 -.00000062  00000+0  00000+0 0  9998
2 25019  12.9102  20.9039 0003819 260.8082 119.6061  1.00269257 34029
INMARSAT 3-F5           
1 25153U 98006B   26274.10040832 -.00000290  00000+0  00000+0 0  9998
2 25153   9.9253  52.1702 0004817 147.0847 152.7136  1.00267508104957
ABS-6                   
1 25924U 99053A   26274.65255787 -.00000122  00000+0  00000+0 0  9998
2 25924   0.0326 100.3116 0001248 104.8253 199.2003  1.00271722 98907
UFO 10 (USA 146)        
1 25967U 99063A   26272.11129411 -.00000181  00000+0  00000+0 0  9994
2 25967   9.9401  26.6463 0004457 201.0197 157.4470  1.00273947 98380
ASIASTAR                
1 26107U 00016A   26274.59496956 -.00000335  00000+0  00000+0 0  9997
2 26107   9.3739  56.9832 0004308 141.8114 130.7494  1.00272911 96980
USA 149 (DSP 20)        
1 26356U 00024A   26274.61813510  .00000056  00000+0  00000+0 0  9993
2 26356  13.2798  11.1637 0002623 282.0423 359.4346  0.99005072 33986
TDRS 8                  
1 26388U 00034A   26274.52800705 -.00000193  00000+0  00000+0 0  9994
2 26388  12.8499  30.4003 0000902 157.6093  96.9760  1.00267775 96247
NSS-11                  
1 26554U 00059A   26274.65897516  .00000022  00000+0  00000+0 0  9996
2 26554   2.3944  79.9847 0003180 124.7576 218.9038  1.00271629 42357
USA 153                 
1 26575U 00065A   26274.59381162 -.00000325  00000+0  00000+0 0  9991
2 26575  11.8070  34.5145 0001409 126.9744 196.8827  1.00278041 33991
AMC-6                   
1 26580U 00067A   26274.63977839  .00000085  00000+0  00000+0 0  9998
2 26580   0.4183  83.3175 0004788 123.3772 258.9699  1.00271144 94964
USA 157 (MILSTAR-2 2)   
1 26715U 01009A   26274.51095619  .00000109  00000+0  00000+0 0  9996
2 26715  11.6604  19.0787 0043227 181.3850 203.6720  1.00272240 34013
INTELSAT 902 (IS-902)   
1 26900U 01039A   26274.34766304 -.00000283  00000+0  00000+0 0  9996
2 26900   6.3791  70.4387 0003850 120.8502 253.8635  1.00272989 91761
USA 164 (MILSTAR-2 3)   
1 27168U 02001A   26274.61922559  .00000097  00000+0  00000+0 0  9991
2 27168  11.3079  21.2357 0097734  10.1082 220.9060  1.00275190 34022
INTELSAT 904 (IS-904)   
1 27380U 02007A   26274.31916245 -.00000225  00000+0  00000+0 0  9999
2 27380   7.1791  67.8633 0003601 132.8194 252.8009  1.00272297 52832
DIRECTV 5 (TEMPO 1)     
1 27426U 02023A   26274.64932913 -.00000059  00000+0  00000+0 0  9999
2 27426   5.1432  73.9227 0003369 125.3787 294.7679  1.00271756 89192
INTELSAT 905 (IS-905)   
1 27438U 02027A   26274.63923737  .00000092  00000+0  00000+0 0  9995
2 27438   7.0147  68.4674 0003812 155.2064 239.6450  1.00270884 52430
GALAXY 3C (G-3C)        
1 27445U 02030A   26274.59173037 -.00000154  00000+0  00000+0 0  9992
2 27445   4.0109  76.6361 0001191  62.6271 349.2679  1.00271319 47569
INTELSAT 906 (IS-906)   
1 27513U 02041A   26274.54246161  .00000011  00000+0  00000+0 0  9995
2 27513   6.0666  71.5631 0003461 140.0306  58.1417  1.00273262 88099
NIMIQ 2                 
1 27632U 02062A   26274.58117178 -.00000070  00000+0  00000+0 0  9995
2 27632   9.6879  55.7371 0005930 135.2711 279.3662  1.00272342 45258
USA 167                 
1 27691U 03008A   26274.55305899  .00000005  00000+0  00000+0 0  9994
2 27691  11.1693  42.4230 0003438 273.5808 131.3487  1.00272103  7846
USA 169 (MILSTAR-2 4)   
1 27711U 03012A   26274.32205854 -.00000197  00000+0  00000+0 0  9990
2 27711  12.4953  28.0998 0095782  12.1377 237.8741  1.00268029 34010
ASIASAT 4               
1 27718U 03014A   26274.58956674 -.00000223  00000+0  00000+0 0  9990
2 27718   4.9700  74.3537 0002741 118.3848 177.3919  1.00272895 46363
HELLAS-SAT 2            
1 27811U 03020A   26274.25208215 -.00000083  00000+0  00000+0 0  9990
2 27811   7.6122  66.5707 0008950 151.7986 232.4316  1.00271341 43916
THURAYA-2               
1 27825U 03026A   26273.96780573  .00000126  00000+0  00000+0 0  9997
2 27825   9.0026  31.4424 0001610 276.0396  94.6379  1.00270821 85419
OPTUS C1                
1 27831U 03028B   26274.65379507 -.00000153  00000+0  00000+0 0  9995
2 27831   7.1500  68.0718 0005659 125.3162 208.1290  1.00270364 54128
USA 170                 
1 27875U 03040A   26274.62694396  .00000125  00000+0  00000+0 0  9998
2 27875  10.7223  46.9070 0002409 181.9334  31.3908  1.00275380 34069
GALAXY 13 (HORIZONS-1)  
1 27954U 03044A   26274.63351472  .00000130  00000+0  00000+0 0  9992
2 27954   1.6878  82.3319 0002204 128.3534 237.7589  1.00270445 47644
YAMAL 202               
1 28089U 03053A   26274.76598457 -.00000082  00000+0  00000+0 0  9999
2 28089   6.6058  69.5961 0005020 139.5525 240.6834  1.00272201 83774
UFO 11 (USA 174)        
1 28117U 03057A   26274.62621023 -.00000103  00000+0  00000+0 0  9990
2 28117   9.0540  33.2537 0003929 168.1869 109.7421  1.00271401 83511
USA 176 (DSP 22)        
1 28158U 04004A   26274.52313617  .00000038  00000+0  00000+0 0  9990
2 28158  12.2028  25.2628 0004241 279.8253 117.9445  0.98999030 34008
ABS-4 (MOBISAT-1)       
1 28184U 04007A   26274.48010319  .00000038  00000+0  00000+0 0  9990
2 28184   6.3042  70.6653 0005192 123.2967  50.0993  1.00271489 53404
INTELSAT 10-02          
1 28358U 04022A   26274.28586502 -.00000012  00000+0  00000+0 0  9993
2 28358   0.0188 244.4512 0000395  25.9670 201.5399  1.00271722 81621
ANIK F2                 
1 28378U 04027A   26274.58086243 -.00000052  00000+0  00000+0 0  9994
2 28378   3.5541  78.0333 0003150 102.7425 287.5746  1.00271200 42336
AMC-15                  
1 28446U 04041A   26274.58355881 -.00000091  00000+0  00000+0 0  9996
2 28446   0.0402  32.9317 0002040 173.2733 269.1599  1.00270893 80378
NSS-10                  
1 28526U 05003A   26273.81904756 -.00000250  00000+0  00000+0 0  9997
2 28526   6.7084  69.1260 0003360 131.1734  66.6960  1.00270269 54218
INMARSAT 4-F1           
1 28628U 05009A   26274.57764159  .00000032  00000+0  00000+0 0  9998
2 28628   5.3166  42.8134 0003144 165.4870 188.1004  1.00272642 78735
DIRECTV 8               
1 28659U 05019A   26274.57799457 -.00000002  00000+0  00000+0 0  9990
2 28659   0.0178 159.4746 0003095  32.5068 267.3827  1.00271921 78143
GALAXY 28 (G-28)        
1 28702U 05022A   26274.27405985 -.00000201  00000+0  00000+0 0  9991
2 28702   3.5656  77.5472 0001728 107.6656 256.3993  1.00270946 53045
THAICOM 4               
1 28786U 05028A   26274.34906258 -.00000364  00000+0  00000+0 0  9996
2 28786   0.5125  84.2034 0000419 155.2378  15.8245  1.00272308 53312
ANIK F1R                
1 28868U 05036A   26274.58271285 -.00000077  00000+0  00000+0 0  9998
2 28868   4.5788  75.1902 0002231  86.3484 311.2841  1.00271774 47528
SYRACUSE 3A             
1 28885U 05041B   26254.51939881  .00000114  00000+0  00000+0 0  9998
2 28885   4.8548  74.7263 0002457 106.5771  42.9291  1.00275934 76614
INMARSAT 4-F2           
1 28899U 05044A   26274.43963545 -.00000261  00000+0  00000+0 0  9997
2 28899   5.2339  43.7196 0002856 160.3755 107.8688  1.00270890 76589
METEOSAT-9 (MSG-2)      
1 28912U 05049B   26273.97891865  .00000126  00000+0  00000+0 0  9990
2 28912   9.5970  53.0901 0001324   7.9916 346.7670  1.00269504  8057
EUTELSAT 174A           
1 28924U 05052A   26274.62494051  .00000007  00000+0  00000+0 0  9994
2 28924   4.4819  75.1422 0006210 117.2692 216.9353  1.00270733 53393
ECHOSTAR 10             
1 28935U 06003A   26274.58148399 -.00000058  00000+0  00000+0 0  9996
2 28935   0.0413  23.5194 0001702 139.9737 305.9691  1.00271128 75535
SPAINSAT                
1 28945U 06007A   26274.05659326 -.00000217  00000+0  00000+0 0  9997
2 28945   0.8297  84.5720 0005143 114.9469 160.4883  1.00271976 75273
JCSAT-5A                
1 29045U 06010A   26274.59505345 -.00000330  00000+0  00000+0 0  9999
2 29045   1.3759  82.7439 0001314  71.3753 202.5085  1.00269375 74832
ASTRA 1KR               
1 29055U 06012A   26274.25183747  .00000117  00000+0  00000+0 0  9995
2 29055   0.7406  82.4453 0003365 113.2024 284.0356  1.00265388 46760
GALAXY 16 (G-16)        
1 29236U 06023A   26274.59095037 -.00000130  00000+0  00000+0 0  9995
2 29236   0.0121 189.3670 0002743   1.0633 293.6662  1.00271102 74044
EUTELSAT 33F            
1 29270U 06032A   26274.47455649  .00000154  00000+0  00000+0 0  9994
2 29270   1.9291  80.8749 0003464 109.8710  23.4282  1.00269319 48377
JCSAT-3A                
1 29272U 06033A   26274.60783041 -.00000348  00000+0  00000+0 0  9998
2 29272   0.0284 272.3017 0002414 288.7557 156.1234  1.00270318 48807
KOREASAT 5 (MUGUNGWHA 5)
1 29349U 06034A   26274.60282212 -.00000360  00000+0  00000+0 0  9992
2 29349   2.0516  81.4649 0002373 164.6414  94.3218  1.00269167 42382
DIRECTV 9S              
1 29494U 06043A   26274.51112244 -.00000291  00000+0  00000+0 0  9993
2 29494   2.6898  79.4899 0008009 193.4144  63.1886  0.99097102 52446
OPTUS D1                
1 29495U 06043B   26274.58726380 -.00000185  00000+0  00000+0 0  9995
2 29495   3.3017  78.2416 0003798 111.1216 184.3669  1.00273229 73185
BADR-4                  
1 29526U 06051A   26274.61738381  .00000153  00000+0  00000+0 0  9991
2 29526   2.2724  79.7951 0004988 114.1720  73.1514  1.00272057 52334
WILDBLUE-1              
1 29643U 06054A   26274.39161612 -.00000245  00000+0  00000+0 0  9999
2 29643   3.0712  79.0689 0004945 109.4199 296.9813  0.99178391 54850
SKYNET 5A               
1 30794U 07007B   26274.59131282 -.00000273  00000+0  00000+0 0  9990
2 30794   5.5654  72.3891 0003467 126.9428 119.1048  1.00271819 71766
ANIK F3                 
1 31102U 07009A   26274.57799447 -.00000004  00000+0  00000+0 0  9999
2 31102   1.4656  82.3682 0002834 116.7326 260.6246  1.00272594 47639
ASTRA 1L                
1 31306U 07016A   26274.39187612 -.00000186  00000+0  00000+0 0  9999
2 31306   1.5886  80.4567 0004873 113.9484 292.3120  1.00272445 46054
GALAXY 17 (G-17)        
1 31307U 07016B   26274.46009459 -.00000208  00000+0  00000+0 0  9995
2 31307   3.2332  78.4699 0004384 145.6519 226.7474  1.00271203 70872
INTELSAT 11 (IS-11)     
1 32253U 07044B   26274.61400380 -.00000077  00000+0  00000+0 0  9996
2 32253   3.8355  77.2854 0008369 138.7754  32.8187  0.99050133 69504
WGS F1 (USA 195)        
1 32258U 07046A   26274.45956309 -.00000269  00000+0  00000+0 0  9995
2 32258   0.0388  95.0655 0000879 148.8580 249.2123  1.00271577 53404
SKYNET 5B               
1 32294U 07056B   26274.61547714  .00000138  00000+0  00000+0 0  9994
2 32294   5.5156  72.1744 0003686 121.0121  63.8227  1.00271698 69265
ASTRA 4A                
1 32299U 07057A   26274.26295003  .00000031  00000+0  00000+0 0  9994
2 32299   0.0404  51.6615 0002695 151.1826 266.6580  1.00270039 52715
HORIZONS-2              
1 32388U 07063B   26274.46200525 -.00000255  00000+0  00000+0 0  9996
2 32388   2.8688  79.2127 0002019 136.9643 246.5914  1.00270767 68881
THURAYA-3               
1 32404U 08001A   26273.91038587  .00000010  00000+0  00000+0 0  9992
2 32404   6.1677  35.8238 0003186 191.5233 173.7923  1.00272688 68553
THOR 5                  
1 32487U 08006A   26274.61036378 -.00000012  00000+0  00000+0 0  9995
2 32487   0.0155 223.4407 0002526 338.6988  27.2059  1.00270774 68387
AMC-14                  
1 32708U 08011A   26274.51516414 -.00000353  00000+0  00000+0 0  9998
2 32708  24.1316  19.2343 0034947   0.2276 298.5501  1.00431392 69238
DIRECTV 11              
1 32729U 08013A   26274.59086369 -.00000129  00000+0  00000+0 0  9993
2 32729   0.0157  74.0190 0000087 158.6841 251.1670  1.00271168 46667
ICO G1                  
1 32763U 08016A   26274.38016434 -.00000172  00000+0  00000+0 0  9995
2 32763   5.5403  35.7831 0002630 132.7618 245.5940  1.00273032 67613
VINASAT-1               
1 32767U 08018A   26274.02941593 -.00000329  00000+0  00000+0 0  9999
2 32767   0.0059 175.2715 0002246  45.1691 291.8845  1.00269736 67654
STAR ONE C2             
1 32768U 08018B   26274.46320606 -.00000279  00000+0  00000+0 0  9998
2 32768   1.5047  81.2100 0002566 120.1321 270.6566  1.00271466 67727
AMOS-3                  
1 32794U 08022A   26274.58018943 -.00000119  00000+0  00000+0 0  9996
2 32794   0.7222  84.3781 0001583  79.4753 133.3669  1.00271056 83401
GALAXY 18 (G-18)        
1 32951U 08024A   26274.57661204  .00000022  00000+0  00000+0 0  9998
2 32951   0.0167 200.0162 0003124   0.4182 254.4682  1.00271268 46910
ZHONGXING-9             
1 33051U 08028A   26274.77864760 -.00000253  00000+0  00000+0 0  9995
2 33051   1.0325  83.7007 0007897 145.8885 153.6699  1.00271409 67107
SKYNET 5C               
1 33055U 08030A   26274.27405985 -.00000140  00000+0  00000+0 0  9992
2 33055   4.0538  75.6963 0005351 128.2790 246.9333  1.00270759 67023
TURKSAT 3A              
1 33056U 08030B   26274.61885715  .00000143  00000+0  00000+0 0  9996
2 33056   0.0514  74.8069 0004095 108.8022  91.5615  1.00274172 53427
ECHOSTAR 11             
1 33207U 08035A   26274.58148337 -.00000060  00000+0  00000+0 0  9996
2 33207   1.2730  82.7101 0002487 109.1485 278.0146  1.00271200 52286
SUPERBIRD-C2            
1 33274U 08038A   26274.59365623 -.00000308  00000+0  00000+0 0  9998
2 33274   2.6285  79.8236 0005376  81.3520 198.9011  1.00273140106799
INMARSAT 4-F3           
1 33278U 08039A   26274.54449508 -.00000142  00000+0  00000+0 0  9999
2 33278   4.3965  31.7950 0003084 176.2710 260.2586  1.00271922 47617
NIMIQ 4                 
1 33373U 08044A   26274.59433038 -.00000223  00000+0  00000+0 0  9997
2 33373   0.0607  84.7134 0001913 114.8547 302.7523  1.00271724 66058
GALAXY 19 (G-19)        
1 33376U 08045A   26274.54365127 -.00000142  00000+0  00000+0 0  9999
2 33376   0.0209 235.6017 0002593 312.0365 281.3830  1.00272010 65973
ASTRA 1M                
1 33436U 08057A   26274.25183747  .00000120  00000+0  00000+0 0  9998
2 33436   0.5629  82.4001 0003702 111.6163 286.0449  1.00272626 46806
EUTELSAT HOTBIRD 13C    
1 33459U 08065A   26274.45800309 -.00000284  00000+0  00000+0 0  9996
2 33459   3.2168  77.8301 0003907 121.9180 285.0647  1.00271940 48416
EXPRESS-AM44            
1 33595U 09007A   26274.60837044 -.00000091  00000+0  00000+0 0  9993
2 33595   3.7288  77.0084 0003585 116.9918  24.3892  1.00271637 53358
NSS-9                   
1 33749U 09008A   26274.62939547  .00000069  00000+0  00000+0 0  9992
2 33749   1.5293  81.3655 0002167 109.7048 228.9755  1.00272898 64589
TELSTAR 11N             
1 34111U 09009A   26274.24670878 -.00000252  00000+0  00000+0 0  9999
2 34111   0.0255 100.1877 0002706  97.3874 223.6989  1.00271004 47309
WGS F2 (USA 204)        
1 34713U 09017A   26274.47940985  .00000000  00000+0  00000+0 0  9990
2 34713   0.0138 179.7483 0000404  36.5462  24.0193  1.00271321 46685
SES-7 (PROTOSTAR 2)     
1 34941U 09027A   26274.49523862 -.00000347  00000+0  00000+0 0  9992
2 34941   0.0441  65.1032 0002058 150.7468  80.9269  1.00269436 63694
MEASAT-3A               
1 35362U 09032A   26274.58456175 -.00000113  00000+0  00000+0 0  9999
2 35362   0.0426 354.0441 0003042 198.2923 188.4729  1.00272331  9093
EWS-G3 (GOES 14)        
1 35491U 09033A   26274.58537309 -.00000008  00000+0  00000+0 0  9995
2 35491   1.9576  81.5137 0002314 115.1328  95.4219  1.00069932  7656
FM-5                    
1 35493U 09034A   26274.46009432 -.00000202  00000+0  00000+0 0  9992
2 35493   0.0216 254.6416 0000097  83.0842 111.9748  1.00270131 47708
TERRESTAR-1             
1 35496U 09035A   26274.62171722 -.00000058  00000+0  00000+0 0  9995
2 35496   5.2452  48.6399 0001780 113.9729 320.5742  1.00272230 63205
ASIASAT 5               
1 35696U 09042A   26274.59598424 -.00000310  00000+0  00000+0 0  9994
2 35696   0.0373  99.3045 0001753  77.5711 148.5425  1.00272372 62784
JCSAT-12 (JCSAT-RA)     
1 35755U 09044A   26274.59497500 -.00000331  00000+0  00000+0 0  9998
2 35755   0.0124 151.0689 0002038  84.7269 120.7859  1.00268738 62671
OPTUS D3                
1 35756U 09044B   26274.60402634 -.00000149  00000+0  00000+0 0  9992
2 35756   0.7771 267.8523 0004346 287.2458 188.8628  1.00271673 62631
NIMIQ 5                 
1 35873U 09050A   26274.46132388 -.00000259  00000+0  00000+0 0  9991
2 35873   0.0293  94.5998 0002946 101.7184 267.2798  1.00270634 62416
AMAZONAS 2              
1 35942U 09054A   26274.46187517 -.00000261  00000+0  00000+0 0  9999
2 35942   2.0828  81.5328 0003408 109.4176 273.5619  1.00272023 62250
COMSATBW-1              
1 35943U 09054B   26274.48044986  .00000021  00000+0  00000+0 0  9997
2 35943   0.0145 193.6668 0003525  17.6157  34.9670  1.00275570 62371
NSS-12                  
1 36032U 09058A   26274.61917323  .00000068  00000+0  00000+0 0  9991
2 36032   0.0588  73.7205 0002579  87.1091 129.4492  1.00272272 61988
THOR 6                  
1 36033U 09058B   26274.61036378 -.00000013  00000+0  00000+0 0  9995
2 36033   0.0090 212.3326 0002728  16.7907   0.1213  1.00271659 62077
INTELSAT 14 (IS-14)     
1 36097U 09064A   26274.51509830 -.00000276  00000+0  00000+0 0  9990
2 36097   0.1824  83.6633 0002608 119.7733 307.2710  1.00272921 61672
EUTELSAT 36B            
1 36101U 09065A   26274.12154860  .00000111  00000+0  00000+0 0  9990
2 36101   0.7515  80.9996 0005886 111.0780 272.0470  1.00271533 61772
INTELSAT 15 (IS-15)     
1 36106U 09067A   26274.58498269 -.00000188  00000+0  00000+0 0  9996
2 36106   0.0142 119.2499 0002727  93.9629  92.8707  1.00270967 42298
WGS F3 (USA 211)        
1 36108U 09068A   26274.55336264  .00000018  00000+0  00000+0 0  9993
2 36108   0.3017  84.5030 0000483 166.4649 196.2806  1.00268899 47659
DIRECTV 12              
1 36131U 09075A   26274.45339812 -.00000106  00000+0  00000+0 0  9997
2 36131   0.0411  13.9506 0000174 181.6589 235.0867  1.00269619 47619
BEIDOU-2 G1             
1 36287U 10001A   26274.63835723 -.00000281  00000+0  00000+0 0  9996
2 36287   4.5389  59.9373 0002463 242.8602  77.8754  1.00273596 61235
SDO                     
1 36395U 10005A   26274.45374431 -.00000065  00000+0  00000+0 0  9994
2 36395  34.8721  84.7270 0001797  85.1527 262.1084  1.00273409 61122
INTELSAT 16 (IS-16)     
1 36397U 10006A   26274.26295003  .00000105  00000+0  00000+0 0  9997
2 36397   0.0314 275.6066 0002350 306.5784 249.1847  1.01413181 60723
EWS-G2 (GOES 15)        
1 36411U 10008A   26274.04226507  .00000021  00000+0  00000+0 0  9992
2 36411   1.5628  81.7293 0004911  92.1775 274.4226  1.00272218 60708
ECHOSTAR 14             
1 36499U 10010A   26274.40739073 -.00000002  00000+0  00000+0 0  9998
2 36499   0.0218  99.8095 0002046 101.5931 196.5191  1.00272148 47611
SES-1                   
1 36516U 10016A   26274.59051703 -.00000117  00000+0  00000+0 0  9998
2 36516   0.0395 281.1483 0002647 275.2856 285.4981  1.00272024 60103
ASTRA 3B                
1 36581U 10021A   26274.25875552  .00000136  00000+0  00000+0 0  9995
2 36581   1.7365  82.0772 0003053  80.1420 324.4451  1.00273811 59931
COMSATBW-2              
1 36582U 10021B   26274.25738961  .00000087  00000+0  00000+0 0  9993
2 36582   0.0319 108.9450 0003120 105.3253 261.6100  1.00271975 60027
BEIDOU-2 G3             
1 36590U 10024A   26274.57806891 -.00000137  00000+0  00000+0 0  9995
2 36590   4.7628  60.9298 0003914 355.6286 241.5296  1.00271480 59835
BADR-5                  
1 36592U 10025A   26274.61660381  .00000151  00000+0  00000+0 0  9990
2 36592   0.0457 126.0239 0008794  95.5487  41.2929  1.00274694 54281
ARABSAT-5A              
1 36745U 10032B   26274.61660381  .00000151  00000+0  00000+0 0  9998
2 36745   0.3060  77.6923 0003659 105.4655  79.6841  1.00270734 59710
ECHOSTAR 15             
1 36792U 10034A   26274.55198737 -.00000003  00000+0  00000+0 0  9993
2 36792   0.0297  73.9993 0002571  85.3408 290.8759  1.00271452 59387
BEIDOU-2 IGSO-1         
1 36828U 10036A   26256.66970756 -.00000130  00000+0  00000+0 0  9997
2 36828  54.3037 162.1610 0058541 217.4777 320.7749  1.00289463 58981
NILESAT 201             
1 36830U 10037A   26274.60915045 -.00000060  00000+0  00000+0 0  9997
2 36830   0.0167 162.2742 0005660  25.5646  34.8141  1.00271877 59441
RASCOM-QAF 1R           
1 36831U 10037B   26274.61114378  .00000016  00000+0  00000+0 0  9999
2 36831   0.0202 126.2224 0005219  68.4857  38.5502  1.00272013 59374
AEHF-1 (USA 214)        
1 36868U 10039A   26274.62554174  .00000146  00000+0  00000+0 0  9998
2 36868   8.4862  66.6477 0004124 129.5211  69.3338  1.00271943 54726
XM-5                    
1 37185U 10053A   26274.58774368 -.00000026  00000+0  00000+0 0  9999
2 37185   0.0677 269.8838 0000139 263.7627 293.0982  1.00271984 58554
BSAT-3B                 
1 37207U 10056B   26274.64508115 -.00000353  00000+0  00000+0 0  9992
2 37207   0.0177 211.1185 0004695   6.4989 134.8377  1.00269644 53165
BEIDOU-2 G4             
1 37210U 10057A   26274.65894918 -.00000114  00000+0  00000+0 0  9992
2 37210   3.9049  68.1674 0008903 180.8477 158.6077  1.00272984 58355
SKYTERRA 1              
1 37218U 10061A   26274.45370535 -.00000119  00000+0  00000+0 0  9992
2 37218   5.3493  50.5838 0002529 139.6864 241.9724  1.00272509 58267
HYLAS 1                 
1 37237U 10065A   26272.78864116 -.00000265  00000+0  00000+0 0  9996
2 37237   5.9006  71.6698 0010898 174.7762 181.3270  1.00533546  7939
INTELSAT 17 (IS-17)     
1 37238U 10065B   26274.57433674 -.00000004  00000+0  00000+0 0  9998
2 37238   0.0134 204.6300 0002493 342.5410  95.9063  1.00270430 54317
BEIDOU-2 IGSO-2         
1 37256U 10068A   26273.94211554 -.00000175  00000+0  00000+0 0  9991
2 37256  47.3603 270.5068 0057111 216.4511 326.3582  1.00247735 57854
EUTELSAT KA-SAT 9A      
1 37258U 10069A   26274.32722249  .00000060  00000+0  00000+0 0  9997
2 37258   0.0759 355.4212 0005038 167.0906 334.3801  1.00272152 45073
HISPASAT 30W-5          
1 37264U 10070A   26274.39074944 -.00000218  00000+0  00000+0 0  9991
2 37264   0.0329 120.6149 0005498  62.3146 297.8789  1.00270936 54253
KOREASAT 6              
1 37265U 10070B   26274.61778213  .00000000  00000+0  00000+0 0  9995
2 37265   0.0174 172.0849 0002743  48.7653 171.7678  1.00270777 57838
BEIDOU-2 IGSO-3         
1 37384U 11013A   26273.98959521 -.00000176  00000+0  00000+0 0  9992
2 37384  62.5640  39.1658 0034758 184.5512 249.1326  1.00287450 56729
INTELSAT 28 (IS-28)     
1 37392U 11016A   26274.46172977 -.00000227  00000+0  00000+0 0  9997
2 37392   2.0733  81.1632 0003683 117.3683 306.2071  1.00270893 54357
YAHSAT 1A               
1 37393U 11016B   26274.19330892  .00000101  00000+0  00000+0 0  9990
2 37393   0.0174 179.2696 0001539   5.8453 306.9178  1.00265669 43479
SBIRS GEO-1 (USA 230)   
1 37481U 11019A   26274.47828318  .00000098  00000+0  00000+0 0  9992
2 37481   4.7689  52.9655 0001723 144.0925  37.1609  1.00272613 56468
GSAT-8                  
1 37605U 11022A   26274.62145716  .00000082  00000+0  00000+0 0  9998
2 37605   2.3988  80.3875 0007325 163.0936  45.7140  1.00271930 54282
ST-2                    
1 37606U 11022B   26274.63811877 -.00000213  00000+0  00000+0 0  9995
2 37606   0.0184 204.4020 0002266  24.4697  99.2185  1.00267104 56340
ZHONGXING-10            
1 37677U 11026A   26274.58788516 -.00000060  00000+0  00000+0 0  9994
2 37677   1.2448  50.4818 0005908 200.5698 352.1906  0.99024092 56056
SES-3                   
1 37748U 11035A   26274.54643228 -.00000104  00000+0  00000+0 0  9998
2 37748   1.5943  81.6949 0002731 130.8690 251.4526  1.00271620 55666
KAZSAT-2                
1 37749U 11035B   26273.05955231 -.00000195  00000+0  00000+0 0  9994
2 37749   0.0426 353.6955 0001123 248.2765 234.8115  1.00271330 54450
BEIDOU-2 IGSO-4         
1 37763U 11038A   26273.75193078 -.00000048  00000+0  00000+0 0  9990
2 37763  54.6015 164.7346 0160690 230.7425 338.5656  1.00264383 55705
ASTRA 1N                
1 37775U 11041A   26274.25183747  .00000119  00000+0  00000+0 0  9993
2 37775   0.0977  42.4439 0004347 124.1056 313.3429  1.00274250 45596
BSAT-3C (JCSAT-110R)    
1 37776U 11041B   26274.64496880 -.00000353  00000+0  00000+0 0  9993
2 37776   0.0461  34.0187 0000274 241.9371  76.5793  1.00269324 51534
SES-2                   
1 37809U 11049A   26274.38206722 -.00000198  00000+0  00000+0 0  9990
2 37809   0.3241  86.6593 0003043 109.5854 224.4371  1.00270555 55028
ARABSAT-5C              
1 37810U 11049B   26274.25183747  .00000122  00000+0  00000+0 0  9995
2 37810   0.0568  10.1566 0003920 193.6375 276.8854  1.00269087 55101
EUTELSAT 7 WEST A       
1 37816U 11051A   26274.60915045 -.00000063  00000+0  00000+0 0  9992
2 37816   0.0702 340.3809 0006571 207.1038  34.8670  1.00270751 54946
QUETZSAT 1              
1 37826U 11054A   26274.47910975 -.00000244  00000+0  00000+0 0  9999
2 37826   0.0332  59.2483 0002882 142.7454 263.7288  1.00271192 50941
INTELSAT 18 (IS-18)     
1 37834U 11056A   26274.59271464  .00000050  00000+0  00000+0 0  9990
2 37834   0.0319 260.3170 0002392 311.0134 192.3909  1.00273391 54871
EUTELSAT 16A            
1 37836U 11057A   26274.61227046  .00000014  00000+0  00000+0 0  9993
2 37836   0.1340  69.2528 0005606 116.1566  54.0573  1.00022202  8407
VIASAT-1                
1 37843U 11059A   26274.55059611 -.00000026  00000+0  00000+0 0  9991
2 37843   0.0184 212.2255 0002292 341.6381 259.5510  1.00272154 48382
ASIASAT 7               
1 37933U 11069A   26274.63142387 -.00000337  00000+0  00000+0 0  9999
2 37933   0.0477  78.7441 0001632  89.9066 174.5331  1.00274328 45927
BEIDOU-2 IGSO-5         
1 37948U 11073A   26270.97961485 -.00000126  00000+0  00000+0 0  9997
2 37948  47.4986 270.2599 0116511 224.3210 320.7744  1.00274862 54167
LUCH-5A                 
1 37951U 11074B   26274.76427047 -.00000049  00000+0  00000+0 0  9998
2 37951   9.0180  72.2162 0004623 139.3030 241.1910  1.00274122 54128
NIGCOMSAT 1R            
1 38014U 11077A   26274.61894382  .00000142  00000+0  00000+0 0  9999
2 38014   0.0162 202.6391 0003040 122.1559 310.8920  1.00269451 54024
WGS F4 (USA 233)        
1 38070U 12003A   26274.48528331 -.00000218  00000+0  00000+0 0  9999
2 38070   0.0195 176.6302 0000410  86.6766  10.0621  1.00271579 45218
SES-4                   
1 38087U 12007A   26274.39230946 -.00000170  00000+0  00000+0 0  9990
2 38087   0.0112 298.2850 0002381 241.6988 309.4055  1.00271385 53290
BEIDOU-2 G5             
1 38091U 12008A   26274.62215050  .00000055  00000+0  00000+0 0  9992
2 38091   3.8323  68.9012 0007573 233.5826 350.5443  1.00273570 53433
MUOS-1                  
1 38093U 12009A   26274.54480450 -.00000128  00000+0  00000+0 0  9996
2 38093   5.6919  46.9521 0051770   3.3970  56.0527  1.00270447 53518
INTELSAT 22 (IS-22)     
1 38098U 12011A   26274.62483718 -.00000062  00000+0  00000+0 0  9990
2 38098   0.0219 241.0191 0001607 296.0731 130.3373  1.00271025  8255
APSTAR-7                
1 38107U 12013A   26274.62570384 -.00000104  00000+0  00000+0 0  9996
2 38107   0.0123 221.7704 0002761 335.9993 114.3520  1.00270656 52883
YAHSAT 1B               
1 38245U 12016A   26274.47741652  .00000124  00000+0  00000+0 0  9994
2 38245   0.1064  86.5344 0001390 140.3380   2.8546  1.00271284 46670
AEHF-2 (USA 235)        
1 38254U 12019A   26273.68064030 -.00000133  00000+0  00000+0 0  9998
2 38254   6.8901  56.6411 0002712 147.7052  33.6208  1.00270530  8041
JCSAT-13                
1 38331U 12023A   26274.50928024 -.00000359  00000+0  00000+0 0  9993
2 38331   0.0244  98.1781 0002409  99.8257 119.6047  1.00269328 52612
VINASAT-2               
1 38332U 12023B   26274.06989361 -.00000329  00000+0  00000+0 0  9993
2 38332   0.0297 322.3371 0002100 231.1852 333.3224  1.00270353 47726
NIMIQ 6                 
1 38342U 12026A   26274.45882823 -.00000176  00000+0  00000+0 0  9995
2 38342   0.0317  76.1142 0003004 120.7298 247.4528  1.00271301 51485
ZHONGXING-2A            
1 38352U 12028A   26274.78276672 -.00000296  00000+0  00000+0 0  9996
2 38352   1.7217  82.3302 0002015 175.2360 133.0265  1.00272493 52365
INTELSAT 19 (IS-19)     
1 38356U 12030A   26274.65620476  .00000000  00000+0  00000+0 0  9996
2 38356   0.0131 186.8479 0003133  11.3739 214.4028  1.00270583 51518
ECHOSTAR 17             
1 38551U 12035A   26274.54782541 -.00000078  00000+0  00000+0 0  9994
2 38551   0.0168 148.4917 0002062  47.7675 264.1668  1.00270295 52139
METEOSAT-10 (MSG-3)     
1 38552U 12035B   26274.18290887 -.00000006  00000+0  00000+0 0  9993
2 38552   4.9180  60.4118 0001072 144.4372 231.0430  1.00273596 51925
SES-5                   
1 38652U 12036A   26274.26295003  .00000032  00000+0  00000+0 0  9997
2 38652   0.0490   9.2582 0002108 183.3404 277.0669  1.00270432 45521
INTELSAT 20 (IS-20)     
1 38740U 12043A   26274.57453659 -.00000027  00000+0  00000+0 0  9995
2 38740   0.0184 119.7079 0001675  54.3317 111.6128  1.00270581 51812
HYLAS 2                 
1 38741U 12043B   26274.29141993 -.00000007  00000+0  00000+0 0  9998
2 38741   2.6926  79.6380 0004807 165.3687 223.7546  1.00521439 51840
INTELSAT 21 (IS-21)     
1 38749U 12045A   26274.40454998 -.00000287  00000+0  00000+0 0  9993
2 38749   0.0184 250.6931 0002234 303.2402 263.8691  1.00272163 51583
ASTRA 2F                
1 38778U 12051A   26274.25970885  .00000149  00000+0  00000+0 0  9999
2 38778   0.0701 257.2860 0004572 316.3053 278.1374  1.00274474 42201
GSAT-10                 
1 38779U 12051B   26274.58327782  .00000000  00000+0  00000+0 0  9994
2 38779   0.0154 179.2293 0004159 303.9158 180.1814  1.00269580 51164
INTELSAT 23 (IS-23)     
1 38867U 12057A   26274.38624275 -.00000287  00000+0  00000+0 0  9991
2 38867   0.0192 260.9211 0002026 345.1560 210.1085  1.00274841 51012
BEIDOU-2 G6             
1 38953U 12059A   26274.58165013 -.00000178  00000+0  00000+0 0  9990
2 38953   4.6838  72.2971 0006528 319.5482 271.9065  1.00273955 50973
LUCH-5B                 
1 38977U 12061A   26273.68064030 -.00000135  00000+0  00000+0 0  9999
2 38977  10.7068  48.8033 0006721 170.7611  18.6021  1.00271834 50664
YAMAL 300K              
1 38978U 12061B   26274.66093704  .00000068  00000+0  00000+0 0  9993
2 38978   0.0117 200.5800 0000237 126.4363 104.2931  1.00267223 50691
STAR ONE C3             
1 38991U 12062A   26274.39136130 -.00000251  00000+0  00000+0 0  9995
2 38991   0.0645  79.2782 0002118 116.8887 239.8897  1.00271846 50823
EUTELSAT 21B            
1 38992U 12062B   26274.58788545  .00000127  00000+0  00000+0 0  9991
2 38992   0.0695   1.8328 0002891 181.4275  60.3024  1.00272166 50895
ECHOSTAR 16             
1 39008U 12065A   26274.46417047 -.00000284  00000+0  00000+0 0  9991
2 39008   0.0172 167.3451 0002088  23.9324 284.5451  1.00271173 50714
ZHONGXING-12            
1 39017U 12067A   26274.84720565 -.00000210  00000+0  00000+0 0  9996
2 39017   0.0169 181.7749 0002846  17.9890 203.3168  1.00269564 50572
EUTELSAT 70B            
1 39020U 12069A   26274.62449051 -.00000046  00000+0  00000+0 0  9993
2 39020   0.0656 353.1444 0003763 197.0916 115.4590  1.00269986 50572
YAMAL 402               
1 39022U 12070A   26274.47888985  .00000083  00000+0  00000+0 0  9993
2 39022   1.5310  82.6192 0003678 112.4871  42.4446  1.00273090 50465
SKYNET 5D               
1 39034U 12075A   26274.62102383  .00000096  00000+0  00000+0 0  9993
2 39034   0.0783 340.3842 0004385 223.7814  82.5497  1.00274529 50224
MEXSAT 3                
1 39035U 12075B   26274.55059650  .00000000  00000+0  00000+0 0  9999
2 39035   0.0185 177.5049 0002142  62.2495 213.9669  1.00276360  8117
TDRS 11                 
1 39070U 13004A   26274.55669890  .00000078  00000+0  00000+0 0  9999
2 39070   3.6843  32.8018 0002818  38.5649 324.9498  1.00274220 47762
AMAZONAS 3              
1 39078U 13006A   26274.39209098 -.00000284  00000+0  00000+0 0  9991
2 39078   0.0309 225.2038 0005487 340.5459 244.5320  1.00266260 45986
AZERSPACE 1             
1 39079U 13006B   26274.20114350  .00000000  00000+0  00000+0 0  9993
2 39079   0.0147 181.3306 0002317  48.9289 258.0889  1.00273892 49877
SBIRS GEO-2 (USA 241)   
1 39120U 13011A   26274.54349436 -.00000147  00000+0  00000+0 0  9991
2 39120   4.7177  52.4280 0002453 146.8424 269.8854  1.00271869 49602
EUTELSAT 117 WEST A     
1 39122U 13012A   26274.55129547 -.00000016  00000+0  00000+0 0  9999
2 39122   0.0397  40.5617 0003087 160.3883 251.0329  1.00272488 49500
ANIK G1                 
1 39127U 13014A   26274.54782477 -.00000077  00000+0  00000+0 0  9999
2 39127   0.0330  89.9359 0003249 117.3898 252.8920  1.00271408 49327
ZHONGXING-11            
1 39157U 13020A   26274.78265937 -.00000294  00000+0  00000+0 0  9993
2 39157   0.0165   0.1490 0000673 160.6028 229.4523  1.00271280 48967
EUTELSAT 7B             
1 39163U 13022A   26274.61374380  .00000101  00000+0  00000+0 0  9993
2 39163   0.0681   5.3116 0003159 109.1391 132.8554  1.00271777 49011
WGS F5 (USA 243)        
1 39168U 13024A   26274.34881323  .00000000  00000+0  00000+0 0  9998
2 39168   0.0161 183.0566 0000604  34.7514 225.3662  1.00269178 48237
SES-6                   
1 39172U 13026A   26274.38866943 -.00000263  00000+0  00000+0 0  9992
2 39172   0.0132 306.3673 0002714 261.5501 261.6395  1.00269702 48799
IRNSS-1A                
1 39199U 13034A   26274.47906318  .00000078  00000+0  00000+0 0  9994
2 39199  35.9548  62.3510 0021227 181.6443 353.8436  1.00269028 48434
MUOS-2                  
1 39206U 13036A   26274.56149823 -.00000012  00000+0  00000+0 0  9994
2 39206   5.2067  45.5483 0057812 178.7848 160.1745  1.00274989 48250
ALPHASAT                
1 39215U 13038A   26274.61547714  .00000133  00000+0  00000+0 0  9996
2 39215   3.0051   0.5669 0003833 205.4243  50.8122  1.00270295 45085
INSAT-3D                
1 39216U 13038B   26274.56495024 -.00000341  00000+0  00000+0 0  9999
2 39216   2.1934  81.0619 0002290 135.7286 126.4191  1.00269471 48143
WGS F6 (USA 244)        
1 39222U 13041A   26274.51727374  .00000087  00000+0  00000+0 0  9997
2 39222   0.0190 210.6739 0000501  69.1808 141.4384  1.00270379 47124
ES'HAIL 1               
1 39233U 13044A   26274.25918885  .00000142  00000+0  00000+0 0  9994
2 39233   0.0625  12.6968 0002374 183.7508 292.3528  1.00272568 47693
GSAT-7                  
1 39234U 13044B   26274.62518384 -.00000080  00000+0  00000+0 0  9998
2 39234   0.3479  86.1849 0006194 168.2414  55.0349  1.00270953 46326
AMOS-4                  
1 39237U 13045A   26274.54246160  .00000005  00000+0  00000+0 0  9999
2 39237   0.0160 124.5561 0001043  79.6482  66.3873  1.00271361 48029
AEHF-3 (USA 246)        
1 39256U 13050A   26274.55467765  .00000028  00000+0  00000+0 0  9998
2 39256   5.5518  66.1458 0092631 188.9917 190.5996  1.00273372 46728
ASTRA 2E                
1 39285U 13056A   26274.25979552  .00000149  00000+0  00000+0 0  9999
2 39285   0.0920 304.5632 0002315 248.8909 298.5909  1.00274459 47481
FM-6                    
1 39360U 13058A   26274.55129546 -.00000018  00000+0  00000+0 0  9994
2 39360   0.0185 245.3478 0001245  24.6754 182.4154  1.00270155 47131
RADUGA-1M 3             
1 39375U 13062A   26274.61747047  .00000152  00000+0  00000+0 0  9992
2 39375   6.2260  70.9768 0001887 285.1047 271.5344  1.00272973 47179
SES-8                   
1 39460U 13071A   26274.34420924 -.00000272  00000+0  00000+0 0  9993
2 39460   0.0319 297.4693 0001664 218.9877  72.5691  1.00275280 45493
INMARSAT 5-F1           
1 39476U 13073A   26274.48036319  .00000000  00000+0  00000+0 0  9996
2 39476   0.0166 168.5525 0000764  41.6801  35.5262  1.00266382 46644
TKSAT-1 (TUPAC KATARI)  
1 39481U 13075A   26274.45966153 -.00000197  00000+0  00000+0 0  9997
2 39481   0.0531  51.8070 0002088 135.2423 261.4588  1.00271876 46663
EXPRESS-AM5             
1 39487U 13077A   26274.63827057 -.00000282  00000+0  00000+0 0  9999
2 39487   0.0244 250.4299 0001999 250.8566 238.9141  1.00273803 47423
GSAT-14                 
1 39498U 14001A   26274.62518384 -.00000080  00000+0  00000+0 0  9994
2 39498   0.0259 101.1055 0006098 127.0201  81.3368  1.00271603 46447
THAICOM 6               
1 39500U 14002A   26274.58018937 -.00000124  00000+0  00000+0 0  9992
2 39500   0.0537 111.4486 0003291  61.6431 124.6439  1.00270216 46520
TDRS 12                 
1 39504U 14004A   26274.24601545 -.00000270  00000+0  00000+0 0  9996
2 39504   4.0905  20.6875 0006653 222.9251 173.8373  1.00278019 45348
ABS-2                   
1 39508U 14006A   26274.57786919 -.00000089  00000+0  00000+0 0  9995
2 39508   0.0338  84.6177 0003566 109.9105  98.7591  1.00271533 46347
ATHENA-FIDUS            
1 39509U 14006B   26274.47550984  .00000152  00000+0  00000+0 0  9996
2 39509   0.0107 201.5527 0001718  15.6386   2.0353  1.00273838 46155
TURKSAT 4A              
1 39522U 14007A   26274.61885715  .00000143  00000+0  00000+0 0  9991
2 39522   0.0604 290.1325 0004315 320.5527  24.4545  1.00271322 46037
EXPRESS-AT1             
1 39612U 14010A   26274.53791596 -.00000126  00000+0  00000+0 0  9991
2 39612   0.5238  84.1456 0004871  92.7199 104.8203  1.00314464 45882
EXPRESS-AT2             
1 39613U 14010B   26274.62444322  .00000075  00000+0  00000+0 0  9996
2 39613   0.0183 216.1189 0000395 279.6374 155.4175  1.00272819 45567
AMAZONAS 4A             
1 39616U 14011A   26274.46194118 -.00000255  00000+0  00000+0 0  9998
2 39616   0.0559 201.9893 0006604 355.7962 264.7504  1.00271271 45773
ASTRA 5B                
1 39617U 14011B   26274.25875552  .00000135  00000+0  00000+0 0  9990
2 39617   0.0849 300.2099 0003518 271.0104 275.4370  1.00271139 45735
IRNSS-1B                
1 39635U 14017A   26274.47888985  .00000108  00000+0  00000+0 0  9994
2 39635  28.7451 238.5781 0019588 191.5696 167.5751  1.00275866 45856
LUCH-5V                 
1 39727U 14023A   26274.58717976 -.00000271  00000+0  00000+0 0  9998
2 39727   5.3924  68.5667 0002881 158.0198  89.8903  1.00273850 45420
KAZSAT-3                
1 39728U 14023B   26274.10059635  .00000059  00000+0  00000+0 0  9991
2 39728   0.0154 248.1111 0000292 292.5437 283.9386  1.00272154 43529
EUTELSAT 3B             
1 39773U 14030A   26274.61114378  .00000017  00000+0  00000+0 0  9995
2 39773   0.0653 355.3020 0004532 196.0995  42.0890  1.00272919 45133
ASIASAT 8 (AMOS-7)      
1 40107U 14046A   26274.59901050 -.00000336  00000+0  00000+0 0  9998
2 40107   0.0449  78.8679 0001787 122.1018 130.3369  1.00272738103216
ASIASAT 6               
1 40141U 14052A   26274.78022377 -.00000366  00000+0  00000+0 0  9993
2 40141   0.0300  82.9604 0000897 104.2862 224.0765  1.00270025 44147
OPTUS 10                
1 40146U 14054A   26274.39559199 -.00000149  00000+0  00000+0 0  9993
2 40146   0.0877 309.4060 0002180 236.0753 123.0912  1.00271984 44095
MEASAT-3B               
1 40147U 14054B   26274.58880887 -.00000245  00000+0  00000+0 0  9993
2 40147   0.0463  44.1770 0000877  81.3696 188.2623  1.00272838 43984
HIMAWARI-8              
1 40267U 14060A   26274.35330927 -.00000278  00000+0  00000+0 0  9999
2 40267   0.0024 132.6984 0001391  96.7286  48.5099  1.00267862 43826
IRNSS-1C                
1 40269U 14061A   26274.62391166 -.00000161  00000+0  00000+0 0  9995
2 40269   6.7835  86.8821 0019578  10.6171 220.3842  1.00268208 43758
INTELSAT 30 (IS-30)     
1 40271U 14062A   26274.06478271 -.00000151  00000+0  00000+0 0  9999
2 40271   0.0128 111.5670 0001080 287.1053 259.4305  1.00269785  7859
ARSAT 1                 
1 40272U 14062B   26274.46188028 -.00000262  00000+0  00000+0 0  9995
2 40272   0.0412 281.5069 0001808 275.0349 268.1466  1.00270784 43696
EUTELSAT 53A            
1 40277U 14064A   26274.78537501  .00000094  00000+0  00000+0 0  9993
2 40277   0.0184 213.4868 0002175 350.3698 142.4101  1.00270717 42639
GSAT-16                 
1 40332U 14078A   26274.62444262  .00000082  00000+0  00000+0 0  9991
2 40332   0.0348  91.7592 0004789  30.7845 167.7134  1.00272957 43185
DIRECTV 14              
1 40333U 14078B   26274.59086369 -.00000128  00000+0  00000+0 0  9990
2 40333   0.0134 266.4168 0000764 201.5271  15.8781  1.00270307 43110
YAMAL 401               
1 40345U 14082A   26274.77528127 -.00000232  00000+0  00000+0 0  9997
2 40345   0.0138 228.0932 0000704  32.3387 119.1540  1.00272300 42982
ASTRA 2G                
1 40364U 14089A   26274.20669840  .00000149  00000+0  00000+0 0  9997
2 40364   0.0621  17.4459 0001815  84.1542  10.9620  1.00273356 43032
FENGYUN 2G              
1 40367U 14090A   26274.78287457 -.00000303  00000+0  00000+0 0  9998
2 40367   5.9013  71.4684 0004382 186.0311 134.5139  1.00265981 43068
MUOS-3                  
1 40374U 15002A   26274.25095547 -.00000128  00000+0  00000+0 0  9994
2 40374   4.7253  43.8307 0058632 179.5922 221.4890  1.00272574 42656
INMARSAT 5-F2           
1 40384U 15005A   26274.02942153 -.00000286  00000+0  00000+0 0  9992
2 40384   0.0198 156.6973 0001144  26.4279 142.1985  1.00272663 42054
ABS-3A                  
1 40424U 15010A   26274.28586502 -.00000028  00000+0  00000+0 0  9997
2 40424   0.0090 188.6190 0001917 296.5026 344.8067  1.00271261 42442
EUTELSAT 115 WEST B     
1 40425U 15010B   26274.55059610 -.00000028  00000+0  00000+0 0  9993
2 40425   0.0110  52.5440 0000410  48.0546 353.0179  1.00273203 42452
EXPRESS-AM7             
1 40505U 15012A   26274.26204887  .00000149  00000+0  00000+0 0  9993
2 40505   0.0165 246.6508 0003479 314.7531 302.9790  1.00274522 42072
BEIDOU-3S IGSO-1S       
1 40549U 15019A   26274.48755715 -.00000164  00000+0  00000+0 0  9991
2 40549  48.9942 294.1709 0039204 201.6534 146.5266  1.00284534 42138
THOR 7                  
1 40613U 15022A   26274.61045045 -.00000011  00000+0  00000+0 0  9991
2 40613   0.0187 175.6357 0002899  22.8651  30.9666  1.00271004 41884
TURKMENALEM52E/MONACOSAT
1 40617U 15023A   26274.47828318  .00000101  00000+0  00000+0 0  9991
2 40617   0.0171 150.7048 0003116  52.8655  30.9008  1.00274266 41919
DIRECTV 15              
1 40663U 15026A   26274.54643289 -.00000105  00000+0  00000+0 0  9990
2 40663   0.0285  96.1593 0000275 176.8846 191.0951  1.00270718 41538
SKY MEXICO-1            
1 40664U 15026B   26274.46272969 -.00000237  00000+0  00000+0 0  9991
2 40664   0.0225 261.3470 0002324 299.0877 257.5638  1.00273668 41517
METEOSAT-11 (MSG-4)     
1 40732U 15034A   26274.61244380  .00000062  00000+0  00000+0 0  9994
2 40732   3.4629  70.3304 0000486  87.9568  82.0190  1.00278318  8288
STAR ONE C4             
1 40733U 15034B   26274.46351840 -.00000267  00000+0  00000+0 0  9996
2 40733   0.0436  15.8787 0001048 179.9259 271.2945  1.00272600 41084
WGS F7 (USA 263)        
1 40746U 15036A   26274.55168674  .00000015  00000+0  00000+0 0  9993
2 40746   0.0180 185.0934 0000462  87.9504 110.9039  1.00270921 40938
INTELSAT 34 (IS-34)     
1 40874U 15039A   26274.17190215 -.00000287  00000+0  00000+0 0  9994
2 40874   0.0248 302.7889 0000099 285.9041 147.6389  1.00270532 40690
EUTELSAT 8 WEST B       
1 40875U 15039B   26274.32384248 -.00000067  00000+0  00000+0 0  9999
2 40875   0.0671   1.1774 0003597 188.4248 289.0502  1.00271713 40720
GSAT-6                  
1 40880U 15041A   26274.62691719 -.00000163  00000+0  00000+0 0  9992
2 40880   2.1876  81.1226 0002924 111.2891 126.1913  1.00271703 40666
INMARSAT 5-F3           
1 40882U 15042A   26274.59271464  .00000047  00000+0  00000+0 0  9992
2 40882   0.0172 163.9019 0001309 208.6731  30.7186  1.00271062 40630
MUOS-4                  
1 40887U 15044A   26274.61871084 -.00000094  00000+0  00000+0 0  9999
2 40887   4.5302  42.7019 0051958   2.8420 262.5456  1.00271453 40625
TJS-1                   
1 40892U 15046A   26274.65463889 -.00000159  00000+0  00000+0 0  9993
2 40892   0.5909  83.6971 0003058  95.2741 222.1229  1.00270311 40634
EXPRESS-AM8             
1 40895U 15048A   26274.60767711 -.00000114  00000+0  00000+0 0  9995
2 40895   0.0150 233.0577 0000107 299.4779  42.5919  1.00271209 40417
BEIDOU-3S IGSO-2S       
1 40938U 15053A   26272.91902356 -.00000128  00000+0  00000+0 0  9992
2 40938  49.0687 257.5269 0065676 192.3947 345.8674  1.00280188 40404
SKY MUSTER 1 (NBN1A)    
1 40940U 15054A   26274.42446293 -.00000281  00000+0  00000+0 0  9997
2 40940   0.0181 213.9075 0001907 339.8832 109.4358  1.00269768 40327
ARSAT 2                 
1 40941U 15054B   26274.46042750 -.00000227  00000+0  00000+0 0  9992
2 40941   0.0400 277.3587 0002061 278.0161 259.5931  1.00270646 40360
MORELOS 3               
1 40946U 15056A   26274.58817701 -.00000045  00000+0  00000+0 0  9996
2 40946   3.2858  17.6408 0003345 179.6188 271.7156  1.00271759 40355
APSTAR-9                
1 40982U 15059A   26274.63861723 -.00000269  00000+0  00000+0 0  9996
2 40982   0.0398 308.5853 0002934 245.3168 188.3983  1.00271012 40170
TURKSAT 4B              
1 40984U 15060A   26274.12146193  .00000114  00000+0  00000+0 0  9999
2 40984   0.0172 154.3004 0001944  41.0870 268.1872  1.00269209 40166
ZHONGXING-2C            
1 41021U 15063A   26274.59755052 -.00000327  00000+0  00000+0 0  9993
2 41021   0.5401  86.2052 0009900 123.2391 119.4863  1.00271691 40049
GSAT-15                 
1 41028U 15065A   26274.62908385 -.00000261  00000+0  00000+0 0  9992
2 41028   0.0109 126.2683 0002124  63.8016 140.2955  1.00271279 39869
BADR-7 (ARABSAT-6B)     
1 41029U 15065B   26274.61573714  .00000142  00000+0  00000+0 0  9993
2 41029   0.0265 221.4145 0007043   5.3078  31.2996  1.00272196 39838
LAOSAT 1                
1 41034U 15067A   26274.60783035 -.00000346  00000+0  00000+0 0  9996
2 41034   0.0528  34.8009 0002044 103.1941 219.7118  1.00271593 39922
TELSTAR 12V             
1 41036U 15068A   26274.32245580 -.00000120  00000+0  00000+0 0  9996
2 41036   0.0182 248.3619 0002510 312.2640 270.5483  1.00271733 39696
ELEKTRO-L 2             
1 41105U 15074A   26273.25333978 -.00000113  00000+0  00000+0 0  9992
2 41105   6.9509  69.1854 0002424 192.0357 184.4928  1.00271341 39562
COSMOS 2513             
1 41121U 15075A   26274.48102932 -.00000141  00000+0  00000+0 0  9992
2 41121   0.0507 100.2141 0002089 130.0890  33.3640  1.00271137 39612
EXPRESS-AMU1            
1 41191U 15082A   26274.47516317  .00000000  00000+0  00000+0 0  9995
2 41191   0.0177 169.9245 0002682  38.8891   8.5346  1.00271096 39334
GAOFEN-4                
1 41194U 15083A   26274.59901067 -.00000338  00000+0  00000+0 0  9997
2 41194   0.6249  83.0344 0003455 143.1568 105.4992  1.00273869 39591
BELINTERSAT-1           
1 41238U 16001A   26274.47819652  .00000104  00000+0  00000+0 0  9992
2 41238   0.0329 272.8792 0000306 126.3431 194.6718  1.00274550 39305
IRNSS-1E                
1 41241U 16003A   26273.86355804 -.00000291  00000+0  00000+0 0  9992
2 41241  33.4650  58.2246 0021865 181.5958 192.3994  1.00268211 39146
EUTELSAT 9B             
1 41310U 16005A   26274.32722249  .00000060  00000+0  00000+0 0  9997
2 41310   0.0519  56.9656 0003295 166.7380 273.1871  1.00269500 39186
SES-9                   
1 41380U 16013A   26274.60023922 -.00000348  00000+0  00000+0 0  9996
2 41380   0.0067 151.8029 0001466 357.6456 185.2915  1.00271179 38505
EUTELSAT 65 WEST A      
1 41382U 16014A   26274.46320708 -.00000279  00000+0  00000+0 0  9998
2 41382   0.0850 303.7870 0002342 250.4123 277.5894  1.00271471 38599
IRNSS-1F                
1 41384U 16015A   26274.11799525  .00000158  00000+0  00000+0 0  9995
2 41384   5.6099  94.3420 0020684 172.9058 177.5501  1.00266500 38721
BEIDOU-2 IGSO-6         
1 41434U 16021A   26273.79712806 -.00000158  00000+0  00000+0 0  9999
2 41434  60.3798  36.9990 0062207 228.6818 127.4669  1.00278381 38533
IRNSS-1G                
1 41469U 16027A   26274.50430229 -.00000335  00000+0  00000+0 0  9996
2 41469   5.4543  94.9949 0002475  47.5238 178.8259  1.00272229 38240
JCSAT-2B                
1 41471U 16028A   26274.52336387 -.00000168  00000+0  00000+0 0  9996
2 41471   0.0174 168.9543 0001535  35.2561 148.4854  1.00270916 38194
THAICOM 8               
1 41552U 16031A   26274.58018937 -.00000125  00000+0  00000+0 0  9997
2 41552   0.0862  38.9640 0000434 115.4901 143.2495  1.00273199 37782
INTELSAT 31 (IS-31)     
1 41581U 16035A   26274.45574486 -.00000153  00000+0  00000+0 0  9996
2 41581   0.0119 219.1011 0002121  17.5437 202.5881  1.00270417 37749
BEIDOU-2 G7             
1 41586U 16037A   26274.60134736 -.00000356  00000+0  00000+0 0  9995
2 41586   1.9785  69.7021 0004843 348.2854 279.3528  1.00276089  7954
ABS-2A (MONGOLSAT-1)    
1 41588U 16038A   26274.54938551  .00000000  00000+0  00000+0 0  9993
2 41588   0.0171 216.1217 0001505 295.9787 130.7022  1.00269461 37773
EUTELSAT 117 WEST B     
1 41589U 16038B   26274.58739701 -.00000015  00000+0  00000+0 0  9991
2 41589   0.0195  44.1586 0000424  49.0097  11.6162  1.00271932 37733
BRISAT                  
1 41591U 16039A   26274.48169638 -.00000199  00000+0  00000+0 0  9993
2 41591   0.0169 230.3210 0002248 321.2387 142.5882  1.00270951 37679
ECHOSTAR 18             
1 41592U 16039B   26274.46417044  .00000000  00000+0  00000+0 0  9999
2 41592   0.0181 178.3196 0001683  22.5738 275.0587  1.00270031 37696
MUOS-5                  
1 41622U 16041A   26274.58286692 -.00000134  00000+0  00000+0 0  9991
2 41622   1.9876 304.1648 0204656 261.0439 269.9409  1.00269926 38153
TIANTONG-1 1            
1 41725U 16048A   26274.59616837 -.00000319  00000+0  00000+0 0  9996
2 41725   4.0555  44.0859 0001319  99.6128 182.6813  1.00272561 37338
JCSAT-16                
1 41729U 16050A   26274.49648325 -.00000253  00000+0  00000+0 0  9996
2 41729   0.0176 189.0919 0001249  25.4139 118.4398  1.00271062 37144
USA 270                 
1 41744U 16052A   26273.80994308 -.00000350  00000+0  00000+0 0  9992
2 41744   4.4619  75.7866 0008426 118.9825 232.3809  1.00261959 29189
USA 271                 
1 41745U 16052B   26273.32362675 -.00000229  00000+0  00000+0 0  9991
2 41745   4.4351  75.8722 0003071 175.8896 214.3709  0.99064640 28976
INTELSAT 36 (IS-36)     
1 41747U 16053A   26274.57453660 -.00000027  00000+0  00000+0 0  9993
2 41747   0.0021 142.7234 0001955 195.9022 307.0211  1.00270238 37028
INSAT-3DR               
1 41752U 16054A   26274.62518384 -.00000080  00000+0  00000+0 0  9990
2 41752   0.0768  87.4035 0012537 177.0790  44.9645  1.00270841 36888
GSAT-18                 
1 41793U 16060A   26273.05703897 -.00000074  00000+0  00000+0 0  9996
2 41793   0.0477  89.2205 0002129  43.7710 330.3198  1.00271047 36587
SKY MUSTER 2 (NBN1B)    
1 41794U 16060B   26274.42541626 -.00000246  00000+0  00000+0 0  9990
2 41794   0.0159 222.7815 0001689 331.2580 114.1030  1.00270705 36589
HIMAWARI-9              
1 41836U 16064A   26272.99142235 -.00000271  00000+0  00000+0 0  9992
2 41836   0.0105  72.2386 0002065 171.6417 262.5744  1.00273774 36266
SHIJIAN-17 (SJ-17)      
1 41838U 16065A   26272.71527302 -.00000060  00000+0  00000+0 0  9993
2 41838   6.0116  71.2887 0001652  96.3525 180.4509  0.99851251 36249
GOES 16                 
1 41866U 16071A   26274.61451617 -.00000094  00000+0  00000+0 0  9994
2 41866   0.5976  84.0380 0002277 146.5604 256.3000  1.00270988 36179
TIANLIAN 1-04           
1 41869U 16072A   26274.65884924  .00000028  00000+0  00000+0 0  9999
2 41869   1.1357  81.8650 0047419  98.2286 244.3450  1.00269702 36362
WGS F8 (USA 272)        
1 41879U 16075A   26274.48169638 -.00000205  00000+0  00000+0 0  9990
2 41879   0.0114 124.7929 0000035 239.9131 328.7390  1.00271722 35885
FENGYUN 4A              
1 41882U 16077A   26274.50162943 -.00000360  00000+0  00000+0 0  9993
2 41882   2.5833  78.9069 0008924 167.4658  67.5681  1.00267860 35994
ECHOSTAR 19             
1 41893U 16079A   26273.16580608 -.00000136  00000+0  00000+0 0  9991
2 41893   0.0131 192.7579 0001698   1.1592 137.6206  1.00270659 35759
JCSAT-110A (JCSAT-15)   
1 41903U 16082A   26273.92333174 -.00000351  00000+0  00000+0 0  9994
2 41903   0.0181 197.2090 0000756  32.9097 222.0431  1.00270319 35819
STAR ONE D1             
1 41904U 16082B   26274.45856874 -.00000213  00000+0  00000+0 0  9998
2 41904   0.0179 128.4831 0002134  57.6986 265.1310  1.00271570 35835
TJS-2                   
1 41911U 17001A   26274.57433691 -.00000009  00000+0  00000+0 0  9992
2 41911   1.1004  83.6214 0002239 165.6210  34.4075  1.00270112 35785
SBIRS GEO-4 (USA 273)   
1 41937U 17004A   26274.27405985 -.00000167  00000+0  00000+0 0  9990
2 41937   2.4505  45.6502 0001968 146.1845 255.6628  1.00271161 35660
HISPASAT 36W-1          
1 41942U 17006A   26274.24705546 -.00000246  00000+0  00000+0 0  9999
2 41942   0.0159   5.9393 0001059 176.2411 240.7743  1.00271516 35304
TELKOM 3S               
1 41944U 17007A   26274.63660618 -.00000366  00000+0  00000+0 0  9998
2 41944   0.0173 173.0082 0002540  34.0190 150.5317  1.00269245 35205
INTELSAT 32E (IS-32E)   
1 41945U 17007B   26274.31690911 -.00000271  00000+0  00000+0 0  9998
2 41945   0.0186 210.5490 0000244  12.3290 218.1032  1.00269303 35287
ECHOSTAR 23             
1 42070U 17014A   26272.92336457  .00000000  00000+0  00000+0 0  9992
2 42070   0.0180 179.6134 0002089  12.4300  39.1504  1.00270784 34978
WGS F9 (USA 275)        
1 42075U 17016A   26274.26850238  .00000000  00000+0  00000+0 0  9996
2 42075   0.0185 216.9788 0000409  50.9517 186.7310  1.00267256 34951
SES-10                  
1 42432U 17017A   26274.46280897 -.00000275  00000+0  00000+0 0  9999
2 42432   0.0066 145.5082 0002803  57.0656 267.3605  1.00272355 34827
CHINASAT 16 (SJ-13)     
1 42662U 17018A   26274.77608454 -.00000356  00000+0  00000+0 0  9992
2 42662   0.0869  87.7053 0007337 144.6118 168.1460  1.00269591 34815
KOREASAT 7              
1 42691U 17023A   26274.60618662 -.00000365  00000+0  00000+0 0  9994
2 42691   0.0168  62.0658 0001053 153.4858 128.9204  1.00269976 34439
SGDC                    
1 42692U 17023B   26274.18033200 -.00000251  00000+0  00000+0 0  9991
2 42692   0.0316  73.6526 0002571 132.6312 153.7290  1.00271183 34464
GSAT-9                  
1 42695U 17024A   26274.59421744 -.00000289  00000+0  00000+0 0  9995
2 42695   0.0673  88.5669 0002672  94.5230 138.5329  1.00271146 34365
INMARSAT 5-F4           
1 42698U 17025A   26273.91542846  .00000000  00000+0  00000+0 0  9991
2 42698   0.0164 177.6291 0000757  49.9212 168.1636  1.00271352 34336
SES-15                  
1 42709U 17026A   26273.65836686  .00000061  00000+0  00000+0 0  9991
2 42709   0.0393 336.2314 0000549 237.9038 263.1393  1.00268773  8493
QZS-2 (MICHIBIKI-2)     
1 42738U 17028A   26272.49186332 -.00000159  00000+0  00000+0 0  9991
2 42738  39.2776 241.6191 0748172 270.6506 173.7461  1.00256861  8678
VIASAT-2                
1 42740U 17029A   26273.95523454 -.00000266  00000+0  00000+0 0  9996
2 42740   0.0167 243.3056 0001452 289.6782 110.6836  1.00272682 34257
EUTELSAT 172B           
1 42741U 17029B   26273.86056108 -.00000006  00000+0  00000+0 0  9996
2 42741   0.0234 144.7246 0000119  85.4444 261.2682  1.00271064 34811
GSAT-19                 
1 42747U 17031A   26272.98051198  .00000128  00000+0  00000+0 0  9995
2 42747   0.0662  88.1088 0002810  50.2021 271.2804  1.00272341 34195
ECHOSTAR 21             
1 42749U 17032A   26274.25738961  .00000065  00000+0  00000+0 0  9990
2 42749   1.7872   2.4502 0002486 189.5898 280.8967  1.00271679 34161
BULGARIASAT-1           
1 42801U 17038A   26274.32583582  .00000010  00000+0  00000+0 0  9990
2 42801   0.0402  95.3924 0002649  97.3996 296.4931  1.00272629 33918
HELLAS-SAT 3            
1 42814U 17040A   26273.90668052  .00000152  00000+0  00000+0 0  9993
2 42814   0.0606  27.3905 0000973  95.1937 252.5051  1.00267847 33867
GSAT-17                 
1 42815U 17040B   26274.41518956 -.00000260  00000+0  00000+0 0  9999
2 42815   0.0500  86.8367 0005299 162.1593   4.1361  1.00271777 33853
INTELSAT 35E (IS-35E)   
1 42818U 17041A   26274.46112310 -.00000240  00000+0  00000+0 0  9990
2 42818   0.0168 152.4345 0002210  47.1956 302.0897  1.00270984 33883
COSMOS 2520             
1 42907U 17046A   26273.76683774  .00000137  00000+0  00000+0 0  9997
2 42907   0.0284 123.9483 0000228 174.9460  31.7060  1.00272956 33455
TDRS 13                 
1 42915U 17047A   26274.39447613 -.00000100  00000+0  00000+0 0  9998
2 42915   3.4916   5.2576 0012664 125.6347   9.8549  1.00271045 33414
QZS-3 (MICHIBIKI-3)     
1 42917U 17048A   26273.00808800 -.00000345  00000+0  00000+0 0  9998
2 42917   0.0617 211.1279 0001984 340.7088 306.7975  1.00271771 33317
AMAZONAS 5              
1 42934U 17053A   26272.38881078 -.00000278  00000+0  00000+0 0  9996
2 42934   0.0466 321.3720 0001989 272.9722 212.7957  1.00256662 33081
ASIASAT 9               
1 42942U 17057A   26274.70599649 -.00000363  00000+0  00000+0 0  9992
2 42942   0.0043 172.2248 0002435  14.4496 200.0530  1.00274755 32947
INTELSAT 37E (IS-37E)   
1 42950U 17059A   26273.96546125  .00000000  00000+0  00000+0 0  9998
2 42950   0.0168 173.0193 0002889  26.0318 140.2307  1.00270679 33126
BSAT-4A                 
1 42951U 17059B   26274.64838779 -.00000353  00000+0  00000+0 0  9996
2 42951   0.0596  37.7295 0000750  72.7743 243.1491  1.00270765 32869
QZS-4 (MICHIBIKI-4)     
1 42965U 17062A   26272.54442545 -.00000291  00000+0  00000+0 0  9995
2 42965  40.0392 342.1527 0750093 269.9642  92.6859  1.00269574 32853
SES-11 (ECHOSTAR 105)   
1 42967U 17063A   26274.58973703 -.00000092  00000+0  00000+0 0  9998
2 42967   0.0400 291.1460 0003000 255.0933 291.4640  1.00271382 32798
KOREASAT 5A             
1 42984U 17067A   26274.60292953 -.00000361  00000+0  00000+0 0  9994
2 42984   0.0174 237.1486 0001411 358.4362 104.9834  1.00270067 32591
ALCOMSAT 1              
1 43039U 17078A   26273.39391372 -.00000185  00000+0  00000+0 0  9992
2 43039   0.0536 310.0763 0001980 246.2519 289.8360  1.00269033 32355
SBIRS GEO-3 (USA 282)   
1 43162U 18009A   26274.57899030  .00000126  00000+0  00000+0 0  9993
2 43162   2.2743  16.7942 0002112 185.1381 217.4398  1.00271677 31917
AL YAH 3                
1 43174U 18012A   26274.32141580 -.00000156  00000+0  00000+0 0  9997
2 43174   1.8188  81.6433 0003666 113.9026 270.1587  1.00271605 31911
SES-14                  
1 43175U 18012B   26274.31604243 -.00000280  00000+0  00000+0 0  9995
2 43175   0.0357  32.4050 0001214 165.4269 238.5194  1.00271187  8087
GOES 17                 
1 43226U 18022A   26274.59268370 -.00000185  00000+0  00000+0 0  9994
2 43226   1.2043  83.8773 0001416 154.5891 255.7406  1.00269806 31498
HISPASAT 30W-6          
1 43228U 18023A   26273.67778029 -.00000215  00000+0  00000+0 0  9996
2 43228   0.0510  29.7678 0002675 136.2627  57.4262  1.00272333 31464
SUPERBIRD-B3            
1 43271U 18033A   26274.57097007 -.00000095  00000+0  00000+0 0  9991
2 43271   0.0187 106.2719 0001151 106.3674 165.2500  1.00271673 31129
HYLAS 4                 
1 43272U 18033B   26273.89114579 -.00000233  00000+0  00000+0 0  9994
2 43272   0.0823 269.2074 0001444 309.1902  78.5751  1.00271040 31125
IRNSS-1I                
1 43286U 18035A   26273.54776890  .00000091  00000+0  00000+0 0  9994
2 43286  28.9989  72.5565 0021223 177.4421  11.6428  1.00269068 31138
USA 283                 
1 43339U 18036A   26272.42746426  .00000000  00000+0  00000+0 0  9992
2 43339   0.0163 203.0759 0000091  72.9988  20.0874  1.00270528 26333
COSMOS 2526             
1 43432U 18037A   26274.60783041 -.00000347  00000+0  00000+0 0  9998
2 43432   0.0217 125.4119 0000424  74.3297 157.5016  1.00277123 31027
APSTAR-6C               
1 43450U 18041A   26272.88598800 -.00000314  00000+0  00000+0 0  9992
2 43450   0.0481 355.2246 0002231 244.5578 221.8625  1.00272110 30868
BANGABANDHUSAT-1        
1 43463U 18044A   26273.80733111 -.00000362  00000+0  00000+0 0  9991
2 43463   0.0144 209.7945 0002946 352.3930 217.1216  1.00270082 30769
SES-12                  
1 43488U 18049A   26274.48915448 -.00000272  00000+0  00000+0 0  9993
2 43488   0.0382  37.5886 0002219 206.5109  37.2479  1.00272644 30489
FENGYUN 2H              
1 43491U 18050A   26274.57797677 -.00000131  00000+0  00000+0 0  9995
2 43491   3.2967  77.7166 0003039 154.1803  65.8026  1.00270413 30504
BEIDOU-2 IGSO-7         
1 43539U 18057A   26274.60375925 -.00000113  00000+0  00000+0 0  9997
2 43539  55.2111 162.1485 0107892 236.2761 301.8560  1.00271349 30195
TELSTAR 19V             
1 43562U 18059A   26274.45548975 -.00000282  00000+0  00000+0 0  9992
2 43562   0.0152 187.3669 0002588   6.4251 277.3872  1.00269965 30211
TELKOM 4 (MERAH PUTIH)  
1 43587U 18064A   26274.60023920 -.00000347  00000+0  00000+0 0  9992
2 43587   0.0179 164.2365 0001741  60.7991 109.4005  1.00269397 29948
TELSTAR 18V             
1 43611U 18069A   26274.63783723 -.00000297  00000+0  00000+0 0  9996
2 43611   0.0173 252.1944 0002076 304.8883 180.9351  1.00270216 29708
AZERSPACE 2 (IS-38)     
1 43632U 18074A   26274.20114350  .00000135  00000+0  00000+0 0  9992
2 43632   0.0184 152.9807 0001392  50.8333 283.6716  1.00271363 29515
HORIZONS-3E             
1 43633U 18074B   26273.37267123 -.00000029  00000+0  00000+0 0  9990
2 43633   0.0132 188.2850 0000860  15.4404 108.5931  1.00270634 29394
AEHF-4 (USA 288)        
1 43651U 18079A   26274.46281243 -.00000277  00000+0  00000+0 0  9990
2 43651   1.4239 359.4855 0068485 358.2091 111.6324  1.00272017 29366
BEIDOU-3 G1             
1 43683U 18085A   26274.58839505 -.00000110  00000+0  00000+0 0  9991
2 43683   2.6558  94.3615 0005261  27.7145 260.1498  1.00271000 29125
GSAT-29                 
1 43698U 18089A   26274.62444323  .00000000  00000+0  00000+0 0  9993
2 43698   0.0155 176.0762 0002541  30.9733  83.1252  1.00271104 28859
ES'HAIL 2               
1 43700U 18090A   26274.20669840  .00000143  00000+0  00000+0 0  9994
2 43700   0.0124 237.4244 0001266 334.5555 258.1863  1.00272059 28744
GEO-KOMPSAT-2A          
1 43823U 18100A   26272.49757792 -.00000340  00000+0  00000+0 0  9995
2 43823   0.0465  30.1127 0001412  99.9475 185.6193  1.00271264 28671
GSAT-11                 
1 43824U 18100B   26274.62518384 -.00000080  00000+0  00000+0 0  9996
2 43824   0.0332 264.4398 0005715 221.8465 183.1485  1.00271355 28546
GSAT-7A                 
1 43864U 18105A   26274.62441741  .00000024  00000+0  00000+0 0  9994
2 43864   0.0713  84.9829 0002470 117.4709  95.4760  1.00271259 28514
COSMOS 2533             
1 43867U 18107A   26274.57688654 -.00000041  00000+0  00000+0 0  9999
2 43867   0.0164 136.7092 0000295  81.0084  70.3146  1.00270820 28513
TJS-3                   
1 43874U 18110A   26274.77321470  .00000017  00000+0  00000+0 0  9995
2 43874   2.8122  79.0873 0003228  30.6222 354.6367  1.00268386 28498
ZHONGXING-2D            
1 43920U 19001A   26274.50399532 -.00000339  00000+0  00000+0 0  9990
2 43920   0.0503  34.5062 0001833 259.3000  27.9168  1.00270381 55142
HELLAS-SAT 4 & SGS-1    
1 44034U 19007A   26273.90667976  .00000152  00000+0  00000+0 0  9998
2 44034   0.0635 130.4355 0005844  30.6028 214.0312  1.00267818 28435
GSAT-31                 
1 44035U 19007B   26274.47750318  .00000123  00000+0  00000+0 0  9993
2 44035   0.0453  81.4594 0005332 156.4206 352.1283  1.00270047 28036
NUSANTARA SATU          
1 44048U 19009A   26273.49900400 -.00000233  00000+0  00000+0 0  9992
2 44048   0.0249 146.3105 0004315  12.7849 175.8225  1.00270431 27828
ZHONGXING-6C            
1 44067U 19012A   26274.50399528 -.00000337  00000+0  00000+0 0  9998
2 44067   0.0709 289.8029 0013157 135.3477 256.9904  1.00273508 27802
WGS 10 (USA 291)        
1 44071U 19014A   26273.75448846  .00000047  00000+0  00000+0 0  9996
2 44071   0.0043 205.1870 0000271  54.4726  81.7834  1.00273425 27673
TIANLIAN 2-01           
1 44076U 19017A   26274.59316956 -.00000109  00000+0  00000+0 0  9993
2 44076   0.8073  82.2808 0003852 139.2907  79.3246  1.00271110 27719
ARABSAT-6A              
1 44186U 19021A   26274.61660381  .00000151  00000+0  00000+0 0  9993
2 44186   0.0508 359.8698 0003966 262.0162   0.9843  1.00270759 27227
BEIDOU-3 IGSO-1         
1 44204U 19023A   26273.73633801 -.00000211  00000+0  00000+0 0  9993
2 44204  58.8455  36.5728 0028087 224.1379 131.8743  1.00260446  8261
BEIDOU-2 G8             
1 44231U 19027A   26274.65078743 -.00000249  00000+0  00000+0 0  9998
2 44231   1.9207  74.2057 0008822 276.2206  38.7606  1.00275357 27149
YAMAL 601               
1 44307U 19031A   26274.54338727  .00000117  00000+0  00000+0 0  9999
2 44307   0.0175 209.8374 0002505 345.3859  59.7004  1.00272519 26993
AT&T T-16               
1 44333U 19034A   26274.47969134 -.00000118  00000+0  00000+0 0  9997
2 44333   0.0156 114.0077 0000300 257.4270  70.6356  1.00270028 26691
EUTELSAT 7C             
1 44334U 19034B   26274.25738961  .00000046  00000+0  00000+0 0  9995
2 44334   0.0665 184.6280 0002960 350.7881 294.2548  1.00266334  7898
BEIDOU-3 IGSO-2         
1 44337U 19035A   26274.60460439 -.00000125  00000+0  00000+0 0  9999
2 44337  55.2494 157.9278 0038760 210.3373 339.2936  1.00267187 26739
COSMOS 2539             
1 44457U 19048A   26274.32782916  .00000079  00000+0  00000+0 0  9999
2 44457   0.0167 130.6487 0000152 230.2275 139.2219  1.00269651 26294
EDRS-C                  
1 44475U 19049A   26274.63879057 -.00000265  00000+0  00000+0 0  9995
2 44475   0.0218 226.3511 0001175 342.4888 174.0074  1.00269977 26279
INTELSAT 39 (IS-39)     
1 44476U 19049B   26274.05256163  .00000033  00000+0  00000+0 0  9991
2 44476   0.0170 220.9729 0000577 256.1980 333.5103  1.00270787 26183
AMOS-17                 
1 44479U 19050A   26274.25754218  .00000108  00000+0  00000+0 0  9995
2 44479   0.0390 333.7006 0002030 224.7975 281.2611  1.00274596 26255
AEHF-5 (USA 292)        
1 44481U 19051A   26274.61733471 -.00000261  00000+0  00000+0 0  9998
2 44481   1.3851 345.1270 0029245   7.5952 332.8887  1.00275618 26325
EUTELSAT 5 WEST B       
1 44624U 19067A   26274.39568947 -.00000044  00000+0  00000+0 0  9992
2 44624   0.0648 359.3208 0003259 195.3376 312.9423  1.00271490 25491
MEV-1                   
1 44625U 19067B   26271.79498823  .00000084  00000+0  00000+0 0  9992
2 44625   0.7745 267.6611 0004331 345.9109 106.4090  0.99718111   475
TJS-4                   
1 44637U 19070A   26274.58498304 -.00000173  00000+0  00000+0 0  9993
2 44637   0.0897 286.4033 0004697  22.2045 355.8172  1.00271797 25605
BEIDOU-3 IGSO-3         
1 44709U 19073A   26273.42297128 -.00000168  00000+0  00000+0 0  9993
2 44709  54.6251 279.7496 0046553 198.5456 161.2828  1.00258026 25519
TIBA-1                  
1 44800U 19080A   26273.69095367  .00000156  00000+0  00000+0 0  9999
2 44800   0.0533 353.9142 0002609 208.5357  91.2955  1.00275819 25105
INMARSAT GX5            
1 44801U 19080B   26274.25738961  .00000073  00000+0  00000+0 0  9995
2 44801   0.0498  24.0073 0002095 189.5786 260.0862  1.00271314  7859
JCSAT-18 (KACIFIC 1)    
1 44868U 19091A   26274.48169638 -.00000203  00000+0  00000+0 0  9990
2 44868   0.0458 352.5642 0000524 262.1079  78.9746  1.00269938 25077
ELEKTRO-L 3             
1 44903U 19095A   26274.61409046 -.00000027  00000+0  00000+0 0  9993
2 44903   0.1052  69.7570 0002893  94.7727  84.6443  0.99414929 24778
SHIJIAN-20 (SJ-20)      
1 44910U 19097A   26272.55148483  .00000154  00000+0  00000+0 0  9999
2 44910   5.1799  73.7154 0003308 168.5682   4.8149  1.00269312 24745
TJS-5                   
1 44978U 20002A   26272.86736661 -.00000339  00000+0  00000+0 0  9992
2 44978   0.2558  82.7566 0006821 354.7365 350.9264  1.00271144 24755
GSAT-30                 
1 45026U 20005A   26274.48302556 -.00000168  00000+0  00000+0 0  9992
2 45026   0.0589  86.6409 0001547  72.5263 107.9530  1.00276148 24578
EUTELSAT KONNECT        
1 45027U 20005B   26274.61201046  .00000046  00000+0  00000+0 0  9994
2 45027   0.0666  96.3006 0001766 139.4991   2.1153  1.00268659 25408
JCSAT-17                
1 45245U 20013A   26274.50682127 -.00000318  00000+0  00000+0 0  9999
2 45245   5.3998 357.8508 0004495 193.6737 137.1810  1.00272435 24292
GEO-KOMPSAT-2B          
1 45246U 20013B   26273.87506433 -.00000344  00000+0  00000+0 0  9993
2 45246   0.0430 345.2071 0001926 250.5053 217.2122  1.00270655 24346
BEIDOU-3 G2             
1 45344U 20017A   26274.62639718 -.00000142  00000+0  00000+0 0  9999
2 45344   2.6197  48.6591 0002626 153.0410 114.2340  1.00272661 24321
AEHF-6 (USA 298)        
1 45465U 20022B   26274.63792390 -.00000302  00000+0  00000+0 0  9994
2 45465   2.3304 302.8022 0043513   9.0966  65.8774  1.00273842 24089
BEIDOU-3 G3             
1 45807U 20040A   26274.63246387 -.00000356  00000+0  00000+0 0  9993
2 45807   2.7026  67.3533 0003051 276.4727   4.8093  1.00269756 23133
APSTAR-6D               
1 45863U 20045A   26274.50388770 -.00000320  00000+0  00000+0 0  9990
2 45863   0.0478  96.2489 0002102 349.2490 240.1738  1.00269577 22928
KOREASAT 116            
1 45920U 20048A   26274.60618663 -.00000365  00000+0  00000+0 0  9994
2 45920   0.0177 231.6092 0001235 336.3190 136.8840  1.00271870 22703
EXPRESS 103             
1 45985U 20053A   26274.78055372 -.00000284  00000+0  00000+0 0  9992
2 45985   0.0291 255.3574 0000520 180.5251 312.1657  1.00271897 22717
EXPRESS 80              
1 45986U 20053B   26263.15064726 -.00000146  00000+0  00000+0 0  9992
2 45986   0.0271 170.2364 0064633  63.5597 259.7327  1.00286177 22599
BSAT-4B                 
1 46112U 20056A   26274.64911032 -.00000353  00000+0  00000+0 0  9994
2 46112   0.0441 115.7341 0003828  49.7637 188.4164  1.00271298 22459
MEV-2                   
1 46113U 20056B   26274.28586502 -.00000012  00000+0  00000+0 0  9997
2 46113   0.0188 244.4512 0000395  25.9670 201.5399  1.00271722 81642
GALAXY 30 (G-30)        
1 46114U 20056C   26274.50044619  .00000034  00000+0  00000+0 0  9994
2 46114   0.0163 226.1345 0002583 330.5463 228.7357  1.00271438 22355
GAOFEN-13 01            
1 46610U 20071A   26274.63689810 -.00000366  00000+0  00000+0 0  9993
2 46610   0.1734  80.4353 0056274 121.0772 156.5557  1.00274767 21989
TIANTONG-1 2            
1 46916U 20082A   26274.56399690 -.00000358  00000+0  00000+0 0  9991
2 46916   0.7008 345.3113 0001474 264.1711  88.8229  1.00270851 21713
LUCAS (JDRS-1)          
1 47202U 20089A   26274.64188709 -.00000239  00000+0  00000+0 0  9991
2 47202   0.0152 233.3876 0002638 338.7821 120.0889  1.00272037 21483
SXM-7                   
1 47240U 20096A   26273.12475093 -.00000203  00000+0  00000+0 0  9999
2 47240   0.0209 131.0187 0004384 358.5719 199.0698  1.00270796  8493
CMS-01                  
1 47256U 20099A   26274.62700385 -.00000168  00000+0  00000+0 0  9990
2 47256   0.0866  86.4890 0006047 169.1171  63.4952  1.00271633 21267
TURKSAT 5A              
1 47306U 21001A   26273.47616075  .00000156  00000+0  00000+0 0  9990
2 47306   0.0176 107.8361 0000336 168.8041 294.9533  1.00272967 21026
TIANTONG-1 3            
1 47321U 21003A   26274.62665718 -.00000158  00000+0  00000+0 0  9998
2 47321   1.6968 346.1196 0003745 223.5918 107.7936  1.00271048 21029
TJS-6                   
1 47613U 21010A   26274.61732903  .00000040  00000+0  00000+0 0  9999
2 47613   0.0241 134.7299 0003623  67.3637 209.0498  1.00268577 20876
SBIRS GEO-5 (USA 315)   
1 48618U 21042A   26274.63831999 -.00000272  00000+0  00000+0 0  9995
2 48618   4.9796 329.9701 0002126 235.3423 128.6636  1.00271086 19847
FENGYUN 4B              
1 48808U 21047A   26274.63125053 -.00000333  00000+0  00000+0 0  9996
2 48808   0.4155  80.9805 0008205 277.6941 343.6575  1.00270091 19638
SXM-8                   
1 48838U 21049A   26274.46009535 -.00000208  00000+0  00000+0 0  9999
2 48838   0.0409  39.1664 0005267 354.8633  56.6779  1.00270600 19643
TIANLIAN 1-05           
1 49011U 21063A   26274.04363492  .00000108  00000+0  00000+0 0  9996
2 49011   1.8596  79.5845 0004390 151.3253 171.4205  1.00269669 19133
STAR ONE D2             
1 49055U 21069A   26274.02647485  .00000000  00000+0  00000+0 0  9996
2 49055   0.0254 178.5225 0002655   4.1228 126.5717  1.00269097 19015
EUTELSAT QUANTUM        
1 49056U 21069B   26274.61998382  .00000123  00000+0  00000+0 0  9993
2 49056   0.0029 172.8014 0002423  26.8059  81.6625  1.00270244 18996
ZHONGXING-2E            
1 49062U 21071A   26272.56292487 -.00000287  00000+0  00000+0 0  9990
2 49062   0.0543 308.7502 0001434 285.0165  75.2681  1.00269206 19082
TJS-7                   
1 49115U 21077A   26274.59086369 -.00000127  00000+0  00000+0 0  9993
2 49115   0.0903 257.7408 0001742  82.6918 143.1848  1.00272012 10617
CHINASAT 9B             
1 49125U 21080A   26274.77317764 -.00000316  00000+0  00000+0 0  9994
2 49125   0.0089 211.8950 0003444 353.2283 185.1625  1.00271091 18713
SHIJIAN-21 (SJ-21)      
1 49330U 21094A   26274.78823279 -.00000349  00000+0  00000+0 0  9997
2 49330   5.3610  60.4505 0054372 173.6614 188.0643  1.00276184  6437
SES-17                  
1 49332U 21095A   26274.46281308 -.00000275  00000+0  00000+0 0  9994
2 49332   0.0393  21.3684 0001138 179.7081 268.6596  1.00269051 18924
SYRACUSE 4A             
1 49333U 21095B   26274.20114350  .00000134  00000+0  00000+0 0  9992
2 49333   0.0176 227.6086 0001539 314.5088 305.7625  1.00270227 19016
QZS-1R (MICHIBIKI-1R)   
1 49336U 21096A   26273.81807464 -.00000213  00000+0  00000+0 0  9996
2 49336  37.6813  78.0235 0744939 270.1521  90.6941  1.00281380 18072
ZHONGXING-1D            
1 49505U 21114A   26274.50399530 -.00000339  00000+0  00000+0 0  9991
2 49505   0.0413   0.5237 0001841 261.5182  59.8364  1.00270131 17883
STPSAT-6                
1 49817U 21118A   26274.54921030 -.00000047  00000+0  00000+0 0  9997
2 49817   0.5888  83.8871 0001514 197.1583 175.0447  1.00272157 17641
EXPRESS AMU-7           
1 50001U 21123A   26274.49674325 -.00000245  00000+0  00000+0 0  9996
2 50001   0.0233 252.0109 0000151 300.0051 142.0731  1.00271981 17602
EXPRESS AMU-3           
1 50002U 21123B   26273.68773781 -.00000321  00000+0  00000+0 0  9998
2 50002   0.0301 248.5365 0000577 199.9624 271.5348  1.00273768  8096
TIANLIAN 2-02           
1 50005U 21124A   26274.34975384 -.00000016  00000+0  00000+0 0  9990
2 50005   1.0687  84.2506 0004465 159.1328  63.6038  1.00271205 17683
TURKSAT 5B              
1 50212U 21126A   26274.61885715  .00000143  00000+0  00000+0 0  9990
2 50212   0.0769 337.5546 0002489 311.4635 346.1360  1.00271460 17364
INMARSAT 6-F1           
1 50319U 21128A   26274.58498299 -.00000176  00000+0  00000+0 0  9990
2 50319   0.0167 149.1077 0000191 257.7985 257.7724  1.00276428 17324
SHIYAN-12 01 (SY-12 01) 
1 50321U 21129A   26274.69247645  .00000054  00000+0  00000+0 0  9997
2 50321   3.9422  78.3926 0002507 177.4940  57.8717  1.00483291 17566
SHIYAN-12 02 (SY-12 02) 
1 50322U 21129B   26274.77755961 -.00000054  00000+0  00000+0 0  9993
2 50322   3.9407  78.3843 0004142 108.1457 266.5987  1.00439959 17570
TJS-9                   
1 50574U 21135A   26274.56642358 -.00000301  00000+0  00000+0 0  9996
2 50574   0.0559  88.0681 0005643 242.1197  21.2644  1.00272632 17490
GOES 18                 
1 51850U 22021A   26274.51660343  .00000094  00000+0  00000+0 0  9996
2 51850   0.0409  13.5998 0000741 246.3058 159.3415  1.00271529  7652
ZHONGXING-6D            
1 52255U 22038A   26273.62651485 -.00000353  00000+0  00000+0 0  9991
2 52255   0.0428 243.1824 0002857 343.3099 133.5112  1.00270068 16470
NILESAT 301             
1 52817U 22061A   26274.60915045 -.00000061  00000+0  00000+0 0  9991
2 52817   0.0605  13.0315 0001594 195.8433  13.7196  1.00271240 15809
CMS-02 (GSAT-24)        
1 52903U 22067A   26273.34390684 -.00000163  00000+0  00000+0 0  9992
2 52903   0.0296  98.9294 0002977 160.9239 316.0576  1.00272252 15661
MEASAT 3D               
1 52904U 22067B   26273.87567975 -.00000242  00000+0  00000+0 0  9998
2 52904   0.0473 322.9803 0002492 281.4808 171.9353  1.00270422 15701
SES-22                  
1 52933U 22071A   26274.51515480  .00000000  00000+0  00000+0 0  9992
2 52933   0.0139 163.5143 0001055  31.7900 221.4028  1.00269047  8580
WFOV (USA 332)          
1 52940U 22073A   26274.48358505 -.00000363  00000+0  00000+0 0  9994
2 52940   3.9767  77.0976 0002976 170.0114  56.5040  1.00268332 15436
TIANLIAN 2-03           
1 53100U 22078A   26274.25624218  .00000071  00000+0  00000+0 0  9995
2 53100   0.9364  77.8052 0001908 155.8704 239.1400  1.00272485 15611
SBIRS GEO-6 (USA 336)   
1 53355U 22092A   26274.49419633 -.00000295  00000+0  00000+0 0  9991
2 53355   3.0913 319.4145 0002016 239.0667 128.6734  1.00271011 15301
EUTELSAT KONNECT VHTS   
1 53765U 22110A   26274.26295003  .00000015  00000+0  00000+0 0  9994
2 53765   0.0565 101.7235 0002472  70.5317 295.1260  1.00267919  7907
ZHONGXING-1E            
1 53813U 22112A   26274.62665718 -.00000153  00000+0  00000+0 0  9998
2 53813   0.0332  14.9265 0003846 251.9563  50.5171  1.00270465 14918
SES-20                  
1 53960U 22123A   26274.06077395 -.00000102  00000+0  00000+0 0  9993
2 53960   0.0405  76.6188 0001519  45.7203 166.2735  1.00273010 14590
SES-21                  
1 53961U 22123B   26274.51860683  .00000066  00000+0  00000+0 0  9992
2 53961   0.0331  63.0079 0001227 112.8619 250.1051  1.00273777  8273
GALAXY 33 (G-33)        
1 54026U 22128A   26274.51782375  .00000076  00000+0  00000+0 0  9992
2 54026   0.0208 269.2276 0001949 282.8296 231.6382  1.00271934 14808
GALAXY 34 (G-34)        
1 54027U 22128B   26273.65836686  .00000059  00000+0  00000+0 0  9993
2 54027   0.0177 229.1551 0001480 316.2899 291.9964  1.00272921 14976
ANGOSAT 2               
1 54033U 22131A   26274.18741556  .00000000  00000+0  00000+0 0  9990
2 54033   0.0178 174.1641 0000312  88.6616 197.5608  1.00270845 14545
EUTELSAT HOTBIRD 13F    
1 54048U 22134A   26274.32800250  .00000085  00000+0  00000+0 0  9995
2 54048   0.0608 285.5302 0002025  67.9616 147.6665  1.00270992 14444
LDPE-2                  
1 54219U 22144A   26274.25199549 -.00000213  00000+0  00000+0 0  9994
2 54219   5.8520  62.6388 0000738 224.4001 162.8186  0.98891070 12903
EUTELSAT HOTBIRD 13G    
1 54225U 22146A   26274.32800250  .00000085  00000+0  00000+0 0  9995
2 54225   0.0487 236.2899 0002029 309.0965 315.7753  1.00271138  8533
ZHONGXING-19            
1 54230U 22148A   26274.66409032 -.00000085  00000+0  00000+0 0  9994
2 54230   0.0357 255.4672 0005103 298.7285 218.4605  1.00271279 14440
GALAXY 31 (G-31)        
1 54243U 22153A   26274.01633481  .00000012  00000+0  00000+0 0  9999
2 54243   0.0135 228.9077 0001434 336.4829  49.2844  1.00273216  8192
GALAXY 32 (G-32)        
1 54244U 22153B   26274.38072581 -.00000176  00000+0  00000+0 0  9990
2 54244   0.0073 178.9402 0000752  91.4965 145.7647  1.00270853 14207
EUTELSAT 10B            
1 54259U 22157A   26274.25738961  .00000067  00000+0  00000+0 0  9995
2 54259   0.0571  98.2086 0001194  31.2739 343.2227  1.00270310 14094
GALAXY 35 (G-35)        
1 54741U 22170A   26274.59207704 -.00000165  00000+0  00000+0 0  9999
2 54741   0.0192 238.5083 0002127 320.0841 291.7998  1.00271593 13966
GALAXY 36 (G-36)        
1 54742U 22170B   26274.59294370 -.00000188  00000+0  00000+0 0  9990
2 54742   0.0156 164.8985 0001581 340.4025 349.5092  1.00271491 13854
METEOSAT-12 (MTG-I1)    
1 54743U 22170C   26274.61045045 -.00000010  00000+0  00000+0 0  9991
2 54743   0.7509  21.8661 0003140  97.2503 110.6130  1.00274066 14041
SHIJIAN-23 (SJ-23)      
1 55131U 23002A   26274.79050654  .00000055  00000+0  00000+0 0  9997
2 55131   3.9848  76.9000 0003494 222.3548  59.8761  1.00025067 13570
APSTAR-6E               
1 55239U 23005A   26274.50388772 -.00000320  00000+0  00000+0 0  9999
2 55239   0.0200 225.8659 0004458 351.7817 108.0243  1.00270141 19765
USA 342                 
1 55263U 23008A   26272.19181660  .00000143  00000+0  00000+0 0  9991
2 55263   0.0113 237.6551 0000132  26.2045 196.9971  1.00272856 13560
ELEKTRO-L 4             
1 55506U 23016A   26274.51114029 -.00000061  00000+0  00000+0 0  9993
2 55506   0.0903  65.5971 0002232 133.4643 160.9551  1.00271310 13399
AMAZONAS NEXUS          
1 55508U 23017A   26274.46473834 -.00000285  00000+0  00000+0 0  9990
2 55508   0.0472  25.1693 0002115 131.0302 320.3313  1.00268942  8110
ZHONGXING-26            
1 55686U 23023A   26274.56399690 -.00000357  00000+0  00000+0 0  9992
2 55686   0.0604  64.0604 0001829  84.2582 190.0851  1.00266077 13299
LUCH-5X (OLYMP-K 2)     
1 55841U 23031A   26274.60667912  .00000030  00000+0  00000+0 0  9991
2 55841   0.0212 112.1406 0000999  20.1946 158.4011  1.00272641 13001
GAOFEN-13 02            
1 55912U 23036A   26274.68329238 -.00000221  00000+0  00000+0 0  9992
2 55912   1.0200  14.2540 0003835 295.3912  95.0134  1.00272127 13168
SES-18                  
1 55970U 23038A   26274.45339734 -.00000103  00000+0  00000+0 0  9994
2 55970   0.0297 270.0743 0002435 323.6886 196.5718  1.00271222 13164
SES-19                  
1 55971U 23038B   26274.58384366  .00000085  00000+0  00000+0 0  9998
2 55971   0.0312 278.5090 0001646 284.9580 242.1550  1.00270743 13152
INTELSAT 40E (IS-40E)   
1 56174U 23052A   26274.05942066 -.00000175  00000+0  00000+0 0  9990
2 56174   0.0086 214.9671 0002802 342.8143 102.4376  1.00270908 12885
VIASAT-3 F1             
1 56370U 23060A   26274.59294370 -.00000188  00000+0  00000+0 0  9998
2 56370   0.0198 236.9939 0000423 314.1176 303.7470  1.00271119 12508
ARCTURUS                
1 56371U 23060B   26274.63428388 -.00000364  00000+0  00000+0 0  9998
2 56371   3.0420  78.5509 0001189 199.7103  80.1951  1.00268510 12523
GS-1                    
1 56372U 23060C   26274.58317020 -.00000180  00000+0  00000+0 0  9999
2 56372   2.9931  78.4738 0003062 265.1361 321.6378  1.00247279  8607
BEIDOU-3 G4             
1 56564U 23066A   26274.50788087 -.00000283  00000+0  00000+0 0  9999
2 56564   0.4447   2.6223 0005828 209.6427 120.8787  1.00273690 12458
ARABSAT-7B (BADR-8)     
1 56757U 23075A   26273.26139981  .00000147  00000+0  00000+0 0  9996
2 56757   0.0759  22.7243 0001559 327.8141 138.6117  1.00271981 12176
NVS-01 (IRNSS-1J)       
1 56759U 23076A   26274.56495024 -.00000341  00000+0  00000+0 0  9993
2 56759   1.9233 239.3818 0006634   5.0862  98.7339  1.00267061 12180
NUSANTARA TIGA (SATRIA) 
1 57045U 23086A   26274.39072512 -.00000237  00000+0  00000+0 0  9991
2 57045   0.0535  11.7941 0003368 274.3695  10.6415  1.00269527 10825
H2SAT (HEINRICH HERTZ)  
1 57213U 23093A   26273.97106910  .00000002  00000+0  00000+0 0  9998
2 57213   0.0465  48.4511 0000270  36.0814 275.4969  1.00272439 11988
SYRACUSE 4B             
1 57214U 23093B   26273.99085130  .00000000  00000+0  00000+0 0  9999
2 57214   0.0217 200.2414 0000143  89.1649  70.5922  1.00269721  8033
JUPITER 3 (ECHOSTAR 24) 
1 57479U 23108A   26273.23951181 -.00000148  00000+0  00000+0 0  9998
2 57479   0.0148 134.5070 0000960  55.4351 170.0839  1.00270852 11707
GALAXY 37 (G-37)        
1 57493U 23112A   26273.94392602  .00000047  00000+0  00000+0 0  9991
2 57493   0.0174 158.3534 0002312  52.7298  11.4522  1.00272826 11603
LUDI TANCE-4 01A        
1 57624U 23120A   26274.80309138 -.00000193  00000+0  00000+0 0  9997
2 57624  15.0362 191.3484 0004620  52.4841 145.4830  1.00272150 11611
TJS-10                  
1 58204U 23169A   26274.77875545 -.00000253  00000+0  00000+0 0  9998
2 58204   2.8119  79.0979 0004510 139.5425 164.6715  1.00273547 10608
ZHONGXING-6E            
1 58253U 23172A   26274.77649972 -.00000365  00000+0  00000+0 0  9993
2 58253   0.0093 208.0583 0002574 349.7345 207.7717  1.00268181 10724
YAOGAN-41               
1 58582U 23197A   26274.50172150 -.00000366  00000+0  00000+0 0  9996
2 58582   2.9468 315.0088 0012709 214.9197 144.0443  1.00276369 10382
OVZON-3                 
1 58698U 24003A   26273.12683564  .00000053  00000+0  00000+0 0  9996
2 58698   0.0116 188.6757 0000088 331.1367 314.4750  1.00272997  8502
INSAT-3DS               
1 58990U 24033A   26274.59630530 -.00000159  00000+0  00000+0 0  9999
2 58990   0.0136 136.6559 0001540  71.0290  99.4045  1.00270173 48135
MERAH PUTIH 2           
1 58995U 24035A   26274.60292953 -.00000361  00000+0  00000+0 0  9996
2 58995   0.0179 166.8147 0001385  62.2349 111.3122  1.00269338  9654
TJS-11                  
1 59020U 24037A   26273.24618796 -.00000363  00000+0  00000+0 0  9996
2 59020   4.0712 328.4601 0003370 287.5938 314.1326  1.00270066  9631
HULIANWAN GAOGUI-01 (H*)
1 59069U 24040A   26273.69060700  .00000156  00000+0  00000+0 0  9997
2 59069   0.0958 342.3896 0001917  30.5070 278.7874  1.00270201  8386
EUTELSAT 36D            
1 59346U 24059A   26273.69104034  .00000156  00000+0  00000+0 0  9994
2 59346   0.0161 190.0495 0000317  50.0113  54.0419  1.00272600  9208
PAKSAT-MM1              
1 59915U 24104A   26271.62447369  .00000159  00000+0  00000+0 0  9992
2 59915   0.0261 213.1996 0002077 330.8298  86.3888  1.00271304  8568
ASTRA 1P (SES-24)       
1 60086U 24115A   26274.25183747  .00000117  00000+0  00000+0 0  9998
2 60086   0.0617 359.1638 0002665 235.1112 245.5995  1.00263637  8268
GOES 19                 
1 60133U 24119A   26274.46200603 -.00000251  00000+0  00000+0 0  9999
2 60133   0.0429  23.2260 0000869 241.3690 196.7598  1.00271019  8030
ZHONGXING-3A            
1 60179U 24122A   26274.00962221 -.00000314  00000+0  00000+0 0  9994
2 60179   0.0405  20.0762 0002929 201.0192 253.7027  1.00272348  8379
TURKSAT 6A              
1 60233U 24127A   26272.69434000  .00000149  00000+0  00000+0 0  9997
2 60233   0.0191 187.5624 0004861  19.3705  93.4937  1.00274107  8065
HULIANWAN GAOGUI-02 (H*)
1 60327U 24135A   26274.64770112 -.00000176  00000+0  00000+0 0  9995
2 60327   0.0689 351.4731 0004342 350.3185  54.8657  1.00272887  8553
ZHONGXING-4A            
1 60606U 24151A   26274.56269690 -.00000366  00000+0  00000+0 0  9999
2 60606   1.0474 269.9156 0001358  18.8108  42.3983  1.00272140  7820
HULIANWAN GAOGUI-03 (H*)
1 61503U 24181A   26274.47910936 -.00000244  00000+0  00000+0 0  9990
2 61503   0.0763 355.4904 0000577  84.5831  25.5041  1.00271713  7894
DSN-3 (KIRAMEKI-3)      
1 61733U 24198A   26273.66428382 -.00000249  00000+0  00000+0 0  9997
2 61733   0.0161 243.8068 0001194 304.0369 204.8020  1.00271065  6971
KOREASAT 6A             
1 61910U 24206A   26272.04558557 -.00000357  00000+0  00000+0 0  9993
2 61910   0.0099 182.1256 0000931  10.4794 307.6692  1.00271291  6888
OPTUS-X (ADS-01)        
1 62006U 24212A   26274.52336387 -.00000146  00000+0  00000+0 0  9993
2 62006   0.0279 263.3537 0002820 292.8735 158.8732  1.00271031  6826
GSAT-N2 (GSAT-20)       
1 62028U 24214A   26274.57453671 -.00000022  00000+0  00000+0 0  9993
2 62028   0.0484  88.2805 0001177 231.1539 325.7061  1.00269394  6966
SXM-9                   
1 62259U 24234A   26274.46009492 -.00000207  00000+0  00000+0 0  9992
2 62259   0.0116 270.4367 0004617  38.0102 142.2442  1.00269001  6638
TJS-12                  
1 62374U 24246A   26274.48169638 -.00000233  00000+0  00000+0 0  9993
2 62374   0.4674 315.2180 0000827 188.4774 186.4809  1.00271851  6637
NUVIEW ALPHA            
1 62455U 24252B   26274.45847847 -.00000218  00000+0  00000+0 0  9995
2 62455   0.0541  19.3883 0000080 215.1485 217.6628  1.00271144  4893
AGILA                   
1 62456U 24252C   26272.28030791 -.00000080  00000+0  00000+0 0  9994
2 62456   0.0398 117.8550 0001367 162.1062 345.9734  1.00525745  6209
NUVIEW BRAVO            
1 62457U 24252D   26274.02387484 -.00000216  00000+0  00000+0 0  9994
2 62457   0.0667 153.9282 0001812  50.9842  90.3696  1.00270552  4857
THURAYA-4               
1 62483U 25001A   26274.61929049  .00000137  00000+0  00000+0 0  9991
2 62483   0.0267  96.9452 0000267 209.9912 330.6511  1.00268592  5245
SHIJIAN-25 (SJ-25)      
1 62485U 25002A   26274.78856884 -.00000351  00000+0  00000+0 0  9997
2 62485   5.3622  60.4265 0046500 179.8963 181.4155  1.00277174  6433
TJS-14                  
1 62804U 25017A   26274.04398160  .00000115  00000+0  00000+0 0  9992
2 62804   0.5642 306.9459 0003998 321.1578 135.9645  1.00274680  6334
SPAINSAT NG I           
1 62852U 25021A   26270.98111980  .00000000  00000+0  00000+0 0  9995
2 62852   0.0169 196.3557 0000279  10.3370 182.2611  1.00272877  5010
QZS-6 (MICHIBIKI-6)     
1 62876U 25023A   26274.64188693 -.00000236  00000+0  00000+0 0  9997
2 62876   0.0102 223.8892 0002224 347.9169 120.2034  1.00269772  6010
ZHONGXING-10R           
1 63075U 25036A   26274.64759573 -.00000355  00000+0  00000+0 0  9996
2 63075   0.0440 240.9269 0005067 308.9489 164.1467  1.00267624  6027
TJS-15                  
1 63157U 25045A   26274.77528145 -.00000221  00000+0  00000+0 0  9992
2 63157   0.4767  84.3666 0001490 199.2232  94.7066  1.00274020  5826
TIANLIAN 2-04           
1 63361U 25062A   26274.62639718 -.00000142  00000+0  00000+0 0  9993
2 63361   4.1091 272.9811 0033869   8.0937  34.8367  1.00272427  5676
TJS-16                  
1 63397U 25064A   26274.69426394 -.00000107  00000+0  00000+0 0  9996
2 63397   1.3657  80.4832 0002278 225.8394 114.7497  1.00271193  5450
TJS-17                  
1 63524U 25073A   26274.78026909 -.00000238  00000+0  00000+0 0  9991
2 63524   1.3322  81.5227 0021951  97.1854 272.9778  0.99556086  5364
TIANLIAN 2-05           
1 63662U 25084A   26274.68588975  .00000117  00000+0  00000+0 0  9996
2 63662   4.1894 278.7012 0000717 264.4263  94.5791  1.00269389  5446
TJS-19                  
1 63924U 25097A   26274.70975626 -.00000280  00000+0  00000+0 0  9999
2 63924   3.1197 319.3559 0006760 273.9723 173.8749  1.00273078  5219
CHINASAT 3B             
1 64062U 25106A   26274.54820351 -.00000048  00000+0  00000+0 0  9992
2 64062   0.0391  20.7928 0002909 190.2204 163.9220  1.00270933  5125
SXM-10                  
1 64290U 25122A   26271.02367332 -.00000012  00000+0  00000+0 0  9999
2 64290   0.0054 106.5961 0001493 237.8377 274.7664  1.00271815  4717
COSMOS 2589             
1 64467U 25131A   26274.71126249 -.00000347  00000+0  00000+0 0  9995
2 64467   0.2059  87.6937 0006889  42.4763 264.4167  1.00273495  4625
CHINASAT 9C             
1 64470U 25132A   26274.62882385 -.00000251  00000+0  00000+0 0  9994
2 64470   0.0314 242.1937 0003177 311.8613 134.9226  1.00271565  5212
MTG-S1                  
1 64723U 25143A   26274.28586502 -.00000007  00000+0  00000+0 0  9990
2 64723   0.6147 344.1256 0004218 256.8968 231.7320  1.00274127  4484
DROR 1                  
1 64784U 25148A   26274.28586502 -.00000036  00000+0  00000+0 0  9994
2 64784   0.0396  81.5633 0001349 164.5692 222.8147  1.00270814  4367
SHIYAN-29               
1 65486U 25196A   26274.63078605 -.00000274  00000+0  00000+0 0  9990
2 65486  28.9333  17.1977 0015927 180.2064 135.2736  1.00281758  3941
NUSANTARA LIMA (NUSANT*)
1 65588U 25205A   26274.49032990 -.00000360  00000+0  00000+0 0  9991
2 65588   0.0022 168.0928 0000583  92.6612  38.8664  1.00270824  3781
TJS-20                  
1 66142U 25238A   26274.62293050  .00000018  00000+0  00000+0 0  9994
2 66142   5.2410 299.2010 0003374 262.4208  95.3933  1.00273390  3399
CMS-03 (GSAT-7R)        
1 66311U 25249B   26274.62518384  .00000000  00000+0  00000+0 0  9995
2 66311   0.0173 193.9229 0000761  30.3802  85.1090  1.00270941  3410
VIASAT-3 F2             
1 66454U 25261A   26271.49769888 -.00000229  00000+0  00000+0 0  9990
2 66454   0.0141 261.4638 0001307 359.4046 206.6098  1.00271432  3830
SHIJIAN-28 (SJ-28)      
1 66549U 25277A   26273.57628513 -.00000363  00000+0  00000+0 0  9991
2 66549   4.2744 270.5153 0001464  60.8879   2.2569  1.00268308  3217
TJS-22                  
1 66990U 25290A   26274.57433686 -.00000010  00000+0  00000+0 0  9991
2 66990   1.2791 288.6946 0004851 328.5818  26.3022  1.00270068  3088
TJS-23                  
1 67226U 25306A   26274.30899834  .00000011  00000+0  00000+0 0  9994
2 67226   5.3539 296.9970 0004260 269.2425  90.5320  1.00270691  2955
FENGYUN 4C              
1 67246U 25312A   26273.00253307 -.00000320  00000+0  00000+0 0  9992
2 67246   0.0191  13.3852 0000997 270.3575 218.9922  1.00271143  2929
SHIJIAN-29A (SJ-29A)    
1 67302U 25315A   26274.76217743 -.00000071  00000+0  00000+0 0  9999
2 67302   3.6617  92.5234 0006137  80.2688 185.4656  1.00269072  2685
SHIJIAN-29B (SJ-29B)    
1 67403U 25315C   26274.76217742 -.00000072  00000+0  00000+0 0  9991
2 67403   3.6608  92.5181 0007125  99.8625 165.9264  1.00271970  2759
ELEKTRO-L 5             
1 67756U 26028A   26273.76233815 -.00000097  00000+0  00000+0 0  9999
2 67756   0.0479  43.2283 0001588 130.6945 186.1059  1.00271544  2304
JAM-E JAM 1             
1 67757U 26028B   26274.61721047  .00000153  00000+0  00000+0 0  9996
2 67757   0.1604  15.4015 0000537 278.7448 332.3174  1.00274638  2181
ECHOSTAR 25             
1 68126U 26045A   26273.02063881  .00000000  00000+0  00000+0 0  9996
2 68126   0.0188 186.9710 0001671  13.3236  65.9198  1.00269962  2046
TJS-24                  
1 69235U 26116A   26274.77528116 -.00000235  00000+0  00000+0 0  9998
2 69235   0.2768  87.5505 0001993 182.1259 110.2751  1.00272107  1299
