STARLETTE               
1 07646U 75010A   26282.74750847 -.00000151  00000+0 -44330-5 0  9995
2 07646  49.8253  12.4017 0205563  81.5099 280.9032 13.82351493610385
LAGEOS 1                
1 08820U 76039A   26282.28678667 -.00000017  00000+0  00000+0 0  9990
2 08820 109.8237 218.3888 0044580 277.8344 212.9274  6.38664894920422
AJISAI (EGS)            
1 16908U 86061A   26282.87962803 -.00000095  00000+0  15381-4 0  9994
2 16908  50.0080 154.7187 0011415 111.7126 253.4891 12.44517588494670
COSMOS 1989 (ETALON 1)  
1 19751U 89001C   26282.23146587 -.00000008  00000+0  00000+0 0  9994
2 19751  65.0186  68.3002 0023438 217.4510 140.3489  2.13155924293791
COSMOS 2024 (ETALON 2)  
1 20026U 89039C   26282.05835271 -.00000022  00000+0  00000+0 0  9993
2 20026  64.8611 306.6044 0020921 212.0855 190.3358  2.13204611290930
LAGEOS 2                
1 22195U 92070B   26282.21112880 -.00000009  00000+0  00000+0 0  9998
2 22195  52.6454 194.5907 0138180 237.1814 287.3370  6.47293848802808
STELLA                  
1 22824U 93061B   26282.87065427 -.00000031  00000+0  55554-5 0  9999
2 22824  98.7598 347.4586 0005283 261.8398 187.8025 14.27472811721130
LARETS                  
1 27944U 03042F   26282.81047017  .00000005  00000+0  10637-4 0  9998
2 27944  98.4283  87.5179 0013088  43.2399 316.9828 14.63884261230138
LARES                   
1 38077U 12006A   26282.82358880 -.00000035  00000+0  22317-4 0  9993
2 38077  69.4883  96.4386 0011290 288.4998  71.4801 12.54932468671450
LARES-2                 
1 53105U 22080A   26282.27042917 -.00000003  00000+0  00000+0 0  9990
2 53105  70.1445 266.1864 0005505 311.9970  48.0090  6.38965234 98953
