COSMOS 2433 (720)       
1 32275U 07052A   26277.72192303 -.00000011  00000+0  00000+0 0  9995
2 32275  65.5095 312.2417 0005921 232.2823 127.7286  2.13104051147394
COSMOS 2434 (721)       
1 32393U 07065A   26278.14892152 -.00000023  00000+0  00000+0 0  9999
2 32393  64.3176 188.2100 0002320  53.4697 163.3849  2.13101222146111
COSMOS 2436 (723)       
1 32395U 07065C   26278.34996397 -.00000024  00000+0  00000+0 0  9990
2 32395  64.3263 188.2766 0017516   2.5275 140.3723  2.13099862146075
COSMOS 2456 (730)       
1 36111U 09070A   26275.77866545  .00000032  00000+0  00000+0 0  9991
2 36111  65.0806  67.3066 0001327 338.6413  18.5871  2.13103500130715
COSMOS 2457 (733)       
1 36112U 09070B   26278.22666086  .00000029  00000+0  00000+0 0  9999
2 36112  65.0679  67.0650 0005912 136.2630  65.3867  2.13100723130772
COSMOS 2460 (732)       
1 36402U 10007C   26265.40205623 -.00000008  00000+0  00000+0 0  9993
2 36402  65.3592 311.1726 0002578 222.5647 222.5420  2.13101986128805
COSMOS 2476 (744)       
1 37867U 11064A   26277.77464690  .00000037  00000+0  00000+0 0  9998
2 37867  65.3389  69.1761 0023009 230.5477 126.2457  2.13103540116092
COSMOS 2477 (745)       
1 37868U 11064B   26277.58445642  .00000037  00000+0  00000+0 0  9994
2 37868  65.3450  69.2629 0019893 230.4989 160.3890  2.13102598116091
COSMOS 2475 (743)       
1 37869U 11064C   26267.52397483  .00000043  00000+0  00000+0 0  9994
2 37869  65.3462  69.6239 0024905 245.5374 301.9912  2.13101751115885
COSMOS 2485 (747)       
1 39155U 13019A   26276.77806360  .00000040  00000+0  00000+0 0  9999
2 39155  65.4872  69.9644 0023556 225.9607 133.8588  2.13102890104598
COSMOS 2492 (754)       
1 39620U 14012A   26278.61403113 -.00000008  00000+0  00000+0 0  9999
2 39620  65.2279 310.1764 0012482 306.1506  53.7981  2.13103130 97590
COSMOS 2500 (755)       
1 40001U 14032A   26277.84440853 -.00000007  00000+0  00000+0 0  9991
2 40001  65.1635 309.9410 0009531 208.4537 151.5572  2.13101328 95793
COSMOS 2501 (702K)      
1 40315U 14075A   26278.57667559 -.00000024  00000+0  00000+0 0  9990
2 40315  63.6155 186.5537 0021757 208.7606 151.1543  2.13101194 92202
COSMOS 2514 (751)       
1 41330U 16008A   26277.62277327 -.00000006  00000+0  00000+0 0  9991
2 41330  64.9520 309.2432 0013760 212.8749 147.1015  2.13102590 82958
COSMOS 2522 (752)       
1 42939U 17055A   26277.92955310 -.00000022  00000+0  00000+0 0  9996
2 42939  64.0782 188.1522 0008661 233.3998 126.5539  2.13101879 70315
COSMOS 2527 (756)       
1 43508U 18053A   26277.89187308  .00000039  00000+0  00000+0 0  9995
2 43508  65.6451  70.2524 0007524 213.9568 146.0086  2.13101911 64612
COSMOS 2529 (757)       
1 43687U 18086A   26278.45708113 -.00000025  00000+0  00000+0 0  9991
2 43687  64.2947 188.8743 0009592 253.4507 106.4752  2.13101850 61634
COSMOS 2534 (758)       
1 44299U 19030A   26277.06913633 -.00000014  00000+0  00000+0 0  9990
2 44299  64.3681 188.9537 0010847 276.7975 232.9843  2.13102037 57240
COSMOS 2544 (759)       
1 44850U 19088A   26278.30540103  .00000037  00000+0  00000+0 0  9996
2 44850  65.6332  70.0601 0012395 244.2558 115.6290  2.13102707 53063
COSMOS 2545 (760)       
1 45358U 20018A   26278.03104250 -.00000007  00000+0  00000+0 0  9992
2 45358  64.2840 308.5515 0012261 238.4233 121.5184  2.13102417 51004
COSMOS 2547 (705K)      
1 46805U 20075A   26278.22173095 -.00000024  00000+0  00000+0 0  9996
2 46805  64.5994 188.8065 0007923 233.7567 126.2019  2.13099649 46253
COSMOS 2557 (706K)      
1 52984U 22075A   26277.91576981 -.00000011  00000+0  00000+0 0  9995
2 52984  64.2287 310.6130 0013027 270.2314  89.6820  2.13101961 33053
COSMOS 2559 (707K)      
1 54031U 22130A   26278.20492750 -.00000011  00000+0  00000+0 0  9996
2 54031  64.2011 310.6817 0013360 190.3235 169.7118  2.13101532 31039
COSMOS 2564 (761)       
1 54377U 22161A   26278.04789690 -.00000023  00000+0  00000+0 0  9990
2 54377  64.7412 189.0688 0010364 214.8318 145.1321  2.13101953 29972
COSMOS 2569 (703K)      
1 57517U 23114A   26278.05990253  .00000035  00000+0  00000+0 0  9990
2 57517  65.3717  68.9197 0008790 286.3053  73.6101  2.13102459 24604
COSMOS 2584 (704K)      
1 63130U 25042A   26275.60017059  .00000035  00000+0  00000+0 0  9992
2 63130  65.1526  69.1546 0006783 203.8155 156.1648  2.13103208 12339
COSMOS 2596 (708K)      
1 65590U 25206B   26277.41806657 -.00000011  00000+0  00000+0 0  9992
2 65590  64.5658 311.1753 0012805 301.4854 128.3714  2.13100477  8248
