GLOBALSTAR M069         
1 31573U 07020C   26276.79060993 -.00000075  00000+0  16209-3 0  9997
2 31573  52.0035 304.7361 0001853  15.8976 155.2154 12.23475114892094
GLOBALSTAR M072         
1 31574U 07020D   26276.44824240 -.00000084  00000+0  55728-5 0  9994
2 31574  51.9919 172.0249 0001372 123.6482  47.2794 11.91660143887884
GLOBALSTAR M066         
1 32265U 07048C   26276.95667593 -.00000106  00000+0 -10011-3 0  9994
2 32265  51.9561 105.6643 0003770 269.3755 255.8314 12.30390357873612
GLOBALSTAR M079         
1 37188U 10054A   26276.92555715 -.00000108  00000+0 -24510-4 0  9995
2 37188  52.0018 137.6550 0000639  92.7526 284.5873 12.62262855736283
GLOBALSTAR M074         
1 37189U 10054B   26276.87284907 -.00000103  00000+0  30137-5 0  9999
2 37189  52.0001 137.0656 0000818  71.3462 305.3031 12.62263562736888
GLOBALSTAR M076         
1 37190U 10054C   26276.89957514 -.00000104  00000+0 -16585-5 0  9997
2 37190  52.0011 137.1969 0000588  70.1468 308.0630 12.62264007736606
GLOBALSTAR M077         
1 37191U 10054D   26276.70469200 -.00000087  00000+0 -17413-3 0  9997
2 37191  51.9946 263.8627 0003013  18.6684 152.4248 11.67547356733814
GLOBALSTAR M075         
1 37192U 10054E   26276.99088814 -.00000096  00000+0  41789-4 0  9990
2 37192  51.9939 178.9112 0000786  75.1302 299.0564 12.62260988735686
GLOBALSTAR M073         
1 37193U 10054F   26276.94454769 -.00000102  00000+0  10443-4 0  9993
2 37193  52.0043  93.2326 0000597  98.6800  64.0780 12.62268465737662
GLOBALSTAR M083         
1 37739U 11033A   26276.60840134 -.00000096  00000+0  43505-4 0  9992
2 37739  51.9876  42.3370 0000405 117.3310 256.8570 12.62269379706644
GLOBALSTAR M088         
1 37740U 11033B   26276.85406557 -.00000085  00000+0  10478-3 0  9998
2 37740  52.0221 308.2815 0000359  86.7526  85.0059 12.62270609702217
GLOBALSTAR M091         
1 37741U 11033C   26276.99462411 -.00000085  00000+0  10430-3 0  9993
2 37741  51.9989 270.6596 0000329  93.1691 297.0277 12.62265110703025
GLOBALSTAR M085         
1 37742U 11033D   26276.90424396 -.00000092  00000+0  65929-4 0  9997
2 37742  52.0117 222.3204 0000446  82.7304 316.4368 12.62265473703520
GLOBALSTAR M081         
1 37743U 11033E   26276.64292699 -.00000093  00000+0  60511-4 0  9991
2 37743  51.9950 225.4274 0000447  54.5394 117.0170 12.62266642703639
GLOBALSTAR M089         
1 37744U 11033F   26276.44479808 -.00000097  00000+0  38768-4 0  9992
2 37744  51.9923 180.1702 0000879  53.1842 118.4824 12.62264020704455
GLOBALSTAR M084         
1 38040U 11080A   26276.66071197 -.00000106  00000+0 -13552-4 0  9993
2 38040  52.0023  47.0475 0000528  82.6031 290.7501 12.62264104682469
GLOBALSTAR M080         
1 38041U 11080B   26276.63242373 -.00000107  00000+0 -15388-4 0  9997
2 38041  52.0070  48.8923 0001063 114.4615 258.3596 12.62268634682585
GLOBALSTAR M082         
1 38042U 11080C   26275.96983451 -.00000101  00000+0  13124-4 0  9991
2 38042  52.0107   6.4212 0000627 130.6174  41.5172 12.62262705683208
GLOBALSTAR M092         
1 38043U 11080D   26276.88822956 -.00000096  00000+0  42674-4 0  9991
2 38043  52.0066  94.0270 0000834  91.7714  55.3657 12.62266589681772
GLOBALSTAR M090         
1 38044U 11080E   26276.94644258 -.00000097  00000+0  35589-4 0  9994
2 38044  52.0156 357.4392 0000495 141.0505  30.4539 12.62268059683447
GLOBALSTAR M086         
1 38045U 11080F   26276.96609895 -.00000100  00000+0  20302-4 0  9997
2 38045  51.9927 357.1287 0000639 292.8225 237.8936 12.62289360683392
GLOBALSTAR M097         
1 39072U 13005A   26276.72395686 -.00000086  00000+0  98722-4 0  9995
2 39072  52.0040 272.9377 0000261  95.0727 265.0170 12.62271638630615
GLOBALSTAR M093         
1 39073U 13005B   26276.69749924 -.00000086  00000+0  10102-3 0  9995
2 39073  52.0096 266.4098 0000104 119.4104 240.6774 12.62267429630567
GLOBALSTAR M094         
1 39074U 13005C   26276.45989389 -.00000105  00000+0 -51657-5 0  9996
2 39074  51.9949 181.1421 0000529  78.3407 281.7519 12.62264785632147
GLOBALSTAR M096         
1 39075U 13005D   26276.55239464 -.00000092  00000+0  64804-4 0  9991
2 39075  52.0064 229.7444 0000457  84.0469 276.0450 12.62264603631075
GLOBALSTAR M078         
1 39076U 13005E   26276.84271593 -.00000025  00000+0  43848-3 0  9993
2 39076  51.9880 312.7278 0001193 131.3452 228.7518 12.62261103629735
GLOBALSTAR M095         
1 39077U 13005F   26276.79002091 -.00000086  00000+0  96904-4 0  9992
2 39077  52.0090 310.6443 0000543 143.9100 216.1804 12.62264765629588
GLOBALSTAR M087         
1 52888U 22064A   26276.88234203 -.00000106  00000+0 -12083-4 0  9994
2 52888  51.9978  91.5355 0000773 111.0837 249.0113 12.62263276204865
