GPS BIIR-5  (PRN 22)    
1 26407U 00040A   26274.63014552  .00000023  00000+0  00000+0 0  9993
2 26407  54.8348 210.9384 0117327 304.1901 154.9947  2.00558399192089
GPS BIIR-8  (PRN 16)    
1 27663U 03005A   26274.59644153  .00000023  00000+0  00000+0 0  9993
2 27663  54.8645 210.7450 0151213  53.8402 156.8597  2.00554699173442
GPS BIIR-11 (PRN 19)    
1 28190U 04009A   26274.20599299  .00000024  00000+0  00000+0 0  9993
2 28190  54.7492 271.3939 0118337 176.9827 266.2618  2.00572934165072
GPS BIIR-13 (PRN 02)    
1 28474U 04045A   26274.08736936 -.00000050  00000+0  00000+0 0  9995
2 28474  55.0672 320.6233 0172869 319.0886 101.9046  2.00560377160557
GPS BIIRM-1 (PRN 17)    
1 28874U 05038A   26274.11236824  .00000026  00000+0  00000+0 0  9999
2 28874  54.7998 268.8933 0128680 297.9659 106.5551  2.00558289153960
INMARSAT 4-F2 (SOUTHPA*)
1 28899U 05044A   26274.43963545 -.00000261  00000+0  00000+0 0  9997
2 28899   5.2339  43.7196 0002856 160.3755 107.8688  1.00270890 76589
GPS BIIRM-2 (PRN 31)    
1 29486U 06042A   26274.41394289  .00000025  00000+0  00000+0 0  9997
2 29486  54.7170 147.1185 0109231  57.7235 105.0710  2.00564504146525
GPS BIIRM-3 (PRN 12)    
1 29601U 06052A   26274.11830067  .00000027  00000+0  00000+0 0  9995
2 29601  54.9199 209.8110 0085987  91.1733 269.8172  2.00563832145531
GPS BIIRM-4 (PRN 15)    
1 32260U 07047A   26274.42674349  .00000013  00000+0  00000+0 0  9993
2 32260  54.1807  75.6904 0168318  89.7211 272.2263  2.00575202138948
COSMOS 2433 (720)       
1 32275U 07052A   26274.43711847 -.00000014  00000+0  00000+0 0  9993
2 32275  65.5112 312.3530 0005787 230.8955 129.1192  2.13104237147322
GPS BIIRM-5 (PRN 29)    
1 32384U 07062A   26274.48648197  .00000026  00000+0  00000+0 0  9999
2 32384  54.9547 269.8701 0035886 170.3157   3.2294  2.00565740137643
COSMOS 2434 (721)       
1 32393U 07065A   26273.37965068  .00000033  00000+0  00000+0 0  9996
2 32393  64.3182 188.3702 0002139  51.4562 106.5887  2.13101355146011
COSMOS 2436 (723)       
1 32395U 07065C   26273.76142152  .00000030  00000+0  00000+0 0  9999
2 32395  64.3266 188.4312 0017587   1.9763 220.7847  2.13100081145974
GPS BIIRM-6 (PRN 07)    
1 32711U 08012A   26274.33555128  .00000027  00000+0  00000+0 0  9995
2 32711  54.5060 145.6819 0211611 248.6737 109.1429  2.00553175135888
GPS BIIRM-8 (PRN 05)    
1 35752U 09043A   26274.33309840 -.00000065  00000+0  00000+0 0  9999
2 35752  56.2711  23.2918 0050881  86.4416 283.2635  2.00575855125499
COSMOS 2456 (730)       
1 36111U 09070A   26274.78691174  .00000030  00000+0  00000+0 0  9993
2 36111  65.0798  67.3404 0001314 340.1866 336.2005  2.13103548130695
COSMOS 2457 (733)       
1 36112U 09070B   26271.89356550  .00000024  00000+0  00000+0 0  9992
2 36112  65.0642  67.2807 0005964 135.6710 247.4886  2.13101063130645
COSMOS 2460 (732)       
1 36402U 10007C   26265.40205623 -.00000008  00000+0  00000+0 0  9993
2 36402  65.3592 311.1726 0002578 222.5647 222.5420  2.13101986128805
GPS BIIF-1  (PRN 25)    
1 36585U 10022A   26273.42039142  .00000029  00000+0  00000+0 0  9996
2 36585  54.2560 204.3255 0116573  55.9948 138.5705  2.00610692119708
BEIDOU-2 IGSO-1 (C06)   
1 36828U 10036A   26256.66970756 -.00000130  00000+0  00000+0 0  9997
2 36828  54.3037 162.1610 0058541 217.4777 320.7749  1.00289463 58981
BEIDOU-2 G4 (C04)       
1 37210U 10057A   26274.65894918 -.00000114  00000+0  00000+0 0  9992
2 37210   3.9049  68.1674 0008903 180.8477 158.6077  1.00272984 58355
BEIDOU-2 IGSO-2 (C07)   
1 37256U 10068A   26273.94211554 -.00000175  00000+0  00000+0 0  9991
2 37256  47.3603 270.5068 0057111 216.4511 326.3582  1.00247735 57854
BEIDOU-2 IGSO-3 (C08)   
1 37384U 11013A   26273.98959521 -.00000176  00000+0  00000+0 0  9992
2 37384  62.5640  39.1658 0034758 184.5512 249.1326  1.00287450 56729
GSAT-8 (GAGAN/PRN 127)  
1 37605U 11022A   26274.62145716  .00000082  00000+0  00000+0 0  9998
2 37605   2.3988  80.3875 0007325 163.0936  45.7140  1.00271930 54282
BEIDOU-2 IGSO-4 (C09)   
1 37763U 11038A   26273.75193078 -.00000048  00000+0  00000+0 0  9990
2 37763  54.6015 164.7346 0160690 230.7425 338.5656  1.00264383 55705
GSAT0101 (GALILEO-PFM)  
1 37846U 11060A   26274.02032603 -.00000072  00000+0  00000+0 0  9991
2 37846  56.9510 338.8899 0000778 302.4642  57.5956  1.70475514 92920
GSAT0102 (GALILEO-FM2)  
1 37847U 11060B   26274.51153736 -.00000074  00000+0  00000+0 0  9999
2 37847  56.9514 338.8770 0002326 311.4341  35.8220  1.70475894 92935
COSMOS 2476 (744)       
1 37867U 11064A   26274.28895921  .00000032  00000+0  00000+0 0  9991
2 37867  65.3367  69.2935 0022966 230.5481 332.1373  2.13103698116020
COSMOS 2477 (745)       
1 37868U 11064B   26273.80387499  .00000030  00000+0  00000+0 0  9993
2 37868  65.3426  69.3902 0019852 230.3307 140.2287  2.13102851116018
COSMOS 2475 (743)       
1 37869U 11064C   26267.52397483  .00000043  00000+0  00000+0 0  9994
2 37869  65.3462  69.6239 0024905 245.5374 301.9912  2.13101751115885
BEIDOU-2 IGSO-5 (C10)   
1 37948U 11073A   26270.97961485 -.00000126  00000+0  00000+0 0  9997
2 37948  47.4986 270.2599 0116511 224.3210 320.7744  1.00274862 54167
LUCH 5A (SDCM/PRN 140)  
1 37951U 11074B   26274.76427047 -.00000049  00000+0  00000+0 0  9998
2 37951   9.0180  72.2162 0004623 139.3030 241.1910  1.00274122 54128
BEIDOU-2 G5 (C05)       
1 38091U 12008A   26274.62215050  .00000055  00000+0  00000+0 0  9992
2 38091   3.8323  68.9012 0007573 233.5826 350.5443  1.00273570 53433
BEIDOU-2 M3 (C11)       
1 38250U 12018A   26273.96934201 -.00000018  00000+0  00000+0 0  9992
2 38250  55.6636 301.3011 0023592 273.7899  85.9885  1.86230006 97911
BEIDOU-2 M4 (C12)       
1 38251U 12018B   26273.36484514 -.00000017  00000+0  00000+0 0  9993
2 38251  55.5639 300.5272 0014839 274.0533  85.8258  1.86229730 97901
SES-5 (EGNOS/PRN 136)   
1 38652U 12036A   26274.26295003  .00000032  00000+0  00000+0 0  9997
2 38652   0.0490   9.2582 0002108 183.3404 277.0669  1.00270432 45521
BEIDOU-2 M6 (C14)       
1 38775U 12050B   26273.61096677 -.00000007  00000+0  00000+0 0  9996
2 38775  56.6420  59.4155 0010585   2.8399 357.1659  1.86230716 95277
GSAT-10 (GAGAN/PRN 128) 
1 38779U 12051B   26274.58327782  .00000000  00000+0  00000+0 0  9994
2 38779   0.0154 179.2293 0004159 303.9158 180.1814  1.00269580 51164
GPS BIIF-3  (PRN 24)    
1 38833U 12053A   26273.01769494  .00000041  00000+0  00000+0 0  9999
2 38833  53.6000 139.3007 0186544  67.7498 294.3183  2.00557165101545
GSAT0103 (GALILEO-FM3)  
1 38857U 12055A   26274.06143115  .00000044  00000+0  00000+0 0  9992
2 38857  55.8745  98.6386 0001492 306.3470  53.6908  1.70473312 86818
BEIDOU-2 G6 (C02)       
1 38953U 12059A   26274.58165013 -.00000178  00000+0  00000+0 0  9990
2 38953   4.6838  72.2971 0006528 319.5482 271.9065  1.00273955 50973
LUCH 5B (SDCM/PRN 125)  
1 38977U 12061A   26273.68064030 -.00000135  00000+0  00000+0 0  9999
2 38977  10.7068  48.8033 0006721 170.7611  18.6021  1.00271834 50664
COSMOS 2485 (747)       
1 39155U 13019A   26273.96249817  .00000032  00000+0  00000+0 0  9996
2 39155  65.4851  70.0587 0023530 225.9130 133.9033  2.13103077104535
GPS BIIF-4  (PRN 27)    
1 39166U 13023A   26273.88182629  .00000028  00000+0  00000+0 0  9996
2 39166  54.4291 264.6599 0143015  51.1768 310.0896  2.00563023 98000
IRNSS-1A                
1 39199U 13034A   26274.47906318  .00000078  00000+0  00000+0 0  9994
2 39199  35.9548  62.3510 0021227 181.6443 353.8436  1.00269028 48434
GPS BIIF-5  (PRN 30)    
1 39533U 14008A   26273.88323391  .00000030  00000+0  00000+0 0  9994
2 39533  53.6652 145.0051 0083574 231.5397 127.7990  2.00566614 91808
ASTRA 5B (EGNOS/PRN 123)
1 39617U 14011B   26274.25875552  .00000135  00000+0  00000+0 0  9990
2 39617   0.0849 300.2099 0003518 271.0104 275.4370  1.00271139 45735
COSMOS 2492 (754)       
1 39620U 14012A   26274.39069686 -.00000010  00000+0  00000+0 0  9996
2 39620  65.2304 310.3210 0012365 306.2259  53.7244  2.13103367 97508
IRNSS-1B                
1 39635U 14017A   26274.47888985  .00000108  00000+0  00000+0 0  9994
2 39635  28.7451 238.5781 0019588 191.5696 167.5751  1.00275866 45856
LUCH 5V (SDCM/PRN 141)  
1 39727U 14023A   26274.58717976 -.00000271  00000+0  00000+0 0  9998
2 39727   5.3924  68.5667 0002881 158.0198  89.8903  1.00273850 45420
GPS BIIF-6  (PRN 06)    
1 39741U 14026A   26274.16348617 -.00000057  00000+0  00000+0 0  9995
2 39741  56.4388 327.3867 0039938 323.9522  35.8453  2.00553266 90662
COSMOS 2500 (755)       
1 40001U 14032A   26274.09030516 -.00000010  00000+0  00000+0 0  9990
2 40001  65.1656 310.0698 0009523 207.7138 152.3003  2.13101522 95713
GPS BIIF-7  (PRN 09)    
1 40105U 14045A   26274.25197276  .00000027  00000+0  00000+0 0  9991
2 40105  55.4302  84.2407 0036623 120.5733 239.8174  2.00565132 88203
GSAT0201 (GALILEO 5)    
1 40128U 14050A   26261.66135895  .00000005  00000+0  00000+0 0  9998
2 40128  48.7780 269.5934 1687125 183.0003 175.8597  1.85519745 80054
GSAT0202 (GALILEO 6)    
1 40129U 14050B   26274.31318955  .00000013  00000+0  00000+0 0  9994
2 40129  48.7819 268.1595 1690275 184.1832 174.2111  1.85520023 82450
IRNSS-1C                
1 40269U 14061A   26274.62391166 -.00000161  00000+0  00000+0 0  9995
2 40269   6.7835  86.8821 0019578  10.6171 220.3842  1.00268208 43758
GPS BIIF-8  (PRN 03)    
1 40294U 14068A   26272.62793530 -.00000058  00000+0  00000+0 0  9994
2 40294  57.0546  26.9410 0066761  73.9572 286.7866  2.00557667 87308
COSMOS 2501 (702K)      
1 40315U 14075A   26273.88408791  .00000028  00000+0  00000+0 0  9993
2 40315  63.6158 186.7160 0021832 209.0351 150.8897  2.13101414 92106
GPS BIIF-9  (PRN 26)    
1 40534U 15013A   26273.26053465  .00000027  00000+0  00000+0 0  9994
2 40534  53.1542 199.8354 0113820  41.5085 319.3685  2.00569724 83938
GSAT0203 (GALILEO 7)    
1 40544U 15017A   26273.79769036 -.00000072  00000+0  00000+0 0  9996
2 40544  56.7433 338.7158 0005862 259.5183 100.4835  1.70476060 71006
GSAT0204 (GALILEO 8)    
1 40545U 15017B   26258.80260670 -.00000102  00000+0  00000+0 0  9996
2 40545  56.7566 339.1450 0004699 240.9831 119.0222  1.70476021 33792
BEIDOU-3S IGSO-1S (C31) 
1 40549U 15019A   26274.48755715 -.00000164  00000+0  00000+0 0  9991
2 40549  48.9942 294.1709 0039204 201.6534 146.5266  1.00284534 42138
GPS BIIF-10 (PRN 08)    
1 40730U 15033A   26273.92465027  .00000028  00000+0  00000+0 0  9999
2 40730  53.9089 262.7193 0118060  30.7202 329.9604  2.00550566 82114
BEIDOU-3S M2S (C58)     
1 40748U 15037A   26274.10241088 -.00000015  00000+0  00000+0 0  9999
2 40748  54.7743 298.3902 0012171 262.7182  97.1867  1.86232155 76091
BEIDOU-3S M1S (C57)     
1 40749U 15037B   26274.29686495 -.00000014  00000+0  00000+0 0  9994
2 40749  54.7710 298.3691 0001828  35.0542 325.0010  1.86254822 76109
GSAT0206 (GALILEO 10)   
1 40890U 15045B   26259.96432677  .00000017  00000+0  00000+0 0  9990
2 40890  54.9240 219.0714 0002624 353.2075   6.7586  1.70473245 68605
BEIDOU-3S IGSO-2S (C56) 
1 40938U 15053A   26272.91902356 -.00000128  00000+0  00000+0 0  9992
2 40938  49.0687 257.5269 0065676 192.3947 345.8674  1.00280188 40404
GPS BIIF-11 (PRN 10)    
1 41019U 15062A   26274.47371532 -.00000060  00000+0  00000+0 0  9997
2 41019  57.0263  26.7263 0116893 231.3263 127.6394  2.00566685 79965
GSAT-15 (GAGAN/PRN 139) 
1 41028U 15065A   26274.62908385 -.00000261  00000+0  00000+0 0  9992
2 41028   0.0109 126.2683 0002124  63.8016 140.2955  1.00271279 39869
GSAT0209 (GALILEO 12)   
1 41174U 15079A   26274.21097768  .00000043  00000+0  00000+0 0  9995
2 41174  55.8962  98.3520 0003246  23.7721 336.2935  1.70473773 66583
GSAT0208 (GALILEO 11)   
1 41175U 15079B   26273.84480145  .00000045  00000+0  00000+0 0  9991
2 41175  55.8940  98.3588 0003095  32.7873 327.2837  1.70473754 66999
IRNSS-1E                
1 41241U 16003A   26273.86355804 -.00000291  00000+0  00000+0 0  9992
2 41241  33.4650  58.2246 0021865 181.5958 192.3994  1.00268211 39146
GPS BIIF-12 (PRN 32)    
1 41328U 16007A   26274.06325230  .00000028  00000+0  00000+0 0  9992
2 41328  55.5975  85.2628 0098138 247.2965 111.6927  2.00571611 77960
COSMOS 2514 (751)       
1 41330U 16008A   26274.33795756 -.00000009  00000+0  00000+0 0  9990
2 41330  64.9538 309.3565 0013776 212.4456 147.5330  2.13102559 82884
BEIDOU-2 IGSO-6 (C13)   
1 41434U 16021A   26273.79712806 -.00000158  00000+0  00000+0 0  9999
2 41434  60.3798  36.9990 0062207 228.6818 127.4669  1.00278381 38533
IRNSS-1G                
1 41469U 16027A   26274.50430229 -.00000335  00000+0  00000+0 0  9996
2 41469   5.4543  94.9949 0002475  47.5238 178.8259  1.00272229 38240
GSAT0211 (GALILEO 14)   
1 41549U 16030A   26273.96817000  .00000018  00000+0  00000+0 0  9991
2 41549  55.0697 218.7877 0003813 342.4626  17.5092  1.70472882 64473
GSAT0210 (GALILEO 13)   
1 41550U 16030B   26271.29228813  .00000016  00000+0  00000+0 0  9993
2 41550  55.0701 218.8591 0003477 255.7678 104.1641  1.70473473 64429
BEIDOU-2 G7 (C03)       
1 41586U 16037A   26274.60134736 -.00000356  00000+0  00000+0 0  9995
2 41586   1.9785  69.7021 0004843 348.2854 279.3528  1.00276089  7954
EUTELSAT 117 WEST B (W*)
1 41589U 16038B   26274.58739701 -.00000015  00000+0  00000+0 0  9991
2 41589   0.0195  44.1586 0000424  49.0097  11.6162  1.00271932 37733
GSAT0207 (GALILEO 15)   
1 41859U 16069A   26262.77251085  .00000026  00000+0  00000+0 0  9998
2 41859  55.5593  98.4673 0002817   1.3541 358.7217  1.70473989 61019
GSAT0212 (GALILEO 16)   
1 41860U 16069B   26272.59774956  .00000049  00000+0  00000+0 0  9993
2 41860  55.5649  98.1906 0003774  44.8041 315.2844  1.70473984 61434
GSAT0213 (GALILEO 17)   
1 41861U 16069C   26258.30017772  .00000003  00000+0  00000+0 0  9993
2 41861  55.5571  98.5941 0002003 331.4312  28.6313  1.70474479 61056
GSAT0214 (GALILEO 18)   
1 41862U 16069D   26264.89902317  .00000042  00000+0  00000+0 0  9996
2 41862  55.5585  98.4041 0001465   3.2419 356.8418  1.70474219 61295
SES-15 (WAAS/PRN 133)   
1 42709U 17026A   26273.65836686  .00000061  00000+0  00000+0 0  9991
2 42709   0.0393 336.2314 0000549 237.9038 263.1393  1.00268773  8493
QZS-2 (QZSS/PRN 194)    
1 42738U 17028A   26272.49186332 -.00000159  00000+0  00000+0 0  9991
2 42738  39.2776 241.6191 0748172 270.6506 173.7461  1.00256861  8678
QZS-3 (QZSS/PRN 199)    
1 42917U 17048A   26273.00808800 -.00000345  00000+0  00000+0 0  9998
2 42917   0.0617 211.1279 0001984 340.7088 306.7975  1.00271771 33317
COSMOS 2522 (752)       
1 42939U 17055A   26274.17548984  .00000025  00000+0  00000+0 0  9997
2 42939  64.0786 188.2799 0008741 233.6460 126.3169  2.13102061 70234
QZS-4 (QZSS/PRN 195)    
1 42965U 17062A   26272.54442545 -.00000291  00000+0  00000+0 0  9995
2 42965  40.0392 342.1527 0750093 269.9642  92.6859  1.00269574 32853
BEIDOU-3 M1 (C19)       
1 43001U 17069A   26274.45017005 -.00000005  00000+0  00000+0 0  9998
2 43001  56.7897  59.5917 0007164 319.6176  40.3302  1.86230868 60582
BEIDOU-3 M2 (C20)       
1 43002U 17069B   26274.38917293 -.00000005  00000+0  00000+0 0  9999
2 43002  56.7887  59.6294 0005687   1.1240 358.8782  1.86230693 60578
GSAT0215 (GALILEO 19)   
1 43055U 17079A   26274.18686417  .00000018  00000+0  00000+0 0  9990
2 43055  55.0478 218.5922 0002839 289.5490  70.4063  1.70473660 54795
GSAT0216 (GALILEO 20)   
1 43056U 17079B   26261.57308714  .00000017  00000+0  00000+0 0  9990
2 43056  55.0525 218.9384 0004502 291.2665  68.6589  1.70474060 54593
GSAT0217 (GALILEO 21)   
1 43057U 17079C   26265.89999000  .00000011  00000+0  00000+0 0  9998
2 43057  55.0493 218.8172 0003908 307.6838  52.2454  1.70473918 54653
GSAT0218 (GALILEO 22)   
1 43058U 17079D   26273.74568844  .00000019  00000+0  00000+0 0  9998
2 43058  55.0466 218.5995 0004601 289.1555  70.7791  1.70473759 54815
BEIDOU-3 M7 (C27)       
1 43107U 18003A   26273.59469847 -.00000017  00000+0  00000+0 0  9996
2 43107  54.2313 298.6299 0002869 103.1136 256.9627  1.86228210 59315
BEIDOU-3 M8 (C28)       
1 43108U 18003B   26274.07477514 -.00000016  00000+0  00000+0 0  9990
2 43108  54.2237 298.5939 0004519 264.7872  95.2044  1.86231119 59337
BEIDOU-3 M4 (C22)       
1 43207U 18018A   26273.98152317 -.00000006  00000+0  00000+0 0  9995
2 43207  56.7483  59.6675 0005464  44.2500 315.7941  1.86230744 58719
BEIDOU-3 M3 (C21)       
1 43208U 18018B   26274.04802181 -.00000005  00000+0  00000+0 0  9994
2 43208  56.7480  59.6692 0005189 343.3568  16.6267  1.86230877 58712
BEIDOU-3 M9 (C29)       
1 43245U 18029A   26274.26660080 -.00000012  00000+0  00000+0 0  9999
2 43245  54.0960 296.2279 0001834 239.2055 120.8161  1.86228068 57870
BEIDOU-3 M10 (C30)      
1 43246U 18029B   26274.20041706 -.00000013  00000+0  00000+0 0  9993
2 43246  54.0934 296.2573 0002850  10.0645 349.9810  1.86229238 57851
IRNSS-1I                
1 43286U 18035A   26273.54776890  .00000091  00000+0  00000+0 0  9994
2 43286  28.9989  72.5565 0021223 177.4421  11.6428  1.00269068 31138
COSMOS 2527 (756)       
1 43508U 18053A   26274.13776958  .00000034  00000+0  00000+0 0  9999
2 43508  65.6426  70.3771 0007469 213.6177 146.3452  2.13102144 64530
BEIDOU-2 IGSO-7 (C16)   
1 43539U 18057A   26274.60375925 -.00000113  00000+0  00000+0 0  9997
2 43539  55.2111 162.1485 0107892 236.2761 301.8560  1.00271349 30195
GSAT0221 (GALILEO 25)   
1 43564U 18060A   26265.43785046 -.00000078  00000+0  00000+0 0  9999
2 43564  57.1298 339.1540 0004899 270.7276  89.2757  1.70476363 50811
GSAT0222 (GALILEO 26)   
1 43565U 18060B   26271.52349989 -.00000065  00000+0  00000+0 0  9995
2 43565  57.1326 338.9933 0004709 246.1458 113.8774  1.70475383 50977
GSAT0219 (GALILEO 23)   
1 43566U 18060C   26272.91742088 -.00000068  00000+0  00000+0 0  9990
2 43566  57.1294 338.9566 0004609 274.8215  85.1964  1.70475974 50970
GSAT0220 (GALILEO 24)   
1 43567U 18060D   26259.06046681 -.00000101  00000+0  00000+0 0  9996
2 43567  57.1352 339.3320 0003758 269.7554  90.2540  1.70476411 50729
BEIDOU-3 M5 (C23)       
1 43581U 18062A   26273.88748368  .00000023  00000+0  00000+0 0  9993
2 43581  54.0809 178.7127 0003514 320.1063  39.9273  1.86228675 55604
BEIDOU-3 M6 (C24)       
1 43582U 18062B   26274.28833478  .00000017  00000+0  00000+0 0  9999
2 43582  54.0806 178.6882 0006836  35.6638 324.4405  1.86228036 55616
BEIDOU-3 M12 (C26)      
1 43602U 18067A   26273.15302848  .00000031  00000+0  00000+0 0  9990
2 43602  54.1767 177.4828 0009103  39.4053 320.7233  1.86227660 55076
BEIDOU-3 M11 (C25)      
1 43603U 18067B   26273.28836771  .00000030  00000+0  00000+0 0  9991
2 43603  54.1741 177.4417 0005489  30.0758 330.0182  1.86227196 55100
BEIDOU-3 M13 (C32)      
1 43622U 18072A   26274.31600032 -.00000006  00000+0  00000+0 0  9996
2 43622  56.7220  59.1646 0003930 322.8440  37.1296  1.86231035 54635
BEIDOU-3 M14 (C33)      
1 43623U 18072B   26273.64445715 -.00000007  00000+0  00000+0 0  9998
2 43623  56.7231  59.1811 0003283  24.3336 335.6817  1.86231080 54614
BEIDOU-3 M16 (C35)      
1 43647U 18078A   26273.26136719 -.00000014  00000+0  00000+0 0  9997
2 43647  53.9927 296.2912 0006157  29.7161 330.3605  1.86232253 54109
BEIDOU-3 M15 (C34)      
1 43648U 18078B   26273.39240973 -.00000014  00000+0  00000+0 0  9990
2 43648  53.9885 296.2867 0002714  32.1425 327.9154  1.86227361 54136
BEIDOU-3 G1 (C59)       
1 43683U 18085A   26274.58839505 -.00000110  00000+0  00000+0 0  9991
2 43683   2.6558  94.3615 0005261  27.7145 260.1498  1.00271000 29125
COSMOS 2529 (757)       
1 43687U 18086A   26274.23375473  .00000025  00000+0  00000+0 0  9991
2 43687  64.2951 189.0166 0009742 253.8010 106.1341  2.13102048 61542
BEIDOU-3 M17 (C36)      
1 43706U 18093A   26273.34182082  .00000029  00000+0  00000+0 0  9998
2 43706  54.1643 178.7313 0008054 305.2589 272.4506  1.86228246 53490
BEIDOU-3 M18 (C37)      
1 43707U 18093B   26273.95540925  .00000022  00000+0  00000+0 0  9993
2 43707  54.1651 178.7027 0007206 343.5395  16.4965  1.86226557 53500
GPS BIII-1  (PRN 04)    
1 43873U 18109A   26274.47960062  .00000032  00000+0  00000+0 0  9992
2 43873  55.7549  87.9944 0040454 196.2836 356.0163  2.00565413 57209
BEIDOU-3 IGSO-1 (C38)   
1 44204U 19023A   26273.73633801 -.00000211  00000+0  00000+0 0  9993
2 44204  58.8455  36.5728 0028087 224.1379 131.8743  1.00260446  8261
BEIDOU-2 G8 (C01)       
1 44231U 19027A   26274.65078743 -.00000249  00000+0  00000+0 0  9998
2 44231   1.9207  74.2057 0008822 276.2206  38.7606  1.00275357 27149
COSMOS 2534 (758)       
1 44299U 19030A   26272.40925312  .00000038  00000+0  00000+0 0  9995
2 44299  64.3686 189.1102 0011100 276.4237 258.4530  2.13102166 57145
BEIDOU-3 IGSO-2 (C39)   
1 44337U 19035A   26274.60460439 -.00000125  00000+0  00000+0 0  9999
2 44337  55.2494 157.9278 0038760 210.3373 339.2936  1.00267187 26739
GPS BIII-2  (PRN 18)    
1 44506U 19056A   26274.58162084 -.00000059  00000+0  00000+0 0  9998
2 44506  55.5778 326.9086 0066382 200.7138 331.2700  2.00571450 52207
BEIDOU-3 M24 (C46)      
1 44542U 19061A   26266.50572373 -.00000008  00000+0  00000+0 0  9997
2 44542  54.4306 179.4090 0020747  95.6918 264.5686  1.86175926 47622
BEIDOU-3 M23 (C45)      
1 44543U 19061B   26274.33700713  .00000017  00000+0  00000+0 0  9998
2 44543  54.3904 179.1187 0006072   8.7730 113.0304  1.86227521 47772
EUTELSAT 5 WEST B (EGN*)
1 44624U 19067A   26274.39568947 -.00000044  00000+0  00000+0 0  9992
2 44624   0.0648 359.3208 0003259 195.3376 312.9423  1.00271490 25491
BEIDOU-3 IGSO-3 (C40)   
1 44709U 19073A   26273.42297128 -.00000168  00000+0  00000+0 0  9993
2 44709  54.6251 279.7496 0046553 198.5456 161.2828  1.00258026 25519
BEIDOU-3 M22 (C44)      
1 44793U 19078A   26271.17892248 -.00000014  00000+0  00000+0 0  9995
2 44793  53.8399 296.1946 0004867  38.8470 321.2374  1.86227454 46560
BEIDOU-3 M21 (C43)      
1 44794U 19078B   26274.00336417 -.00000013  00000+0  00000+0 0  9991
2 44794  53.8109 296.0536 0002772  25.9353 334.1182  1.86227801 46627
COSMOS 2544 (759)       
1 44850U 19088A   26274.08205244  .00000033  00000+0  00000+0 0  9997
2 44850  65.6305  70.2008 0012378 244.4099 115.4722  2.13102841 52975
BEIDOU-3 M19 (C41)      
1 44864U 19090A   26272.63340284 -.00000008  00000+0  00000+0 0  9991
2 44864  56.6549  59.3453 0015845 291.5142  68.1515  1.86231249 46179
BEIDOU-3 M20 (C42)      
1 44865U 19090B   26274.11435523 -.00000006  00000+0  00000+0 0  9996
2 44865  56.6579  59.3314 0013068 306.6149  55.5196  1.86231083 46192
BEIDOU-3 G2 (C60)       
1 45344U 20017A   26274.62639718 -.00000142  00000+0  00000+0 0  9999
2 45344   2.6197  48.6591 0002626 153.0410 114.2340  1.00272661 24321
COSMOS 2545 (760)       
1 45358U 20018A   26274.27696654 -.00000009  00000+0  00000+0 0  9990
2 45358  64.2862 308.6842 0012159 238.1693 121.7746  2.13102637 50925
BEIDOU-3 G3 (C61)       
1 45807U 20040A   26274.63246387 -.00000356  00000+0  00000+0 0  9993
2 45807   2.7026  67.3533 0003051 276.4727   4.8093  1.00269756 23133
GPS BIII-3  (PRN 23)    
1 45854U 20041A   26274.47295803 -.00000063  00000+0  00000+0 0  9990
2 45854  56.7337  24.8291 0068658 206.5033 181.2683  2.00572863 46177
GALAXY 30 (WAAS/PRN 135)
1 46114U 20056C   26274.50044619  .00000034  00000+0  00000+0 0  9994
2 46114   0.0163 226.1345 0002583 330.5463 228.7357  1.00271438 22355
COSMOS 2547 (705K)      
1 46805U 20075A   26273.99835882  .00000028  00000+0  00000+0 0  9997
2 46805  64.5996 188.9474 0007965 234.1914 125.7772  2.13099805 46161
GPS BIII-4  (PRN 14)    
1 46826U 20078A   26274.20132132  .00000023  00000+0  00000+0 0  9991
2 46826  53.9640 206.4832 0076489 208.3746 322.4888  2.00564843 43637
GPS BIII-5  (PRN 11)    
1 48859U 21054A   26274.28697208 -.00000061  00000+0  00000+0 0  9995
2 48859  55.1159 328.1894 0029064 231.6514 186.8256  2.00562412 38885
QZS-1R (QZSS/PRN 196)   
1 49336U 21096A   26273.81807464 -.00000213  00000+0  00000+0 0  9996
2 49336  37.6813  78.0235 0744939 270.1521  90.6941  1.00281380 18072
GSAT0223 (GALILEO 27)   
1 49809U 21116A   26274.29515687 -.00000073  00000+0  00000+0 0  9994
2 49809  57.1170 338.8080 0004404 228.7767 212.0341  1.70475963 29998
GSAT0224 (GALILEO 28)   
1 49810U 21116B   26268.69962216 -.00000066  00000+0  00000+0 0  9999
2 49810  57.1203 338.9593 0003846 231.3014 128.0413  1.70476289 29911
COSMOS 2557 (706K)      
1 52984U 22075A   26274.16168699 -.00000013  00000+0  00000+0 0  9994
2 52984  64.2309 310.7462 0012997 270.2221  89.6935  2.13102224 32979
COSMOS 2559 (707K)      
1 54031U 22130A   26274.45084068 -.00000013  00000+0  00000+0 0  9990
2 54031  64.2032 310.8149 0013402 190.0230 170.0138  2.13101545 30952
COSMOS 2564 (761)       
1 54377U 22161A   26271.94752367  .00000039  00000+0  00000+0 0  9999
2 54377  64.7416 189.2708 0010515 215.9353 144.0316  2.13101982 29840
GPS BIII-6  (PRN 28)    
1 55268U 23009A   26274.40570189  .00000027  00000+0  00000+0 0  9992
2 55268  55.1313 144.3409 0005984 326.1826 217.5709  2.00563944 27378
BEIDOU-3 G4 (C62)       
1 56564U 23066A   26274.50788087 -.00000283  00000+0  00000+0 0  9999
2 56564   0.4447   2.6223 0005828 209.6427 120.8787  1.00273690 12458
NVS-01 (IRNSS-1J)       
1 56759U 23076A   26274.56495024 -.00000341  00000+0  00000+0 0  9993
2 56759   1.9233 239.3818 0006634   5.0862  98.7339  1.00267061 12180
COSMOS 2569 (703K)      
1 57517U 23114A   26274.30581814  .00000032  00000+0  00000+0 0  9990
2 57517  65.3691  69.0459 0008717 286.7788  73.1349  2.13102476 24525
BEIDOU-3 M28 (C50)      
1 58654U 23207A   26273.54296830 -.00000010  00000+0  00000+0 0  9999
2 58654  55.8515  58.7559 0000156  40.1099 319.8912  1.86229500 18806
BEIDOU-3 M26 (C48)      
1 58655U 23207B   26274.41441094 -.00000009  00000+0  00000+0 0  9999
2 58655  55.8543  58.7132 0001463 242.4611 117.5251  1.86229370 18808
GSAT0225 (GALILEO 29)   
1 59598U 24079A   26272.84609083  .00000047  00000+0  00000+0 0  9994
2 59598  55.1888  98.1543 0001710 131.6112 245.6602  1.70474105 15108
GSAT0227 (GALILEO 30)   
1 59600U 24079C   26273.00152252  .00000046  00000+0  00000+0 0  9997
2 59600  55.1846  98.1477 0004340  99.4915 260.6132  1.70474182 15151
GSAT0232 (GALILEO 32)   
1 61182U 24167A   26272.34016160  .00000019  00000+0  00000+0 0  9996
2 61182  55.1608 218.4590 0005178 233.9786 295.8031  1.70473313 12654
GSAT0226 (GALILEO 31)   
1 61183U 24167B   26274.47821317  .00000016  00000+0  00000+0 0  9998
2 61183  55.1587 218.4075 0001883 245.5217 247.7570  1.70473227 12665
BEIDOU-3 M25 (C47)      
1 61186U 24168B   26274.33763576 -.00000016  00000+0  00000+0 0  9990
2 61186  54.3765 298.5430 0004773 290.1167 136.2130  1.86229815 13767
BEIDOU-3 M27 (C49)      
1 61187U 24168C   26274.64341509 -.00000015  00000+0  00000+0 0  9992
2 61187  54.3716 298.5148 0001170 320.8289  85.5699  1.86229925 11243
GPS BIII-7  (PRN 01)    
1 62339U 24242A   26274.51066117 -.00000064  00000+0  00000+0 0  9994
2 62339  54.7955 329.8661 0019834   2.3887 340.1066  2.00555095 13384
QZS-6 (QZSS/PRN 200)    
1 62876U 25023A   26274.64188693 -.00000236  00000+0  00000+0 0  9997
2 62876   0.0102 223.8892 0002224 347.9169 120.2034  1.00269772  6010
COSMOS 2584 (704K)      
1 63130U 25042A   26273.25387626  .00000028  00000+0  00000+0 0  9993
2 63130  65.1510  69.2342 0006790 203.5737 156.4042  2.13103238 12286
GPS BIII-8  (PRN 21)    
1 64202U 25116A   26260.32003326 -.00000081  00000+0  00000+0 0  9992
2 64202  55.2945  27.4305 0009051 334.7424  24.4974  2.00569444  9710
COSMOS 2596 (708K)      
1 65590U 25206B   26274.49814234 -.00000013  00000+0  00000+0 0  9999
2 65590  64.5675 311.2777 0012795 301.5913  48.2201  2.13100494  8171
GSAT0233 (GALILEO 33)   
1 67160U 25302A   26274.39628299  .00000039  00000+0  00000+0 0  9991
2 67160  54.4056  99.1037 0003193 142.4265  37.2760  1.70474009  4938
GSAT0234 (GALILEO 34)   
1 67162U 25302C   26273.82277701  .00000041  00000+0  00000+0 0  9991
2 67162  54.4072  99.1193 0000449  98.3338 269.4909  1.70474017  4980
GPS BIII-9  (PRN 20)    
1 67588U 26017A   26273.89285060  .00000026  00000+0  00000+0 0  9994
2 67588  55.1630  84.5146 0020799 264.4997  95.2920  2.00568287433737
GPS BIII-10 (PRN 13)    
1 68791U 26087A   26264.30264354 -.00000012  00000+0  00000+0 0  9993
2 68791  54.9540 203.9902 0021764 102.4142  19.8323  2.00578319  2765
