EWS-G3 (GOES 14)        
1 35491U 09033A   26275.12339535 -.00000007  00000+0  00000+0 0  9996
2 35491   1.9591  81.5057 0002317 116.0155 288.3749  1.00069951  7668
EWS-G2 (GOES 15)        
1 36411U 10008A   26275.12200867  .00000017  00000+0  00000+0 0  9998
2 36411   1.5662  81.7317 0004893  92.7854 303.5857  1.00272293 60714
GOES 16                 
1 41866U 16071A   26275.30873556 -.00000097  00000+0  00000+0 0  9994
2 41866   0.5996  84.0254 0002287 147.4449 146.0294  1.00270964 36173
GOES 17                 
1 43226U 18022A   26275.27128253 -.00000188  00000+0  00000+0 0  9998
2 43226   1.2063  83.8658 0001428 155.7797 139.5212  1.00269656 31490
GOES 18                 
1 51850U 22021A   26275.25642182  .00000091  00000+0  00000+0 0  9996
2 51850   0.0351  18.6747 0000747 242.9432  64.6932  1.00271827  7664
GOES 19                 
1 60133U 24119A   26275.23797940 -.00000254  00000+0  00000+0 0  9993
2 60133   0.0437  23.3509 0000902 242.8652 115.2518  1.00270738  8033
