GPS BIIR-5  (PRN 22)    
1 26407U 00040A   26274.63014552  .00000023  00000+0  00000+0 0  9993
2 26407  54.8348 210.9384 0117327 304.1901 154.9947  2.00558399192089
GPS BIIR-8  (PRN 16)    
1 27663U 03005A   26274.59644153  .00000023  00000+0  00000+0 0  9993
2 27663  54.8645 210.7450 0151213  53.8402 156.8597  2.00554699173442
GPS BIIR-11 (PRN 19)    
1 28190U 04009A   26274.20599299  .00000024  00000+0  00000+0 0  9993
2 28190  54.7492 271.3939 0118337 176.9827 266.2618  2.00572934165072
GPS BIIR-13 (PRN 02)    
1 28474U 04045A   26274.08736936 -.00000050  00000+0  00000+0 0  9995
2 28474  55.0672 320.6233 0172869 319.0886 101.9046  2.00560377160557
GPS BIIRM-1 (PRN 17)    
1 28874U 05038A   26274.11236824  .00000026  00000+0  00000+0 0  9999
2 28874  54.7998 268.8933 0128680 297.9659 106.5551  2.00558289153960
GPS BIIRM-2 (PRN 31)    
1 29486U 06042A   26274.41394289  .00000025  00000+0  00000+0 0  9997
2 29486  54.7170 147.1185 0109231  57.7235 105.0710  2.00564504146525
GPS BIIRM-3 (PRN 12)    
1 29601U 06052A   26274.11830067  .00000027  00000+0  00000+0 0  9995
2 29601  54.9199 209.8110 0085987  91.1733 269.8172  2.00563832145531
GPS BIIRM-4 (PRN 15)    
1 32260U 07047A   26274.42674349  .00000013  00000+0  00000+0 0  9993
2 32260  54.1807  75.6904 0168318  89.7211 272.2263  2.00575202138948
GPS BIIRM-5 (PRN 29)    
1 32384U 07062A   26274.48648197  .00000026  00000+0  00000+0 0  9999
2 32384  54.9547 269.8701 0035886 170.3157   3.2294  2.00565740137643
GPS BIIRM-6 (PRN 07)    
1 32711U 08012A   26274.33555128  .00000027  00000+0  00000+0 0  9995
2 32711  54.5060 145.6819 0211611 248.6737 109.1429  2.00553175135888
GPS BIIRM-8 (PRN 05)    
1 35752U 09043A   26274.33309840 -.00000065  00000+0  00000+0 0  9999
2 35752  56.2711  23.2918 0050881  86.4416 283.2635  2.00575855125499
GPS BIIF-1  (PRN 25)    
1 36585U 10022A   26273.42039142  .00000029  00000+0  00000+0 0  9996
2 36585  54.2560 204.3255 0116573  55.9948 138.5705  2.00610692119708
GPS BIIF-3  (PRN 24)    
1 38833U 12053A   26273.01769494  .00000041  00000+0  00000+0 0  9999
2 38833  53.6000 139.3007 0186544  67.7498 294.3183  2.00557165101545
GPS BIIF-4  (PRN 27)    
1 39166U 13023A   26273.88182629  .00000028  00000+0  00000+0 0  9996
2 39166  54.4291 264.6599 0143015  51.1768 310.0896  2.00563023 98000
GPS BIIF-5  (PRN 30)    
1 39533U 14008A   26273.88323391  .00000030  00000+0  00000+0 0  9994
2 39533  53.6652 145.0051 0083574 231.5397 127.7990  2.00566614 91808
GPS BIIF-6  (PRN 06)    
1 39741U 14026A   26274.16348617 -.00000057  00000+0  00000+0 0  9995
2 39741  56.4388 327.3867 0039938 323.9522  35.8453  2.00553266 90662
GPS BIIF-7  (PRN 09)    
1 40105U 14045A   26274.25197276  .00000027  00000+0  00000+0 0  9991
2 40105  55.4302  84.2407 0036623 120.5733 239.8174  2.00565132 88203
GPS BIIF-8  (PRN 03)    
1 40294U 14068A   26272.62793530 -.00000058  00000+0  00000+0 0  9994
2 40294  57.0546  26.9410 0066761  73.9572 286.7866  2.00557667 87308
GPS BIIF-9  (PRN 26)    
1 40534U 15013A   26273.26053465  .00000027  00000+0  00000+0 0  9994
2 40534  53.1542 199.8354 0113820  41.5085 319.3685  2.00569724 83938
GPS BIIF-10 (PRN 08)    
1 40730U 15033A   26273.92465027  .00000028  00000+0  00000+0 0  9999
2 40730  53.9089 262.7193 0118060  30.7202 329.9604  2.00550566 82114
GPS BIIF-11 (PRN 10)    
1 41019U 15062A   26274.47371532 -.00000060  00000+0  00000+0 0  9997
2 41019  57.0263  26.7263 0116893 231.3263 127.6394  2.00566685 79965
GPS BIIF-12 (PRN 32)    
1 41328U 16007A   26274.06325230  .00000028  00000+0  00000+0 0  9992
2 41328  55.5975  85.2628 0098138 247.2965 111.6927  2.00571611 77960
GPS BIII-1  (PRN 04)    
1 43873U 18109A   26274.47960062  .00000032  00000+0  00000+0 0  9992
2 43873  55.7549  87.9944 0040454 196.2836 356.0163  2.00565413 57209
GPS BIII-2  (PRN 18)    
1 44506U 19056A   26274.58162084 -.00000059  00000+0  00000+0 0  9998
2 44506  55.5778 326.9086 0066382 200.7138 331.2700  2.00571450 52207
GPS BIII-3  (PRN 23)    
1 45854U 20041A   26274.47295803 -.00000063  00000+0  00000+0 0  9990
2 45854  56.7337  24.8291 0068658 206.5033 181.2683  2.00572863 46177
GPS BIII-4  (PRN 14)    
1 46826U 20078A   26274.20132132  .00000023  00000+0  00000+0 0  9991
2 46826  53.9640 206.4832 0076489 208.3746 322.4888  2.00564843 43637
GPS BIII-5  (PRN 11)    
1 48859U 21054A   26274.28697208 -.00000061  00000+0  00000+0 0  9995
2 48859  55.1159 328.1894 0029064 231.6514 186.8256  2.00562412 38885
GPS BIII-6  (PRN 28)    
1 55268U 23009A   26274.40570189  .00000027  00000+0  00000+0 0  9992
2 55268  55.1313 144.3409 0005984 326.1826 217.5709  2.00563944 27378
GPS BIII-7  (PRN 01)    
1 62339U 24242A   26274.51066117 -.00000064  00000+0  00000+0 0  9994
2 62339  54.7955 329.8661 0019834   2.3887 340.1066  2.00555095 13384
GPS BIII-8  (PRN 21)    
1 64202U 25116A   26260.32003326 -.00000081  00000+0  00000+0 0  9992
2 64202  55.2945  27.4305 0009051 334.7424  24.4974  2.00569444  9710
GPS BIII-9  (PRN 20)    
1 67588U 26017A   26273.89285060  .00000026  00000+0  00000+0 0  9994
2 67588  55.1630  84.5146 0020799 264.4997  95.2920  2.00568287433737
GPS BIII-10 (PRN 13)    
1 68791U 26087A   26264.30264354 -.00000012  00000+0  00000+0 0  9993
2 68791  54.9540 203.9902 0021764 102.4142  19.8323  2.00578319  2765
