HULIANWANG DIGUI-01     
1 62323U 24240A   26243.92425629  .00000064  00000+0  11556-3 0  9994
2 62323  86.5018 317.7010 0001954  91.7537 268.3821 13.24413373 82669
HULIANWANG DIGUI-02     
1 62324U 24240B   26243.93172146  .00000066  00000+0  11883-3 0  9994
2 62324  86.5048 317.8790 0001976  92.3574 267.7787 13.24413317 82674
HULIANWANG DIGUI-03     
1 62325U 24240C   26243.91672919  .00000062  00000+0  11013-3 0  9997
2 62325  86.5000 317.5928 0001883  91.5811 268.5538 13.24412096 82660
HULIANWANG DIGUI-04     
1 62326U 24240D   26243.90918294  .00000053  00000+0  89104-4 0  9993
2 62326  86.5010 317.6430 0001833  88.0570 272.0774 13.24412321 82662
HULIANWANG DIGUI-05     
1 62327U 24240E   26243.90160725  .00000040  00000+0  60073-4 0  9992
2 62327  86.5063 317.9555 0001738  87.7588 272.3745 13.24413033 82663
HULIANWANG DIGUI-06     
1 62328U 24240F   26243.96213572  .00000027  00000+0  28903-4 0  9999
2 62328  86.5000 317.5460 0001990  86.8838 273.2524 13.24410517 82674
HULIANWANG DIGUI-07     
1 62329U 24240G   26243.95447527  .00000032  00000+0  40727-4 0  9992
2 62329  86.4970 317.3656 0001939  90.3470 269.7887 13.24413110 82674
HULIANWANG DIGUI-08     
1 62330U 24240H   26243.89403758  .00000027  00000+0  29465-4 0  9995
2 62330  86.5054 317.9007 0001716  85.7043 274.4287 13.24413369 82665
HULIANWANG DIGUI-09     
1 62331U 24240J   26243.94696440  .00000042  00000+0  62872-4 0  9990
2 62331  86.5020 317.7190 0001903  91.7035 268.4317 13.24411947 82663
HULIANWANG DIGUI-10     
1 62332U 24240K   26243.93938517  .00000056  00000+0  95822-4 0  9990
2 62332  86.5051 317.8966 0001960  88.4415 271.6943 13.24412773 82667
HULIANWANG DIGUI-11     
1 62971U 25030A   26243.86597084 -.00000097  00000+0  59092-4 0  9994
2 62971  50.0025 324.3818 0000452  33.3606 326.7295 13.29326257 75927
HULIANWANG DIGUI-12     
1 62972U 25030B   26243.87436586 -.00000096  00000+0  60434-4 0  9996
2 62972  50.0041 324.4928 0000433  28.8637 331.2259 13.29323924 75920
HULIANWANG DIGUI-13     
1 62973U 25030C   26243.93267761 -.00000101  00000+0  48677-4 0  9993
2 62973  50.0045 324.1522 0000263  15.5666 344.5214 13.29325701 75932
HULIANWANG DIGUI-14     
1 62974U 25030D   26243.83247780 -.00000097  00000+0  58800-4 0  9995
2 62974  50.0050 324.3162 0000221  23.8743 336.2139 13.29326136 75929
HULIANWANG DIGUI-15     
1 62975U 25030E   26243.92434361 -.00000099  00000+0  53522-4 0  9997
2 62975  50.0045 324.1120 0000318  32.4954 327.5937 13.29326074 75934
HULIANWANG DIGUI-16     
1 62976U 25030F   26243.89936460 -.00000097  00000+0  59077-4 0  9990
2 62976  50.0067 324.0794 0000232  14.3179 345.7700 13.29327065 75939
HULIANWANG DIGUI-17     
1 62977U 25030G   26243.89090814 -.00000092  00000+0  68891-4 0  9994
2 62977  50.0080 324.0916 0000386  14.3537 345.7347 13.29327407 75936
HULIANWANG DIGUI-18     
1 62978U 25030H   26243.88260256 -.00000092  00000+0  68440-4 0  9993
2 62978  50.0084 324.0646 0000423  12.1168 347.9714 13.29324863 75934
HULIANWANG DIGUI-19     
1 62979U 25030J   26243.84113748 -.00000099  00000+0  53178-4 0  9992
2 62979  50.0069 324.4454 0000330   1.1087 358.9785 13.29320487 75921
HULIANWANG DIGUI-20     
1 63687U 25086A   26243.95070235  .00000012  00000+0 -52888-5 0  9998
2 63687  86.5013 287.6150 0002204  87.7799 272.3588 13.24413947 64901
HULIANWANG DIGUI-21     
1 63688U 25086B   26243.95833587  .00000019  00000+0  10444-4 0  9993
2 63688  86.5041 287.6908 0002324  89.0137 271.1263 13.24412579 64893
HULIANWANG DIGUI-22     
1 63689U 25086C   26243.89029428  .00000023  00000+0  20326-4 0  9993
2 63689  86.5006 287.5561 0002176  86.8508 273.2876 13.24412941 64886
HULIANWANG DIGUI-23     
1 63690U 25086D   26243.90538889  .00000043  00000+0  65219-4 0  9995
2 63690  86.5048 287.7600 0002197  87.4186 272.7200 13.24412718 64889
HULIANWANG DIGUI-24     
1 63691U 25086E   26243.91295788  .00000047  00000+0  75014-4 0  9993
2 63691  86.5054 287.7959 0002292  88.1044 272.0353 13.24413269 64885
HULIANWANG DIGUI-25     
1 63692U 25086F   26243.92053235  .00000054  00000+0  92664-4 0  9992
2 63692  86.4993 287.5090 0002219  89.4068 270.7320 13.24412754 64887
HULIANWANG DIGUI-26     
1 63693U 25086G   26243.89787062  .00000033  00000+0  41815-4 0  9990
2 63693  86.5042 287.7274 0002394  83.7446 276.3960 13.24411808 64882
HULIANWANG DIGUI-27     
1 63694U 25086H   26243.92799642  .00000047  00000+0  75243-4 0  9999
2 63694  86.5003 287.5573 0002264  87.6629 272.4764 13.24414560 64889
HULIANWANG DIGUI-28     
1 63695U 25086J   26243.94312174  .00000020  00000+0  11895-4 0  9997
2 63695  86.4967 287.3949 0002166  86.7882 273.3500 13.24413450 64880
HULIANWANG DIGUI-29     
1 63696U 25086K   26243.93558953  .00000030  00000+0  36668-4 0  9990
2 63696  86.4995 287.5259 0002271  89.7314 270.4081 13.24413786 64882
HULIANWANG DIGUI-30     
1 64283U 25121A   26243.94313333  .00000059  00000+0  10343-3 0  9997
2 64283  86.5050 348.0074 0001527 102.1461 257.9844 13.24409776 60182
HULIANWANG DIGUI-31     
1 64284U 25121B   26243.93544020  .00000064  00000+0  11461-3 0  9994
2 64284  86.5071 348.0960 0001543 101.9428 258.1879 13.24415545 60180
HULIANWANG DIGUI-32     
1 64285U 25121C   26243.92788682  .00000061  00000+0  10739-3 0  9992
2 64285  86.5011 347.8264 0001671  99.3714 260.7609 13.24411512 60189
HULIANWANG DIGUI-33     
1 64286U 25121D   26243.92035428  .00000056  00000+0  95582-4 0  9990
2 64286  86.5069 348.0842 0001535 101.0693 259.0614 13.24411108 60182
HULIANWANG DIGUI-34     
1 64287U 25121E   26243.91280887  .00000049  00000+0  79232-4 0  9997
2 64287  86.5047 347.9799 0001232 105.6433 254.4837 13.24411820 60181
HULIANWANG DIGUI-35     
1 64956U 25159A   26243.95063527 -.00000068  00000+0 -19278-3 0  9991
2 64956  86.4891 256.8257 0001220 279.8174  80.2822 13.24412353 53150
HULIANWANG DIGUI-36     
1 64957U 25159B   26243.94689884 -.00000069  00000+0 -19411-3 0  9991
2 64957  86.4910 256.9018 0002131  98.3200 261.8176 13.24407944 53154
HULIANWANG DIGUI-37     
1 64958U 25159C   26243.93930073 -.00000059  00000+0 -17100-3 0  9992
2 64958  86.4852 256.6648 0001947  96.9311 263.2045 13.24408599 53155
HULIANWANG DIGUI-38     
1 64959U 25159D   26243.93179403 -.00000063  00000+0 -18009-3 0  9999
2 64959  86.4910 256.8947 0001935  95.3550 264.7805 13.24408391 53150
HULIANWANG DIGUI-39     
1 64960U 25159E   26243.92422992 -.00000046  00000+0 -14147-3 0  9994
2 64960  86.4886 256.7951 0002035  94.5686 265.5681 13.24408223 53156
HULIANWANG DIGUI-40     
1 65043U 25162A   26243.87179670 -.00000100  00000+0  52847-4 0  9997
2 65043  50.0018 354.4699 0000556 199.0251 161.0600 13.29326409 53413
HULIANWANG DIGUI-41     
1 65044U 25162B   26243.86341331 -.00000101  00000+0  49527-4 0  9994
2 65044  50.0027 354.4573 0000602 199.4219 160.6631 13.29329241 53422
HULIANWANG DIGUI-42     
1 65045U 25162C   26243.85511300 -.00000104  00000+0  44075-4 0  9995
2 65045  49.9993 354.3055 0000579 197.1968 162.8885 13.29324210 53421
HULIANWANG DIGUI-43     
1 65046U 25162D   26243.84670031 -.00000102  00000+0  48495-4 0  9990
2 65046  50.0010 354.3166 0000525 193.1848 166.9010 13.29328481 53421
HULIANWANG DIGUI-44     
1 65047U 25162E   26243.83851896 -.00000100  00000+0  52557-4 0  9992
2 65047  50.0037 354.3578 0001349 139.4834 220.6138 13.29320882 53438
HULIANWANG DIGUI-45     
1 65048U 25162F   26243.82999879 -.00000095  00000+0  61679-4 0  9994
2 65048  50.0067 354.4079 0000566 196.9892 163.0961 13.29325571 53424
HULIANWANG DIGUI-46     
1 65049U 25162G   26243.89684235 -.00000093  00000+0  66965-4 0  9990
2 65049  50.0085 354.1513 0000553 201.8108 158.2741 13.29329634 53434
HULIANWANG DIGUI-47     
1 65050U 25162H   26243.88849972 -.00000097  00000+0  57739-4 0  9995
2 65050  50.0049 353.9980 0000502 202.7936 157.2914 13.29329034 53439
HULIANWANG DIGUI-48     
1 65051U 25162J   26243.88012045 -.00000097  00000+0  58046-4 0  9991
2 65051  50.0060 353.9852 0000545 199.4481 160.6371 13.29329719 53430
HULIANWANG DIGUI-49     
1 65106U 25168A   26243.94248290 -.00000116  00000+0  17993-4 0  9996
2 65106  50.0029  54.2613 0007553 331.9862  28.0603 13.29325102 52766
HULIANWANG DIGUI-50     
1 65107U 25168B   26243.93407085 -.00000114  00000+0  21391-4 0  9990
2 65107  50.0000  54.1208 0008197 316.6505  43.3721 13.29324806 52765
HULIANWANG DIGUI-51     
1 65108U 25168C   26243.92525456 -.00000107  00000+0  35900-4 0  9996
2 65108  50.0037  54.1937 0009533 316.0526  43.9587 13.29328255 52765
HULIANWANG DIGUI-52     
1 65109U 25168D   26243.91724163 -.00000106  00000+0  38450-4 0  9994
2 65109  50.0031  54.1259 0009701 329.4765  30.5542 13.29326062 52764
HULIANWANG DIGUI-53     
1 65110U 25168E   26243.90858577 -.00000104  00000+0  42540-4 0  9995
2 65110  50.0038  54.1133 0008236 319.4995  40.5264 13.29329555 52762
HULIANWANG DIGUI-54     
1 65111U 25168F   26243.88370605 -.00000116  00000+0  17722-4 0  9991
2 65111  49.9989  53.8269 0010034 324.4507  35.5696 13.29329696 52764
HULIANWANG DIGUI-55     
1 65112U 25168G   26243.90044447 -.00000109  00000+0  32135-4 0  9994
2 65112  49.9995  53.9292 0011127 320.3934  39.6124 13.29325817 52764
HULIANWANG DIGUI-56     
1 65113U 25168H   26243.89219580 -.00000105  00000+0  41696-4 0  9993
2 65113  49.9986  53.8594 0011214 341.4373  18.6089 13.29325317 52769
HULIANWANG DIGUI-57     
1 65114U 25168J   26243.95057532 -.00000108  00000+0  35063-4 0  9992
2 65114  50.0015  53.5958 0008848 333.1976  26.8438 13.29329678 52788
HULIANWANG DIGUI-58     
1 65164U 25174A   26243.96607352  .00000028  00000+0  30503-4 0  9990
2 65164  86.4952 226.4217 0002214  88.0516 272.0872 13.24399130 50827
HULIANWANG DIGUI-59     
1 65165U 25174B   26243.89811567  .00000036  00000+0  48608-4 0  9992
2 65165  86.4913 226.3067 0002155  86.0735 274.0645 13.24399065 50818
HULIANWANG DIGUI-60     
1 65166U 25174C   26243.98122204  .00000043  00000+0  66640-4 0  9990
2 65166  86.4945 226.4031 0002266  86.8549 273.2844 13.24398462 50823
HULIANWANG DIGUI-61     
1 65167U 25174D   26243.91322585  .00000036  00000+0  49659-4 0  9991
2 65167  86.4953 226.4633 0002290  91.5057 268.6340 13.24399020 50814
HULIANWANG DIGUI-62     
1 65168U 25174E   26243.92060252  .00000025  00000+0  24190-4 0  9994
2 65168  86.4895 226.2490 0002370  88.2225 271.9180 13.24400871 50814
HULIANWANG DIGUI-63     
1 65169U 25174F   26243.92828998  .00000012  00000+0 -71588-5 0  9995
2 65169  86.4950 226.4473 0002338  90.8329 269.3073 13.24394938 50816
HULIANWANG DIGUI-64     
1 65170U 25174G   26243.93586123  .00000001  00000+0 -30804-4 0  9992
2 65170  86.4907 226.2986 0002324  86.8537 273.2863 13.24399118 50814
HULIANWANG DIGUI-65     
1 65171U 25174H   26243.95092201  .00000012  00000+0 -59055-5 0  9996
2 65171  86.4870 226.1698 0002230  90.7268 269.4122 13.24398914 50812
HULIANWANG DIGUI-66     
1 65172U 25174J   26243.94342084  .00000007  00000+0 -18659-4 0  9991
2 65172  86.4905 226.2993 0002254  86.8180 273.3212 13.24398713 50817
HULIANWANG DIGUI-67     
1 65173U 25174K   26243.95844385  .00000010  00000+0 -11312-4 0  9997
2 65173  86.4917 226.3479 0002212  87.8133 272.3255 13.24400098 50786
HULIANWANG DIGUI-68     
1 65228U 25178A   26243.90524747  .00000039  00000+0  57516-4 0  9990
2 65228  86.5043 347.9791 0001558  98.7703 261.3608 13.24412457 50334
HULIANWANG DIGUI-69     
1 65229U 25178B   26243.89774834  .00000030  00000+0  36103-4 0  9993
2 65229  86.5063 348.0513 0001635 100.7979 259.3339 13.24414219 50332
HULIANWANG DIGUI-70     
1 65230U 25178C   26243.89024051  .00000028  00000+0  32195-4 0  9998
2 65230  86.5002 347.8167 0001523 100.1553 259.9753 13.24411849 50339
HULIANWANG DIGUI-71     
1 65231U 25178D   26243.95824397  .00000040  00000+0  58398-4 0  9994
2 65231  86.5061 348.0095 0001547 100.1565 259.9743 13.24412744 50342
HULIANWANG DIGUI-72     
1 65232U 25178E   26243.95071022  .00000045  00000+0  71082-4 0  9994
2 65232  86.5044 347.9409 0001557  99.7052 260.4258 13.24412074 50340
HULIANWANG DIGUI-73     
1 65305U 25187A   26243.91831854 -.00000093  00000+0  67223-4 0  9994
2 65305  50.0056 294.2783 0000485 283.1543  76.9275 13.29325341 49771
HULIANWANG DIGUI-74     
1 65306U 25187B   26243.90178408 -.00000096  00000+0  60646-4 0  9998
2 65306  50.0098 294.3151 0000480 286.5774  73.5045 13.29323233 49772
HULIANWANG DIGUI-75     
1 65307U 25187C   26243.96022795 -.00000096  00000+0  61196-4 0  9993
2 65307  50.0090 293.9362 0000476 284.0538  76.0282 13.29324462 49787
HULIANWANG DIGUI-76     
1 65308U 25187D   26243.94353442 -.00000098  00000+0  55038-4 0  9998
2 65308  50.0015 294.2870 0000537 276.9973  83.0838 13.29325666 49775
HULIANWANG DIGUI-77     
1 65309U 25187E   26243.93509088 -.00000098  00000+0  56423-4 0  9996
2 65309  50.0050 294.3432 0000667 290.8889  69.1912 13.29325510 49771
HULIANWANG DIGUI-78     
1 65310U 25187F   26243.89349006 -.00000098  00000+0  55311-4 0  9990
2 65310  50.0115 294.3196 0000481 283.3026  76.7792 13.29324287 49776
HULIANWANG DIGUI-79     
1 65311U 25187G   26243.95197873 -.00000095  00000+0  62222-4 0  9997
2 65311  50.0045 294.4164 0000435 284.4746  75.6077 13.29321310 49773
HULIANWANG DIGUI-80     
1 65312U 25187H   26243.92678249 -.00000099  00000+0  54018-4 0  9994
2 65312  50.0035 294.2587 0000666 291.2810  68.7991 13.29324616 49774
HULIANWANG DIGUI-81     
1 65313U 25187J   26243.91027632 -.00000098  00000+0  56976-4 0  9992
2 65313  50.0075 294.2899 0000480 284.5558  75.5261 13.29321357 49789
HULIANWANG DIGUI-82     
1 65817U 25220A   26243.86369855  .00000053  00000+0  89720-4 0  9992
2 65817  86.5008  18.3020 0001852  82.2631 277.8714 13.24410501 44935
HULIANWANG DIGUI-83     
1 65818U 25220B   26243.85620193  .00000044  00000+0  67228-4 0  9996
2 65818  86.5031  18.3741 0001817  81.8779 278.2561 13.24410600 44936
HULIANWANG DIGUI-84     
1 65819U 25220C   26243.84861802  .00000042  00000+0  62941-4 0  9995
2 65819  86.4969  18.1593 0001849  83.4798 276.6547 13.24410290 44934
HULIANWANG DIGUI-85     
1 65820U 25220D   26243.91664829  .00000032  00000+0  40834-4 0  9991
2 65820  86.5030  18.3356 0001915  83.9513 276.1839 13.24409271 44946
HULIANWANG DIGUI-86     
1 65821U 25220E   26243.90913329  .00000016  00000+0  24046-5 0  9993
2 65821  86.5008  18.2602 0001424  95.7053 264.4244 13.24412070 44941
HULIANWANG DIGUI-87     
1 65995U 25231A   26243.41967454 -.00000096  00000+0  59622-4 0  9997
2 65995  49.9989 265.9964 0000124 308.9386  51.1475 13.29327139 42895
HULIANWANG DIGUI-88     
1 65996U 25231B   26243.42816461 -.00000097  00000+0  57774-4 0  9997
2 65996  49.9977 266.0090 0000188   2.0514 358.0359 13.29325542 42896
HULIANWANG DIGUI-89     
1 65997U 25231C   26243.48650178 -.00000098  00000+0  55230-4 0  9991
2 65997  49.9954 265.5963 0000082   2.0781 358.0092 13.29326553 42903
HULIANWANG DIGUI-90     
1 65998U 25231D   26243.55339549 -.00000098  00000+0  56964-4 0  9991
2 65998  49.9981 265.3564 0000141  13.2904 346.7971 13.29328410 42911
HULIANWANG DIGUI-91     
1 65999U 25231E   26243.31948550 -.00000103  00000+0  45910-4 0  9990
2 65999  50.0003 266.1707 0000131   6.3008 353.7866 13.29328827 42884
HULIANWANG DIGUI-92     
1 66000U 25231F   26243.98768906 -.00000103  00000+0  45596-4 0  9992
2 66000  50.0041 263.8000 0000079  16.2980 343.7895 13.29326307 42972
HULIANWANG DIGUI-93     
1 66001U 25231G   26243.51990781 -.00000100  00000+0  51433-4 0  9994
2 66001  50.0010 265.2545 0000137  10.1046 349.9829 13.29326919 42918
HULIANWANG DIGUI-94     
1 66002U 25231H   26243.45324517 -.00000103  00000+0  45356-4 0  9996
2 66002  50.0053 265.6648 0000124  24.6397 335.4481 13.29327880 42900
HULIANWANG DIGUI-95     
1 66003U 25231J   26243.73710440 -.00000101  00000+0  50279-4 0  9990
2 66003  50.0021 264.4318 0000128 353.6427   6.4444 13.29326451 42941
HULIANWANG DIGUI-96     
1 66412U 25258A   26243.91113956 -.00000116  00000+0  16903-4 0  9994
2 66412  50.0061  24.0509 0000309  73.3694 286.7212 13.29329683 39801
HULIANWANG DIGUI-97     
1 66413U 25258B   26243.64379871 -.00000119  00000+0  10611-4 0  9998
2 66413  50.0023  25.2222 0000427  61.6614 298.4301 13.29329369 39763
HULIANWANG DIGUI-98     
1 66414U 25258C   26243.63572460 -.00000118  00000+0  13026-4 0  9999
2 66414  50.0058  25.2713 0000469  48.1940 311.8972 13.29325899 39763
HULIANWANG DIGUI-99     
1 66415U 25258D   26243.90283975 -.00000110  00000+0  30672-4 0  9998
2 66415  50.0062  24.0107 0000437  69.0976 290.9943 13.29329238 39798
HULIANWANG DIGUI-100    
1 66416U 25258E   26243.70253998 -.00000117  00000+0  15685-4 0  9993
2 66416  50.0060  24.9635 0000506  75.9984 284.0944 13.29325941 39785
HULIANWANG DIGUI-101    
1 66417U 25258F   26243.69393622 -.00000114  00000+0  20804-4 0  9997
2 66417  50.0011  24.7935 0000337  85.8420 274.2490 13.29327007 39782
HULIANWANG DIGUI-102    
1 66418U 25258G   26243.81943909 -.00000113  00000+0  24572-4 0  9996
2 66418  50.0025  24.1542 0000340  69.8992 290.1917 13.29325595 39798
HULIANWANG DIGUI-103    
1 66419U 25258H   26243.73566273 -.00000112  00000+0  26945-4 0  9998
2 66419  50.0022  24.3624 0000506  77.5873 282.5055 13.29328992 39788
HULIANWANG DIGUI-104    
1 66420U 25258J   26243.72735843 -.00000116  00000+0  18148-4 0  9990
2 66420  50.0038  24.3647 0000359  63.4936 296.5973 13.29328725 39779
HULIANWANG DIGUI-105    
1 66915U 25285A   26243.43087114 -.00000098  00000+0  56694-4 0  9995
2 66915  50.0034 236.3657 0000390 198.5346 161.5512 13.29324795 36062
HULIANWANG DIGUI-106    
1 66916U 25285B   26243.19692397 -.00000106  00000+0  39493-4 0  9992
2 66916  50.0044 237.1551 0000422 195.5999 164.4860 13.29324951 36032
HULIANWANG DIGUI-107    
1 66917U 25285C   26243.94012764 -.00000095  00000+0  63058-4 0  9991
2 66917  50.0013 234.3400 0000422 205.2552 154.8299 13.29326641 36133
HULIANWANG DIGUI-108    
1 66918U 25285D   26243.93175736 -.00000094  00000+0  64278-4 0  9994
2 66918  50.0030 234.3423 0000420 208.3760 151.7090 13.29328123 36133
HULIANWANG DIGUI-109    
1 66919U 25285E   26243.24700434 -.00000097  00000+0  57967-4 0  9998
2 66919  50.0057 236.7799 0000477 224.7229 135.3605 13.29319010 36055
HULIANWANG DIGUI-110    
1 66920U 25285F   26243.99026488 -.00000101  00000+0  48679-4 0  9998
2 66920  50.0089 234.1074 0000369 214.3374 145.7475 13.29328659 36145
HULIANWANG DIGUI-111    
1 66921U 25285G   26243.23017552 -.00000108  00000+0  35444-4 0  9991
2 66921  50.0104 236.7958 0000407 212.0202 148.0645 13.29328088 36041
HULIANWANG DIGUI-112    
1 66922U 25285H   26243.22177380 -.00000105  00000+0  42042-4 0  9996
2 66922  50.0067 236.6753 0000428 202.4242 157.6611 13.29328043 36042
HULIANWANG DIGUI-113    
1 66923U 25285J   26243.43912133 -.00000103  00000+0  46346-4 0  9992
2 66923  50.0077 235.8440 0000398 202.3301 157.7554 13.29326423 36079
HULIANWANG DIGUI-114    
1 66953U 25287A   26243.76554556  .00000044  00000+0  69441-4 0  9998
2 66953  86.4877 256.8182 0001788  83.5479 276.5859 13.24409744 35348
HULIANWANG DIGUI-115    
1 66954U 25287B   26243.53140567 -.00000055  00000+0 -16275-3 0  9997
2 66954  86.4894 256.9341 0001532  74.2384 285.8919 13.24400763 35314
HULIANWANG DIGUI-116    
1 66955U 25287C   26243.97706528  .00000006  00000+0 -20598-4 0  9990
2 66955  86.4832 256.6156 0001565  79.6695 280.4615 13.24409580 35374
HULIANWANG DIGUI-117    
1 66956U 25287D   26243.74286499 -.00000059  00000+0 -17225-3 0  9997
2 66956  86.4893 256.8519 0002286 125.5549 234.5798 13.24412537 35342
HULIANWANG DIGUI-118    
1 66957U 25287E   26243.73531497 -.00000064  00000+0 -18290-3 0  9997
2 66957  86.4870 256.7840 0001634  80.8053 279.3266 13.24411920 35345
HULIANWANG DIGUI-119    
1 67059U 25295A   26243.86229025 -.00000079  00000+0  97062-4 0  9995
2 67059  50.0027 114.3695 0000902  13.1296 346.9599 13.29325111 35567
HULIANWANG DIGUI-120    
1 67060U 25295B   26243.92070376 -.00000077  00000+0  10045-3 0  9990
2 67060  50.0036 114.0252 0000967  12.1013 347.9882 13.29327500 35573
HULIANWANG DIGUI-121    
1 67061U 25295C   26243.92905502 -.00000077  00000+0  10077-3 0  9994
2 67061  49.9995 113.9805 0000931  10.7694 349.3198 13.29326377 35574
HULIANWANG DIGUI-122    
1 67062U 25295D   26243.91234536 -.00000074  00000+0  10728-3 0  9996
2 67062  50.0030 113.9699 0000928  11.6144 348.4750 13.29325067 35574
HULIANWANG DIGUI-123    
1 67063U 25295E   26243.90404723 -.00000076  00000+0  10406-3 0  9998
2 67063  50.0030 113.9305 0000859  15.5918 344.4980 13.29324851 35575
HULIANWANG DIGUI-124    
1 67064U 25295F   26243.89559280 -.00000082  00000+0  90417-4 0  9994
2 67064  49.9994 113.7941 0000929  12.1447 347.9447 13.29328456 35575
HULIANWANG DIGUI-125    
1 67065U 25295G   26243.88718645 -.00000086  00000+0  81443-4 0  9999
2 67065  49.9981 113.7305 0000884  11.1772 348.9119 13.29327747 35575
HULIANWANG DIGUI-126    
1 67066U 25295H   26243.87897710 -.00000083  00000+0  89451-4 0  9994
2 67066  49.9984 113.6934 0000856   6.8988 353.1896 13.29325717 35570
HULIANWANG DIGUI-127    
1 67067U 25295J   26243.87049921 -.00000073  00000+0  11103-3 0  9995
2 67067  50.0006 113.6906 0000902  10.5865 349.5026 13.29323628 35579
HULIANWANG DIGUI-128    
1 67236U 25311A   26243.36641309 -.00000101  00000+0  50367-4 0  9992
2 67236  50.0068 205.9419 0000475 250.3061 109.7760 13.29326220 33341
HULIANWANG DIGUI-129    
1 67237U 25311B   26243.90090580 -.00000097  00000+0  57360-4 0  9996
2 67237  50.0058 204.0751 0000431 259.4036 100.6787 13.29327468 33416
HULIANWANG DIGUI-130    
1 67238U 25311C   26243.87594736 -.00000093  00000+0  67429-4 0  9998
2 67238  50.0038 204.5604 0000484 249.9433 110.1387 13.29326137 33403
HULIANWANG DIGUI-131    
1 67239U 25311D   26243.58360405 -.00000099  00000+0  54344-4 0  9999
2 67239  50.0033 205.6729 0000510 248.8844 111.1973 13.29325821 33369
HULIANWANG DIGUI-132    
1 67240U 25311E   26243.85920407 -.00000086  00000+0  82805-4 0  9994
2 67240  50.0045 204.4892 0000425 251.2067 108.8759 13.29326674 33409
HULIANWANG DIGUI-133    
1 67241U 25311F   26243.91771384 -.00000097  00000+0  58035-4 0  9990
2 67241  50.0089 204.2234 0000441 256.7777 103.3047 13.29326699 33410
HULIANWANG DIGUI-134    
1 67242U 25311G   26243.92605733 -.00000094  00000+0  63897-4 0  9995
2 67242  50.0019 204.1259 0000450 252.0896 107.9927 13.29324347 33416
HULIANWANG DIGUI-135    
1 67243U 25311H   26243.86756684 -.00000089  00000+0  76415-4 0  9995
2 67243  50.0006 204.4532 0000480 248.4343 111.6478 13.29326074 33400
HULIANWANG DIGUI-136    
1 67244U 25311J   26243.90930058 -.00000097  00000+0  57620-4 0  9996
2 67244  50.0078 204.1559 0000414 261.7398  98.3427 13.29327044 33415
HULIANWANG DIGUI-137    
1 67435U 26007A   26243.86151169 -.00000085  00000+0  84396-4 0  9991
2 67435  50.0073 174.4639 0000562 299.2553  60.8263 13.29329601 30851
HULIANWANG DIGUI-138    
1 67436U 26007B   26243.50240738 -.00000094  00000+0  65319-4 0  9998
2 67436  50.0054 175.8609 0000559 299.4740  60.6076 13.29327898 30800
HULIANWANG DIGUI-139    
1 67437U 26007C   26243.04272476 -.00000088  00000+0  76932-4 0  9998
2 67437  50.0021 177.3790 0000444 278.0935  81.9886 13.29329365 30744
HULIANWANG DIGUI-140    
1 67438U 26007D   26243.51070924 -.00000090  00000+0  74141-4 0  9998
2 67438  50.0052 175.8954 0000554 299.3818  60.6999 13.29328748 30802
HULIANWANG DIGUI-141    
1 67439U 26007E   26243.85312822 -.00000082  00000+0  89538-4 0  9999
2 67439  50.0039 174.3589 0000562 300.7819  59.2998 13.29329583 30859
HULIANWANG DIGUI-142    
1 67440U 26007F   26243.84482949 -.00000083  00000+0  88567-4 0  9990
2 67440  50.0117 174.4586 0000546 301.4429  58.6390 13.29329469 30855
HULIANWANG DIGUI-143    
1 67441U 26007G   26243.53585882 -.00000084  00000+0  85581-4 0  9991
2 67441  50.0096 175.4577 0000505 315.3169  44.7663 13.29327754 30813
HULIANWANG DIGUI-144    
1 67442U 26007H   26243.07614195 -.00000092  00000+0  69263-4 0  9999
2 67442  50.0086 177.0114 0000590 300.2751  59.8063 13.29329072 30751
HULIANWANG DIGUI-145    
1 67443U 26007J   26243.06804357 -.00000091  00000+0  71263-4 0  9992
2 67443  50.0087 176.9759 0000528 301.3107  58.7713 13.29328613 30754
HULIANWANG DIGUI-146    
1 67522U 26013A   26243.78947539 -.00000100  00000+0  52872-4 0  9992
2 67522  50.0074  84.7694 0001042  34.7776 325.3164 13.29328331 30102
HULIANWANG DIGUI-147    
1 67523U 26013B   26243.93125652 -.00000089  00000+0  75284-4 0  9992
2 67523  50.0045  84.1273 0000972  38.9080 321.1862 13.29330193 30123
HULIANWANG DIGUI-148    
1 67524U 26013C   26243.92290181 -.00000089  00000+0  74583-4 0  9993
2 67524  50.0082  84.1604 0000984  37.6262 322.4679 13.29329919 30128
HULIANWANG DIGUI-149    
1 67525U 26013D   26243.91465644 -.00000093  00000+0  67200-4 0  9994
2 67525  50.0077  84.1069 0001195  33.3555 326.7392 13.29330248 30127
HULIANWANG DIGUI-150    
1 67526U 26013E   26243.82290080 -.00000097  00000+0  58727-4 0  9993
2 67526  50.0041  84.2185 0001016  36.8237 323.2705 13.29327456 30134
HULIANWANG DIGUI-151    
1 67527U 26013F   26243.83116131 -.00000087  00000+0  80079-4 0  9993
2 67527  50.0083  84.3431 0001005  38.1378 321.9565 13.29329390 30111
HULIANWANG DIGUI-152    
1 67528U 26013G   26243.81433075 -.00000091  00000+0  71198-4 0  9998
2 67528  50.0032  84.1611 0000989  36.9444 323.1496 13.29330292 30114
HULIANWANG DIGUI-153    
1 67529U 26013H   26243.95657363 -.00000095  00000+0  62837-4 0  9996
2 67529  50.0035  83.5836 0001033  39.2552 320.8395 13.29327013 30127
HULIANWANG DIGUI-154    
1 67530U 26013J   26243.87282960 -.00000090  00000+0  73436-4 0  9998
2 67530  50.0059  83.8562 0000969  38.4049 321.6892 13.29328682 30116
HULIANWANG DIGUI-155    
1 68129U 26047A   26243.40849827 -.00000070  00000+0  11559-3 0  9995
2 68129  50.0026 146.5965 0001214  14.1927 345.8979 13.29328560 23075
HULIANWANG DIGUI-156    
1 68130U 26047B   26243.92651763 -.00000068  00000+0  12136-3 0  9993
2 68130  50.0027 144.6683 0001190  20.6398 339.4522 13.29326610 23135
HULIANWANG DIGUI-157    
1 68131U 26047C   26243.99336402 -.00000073  00000+0  11073-3 0  9996
2 68131  49.9999 144.3160 0001159  16.9664 343.1247 13.29325929 23157
HULIANWANG DIGUI-158    
1 68132U 26047D   26243.98498493 -.00000071  00000+0  11495-3 0  9991
2 68132  50.0044 144.3365 0001214  15.6156 344.4753 13.29327299 23140
HULIANWANG DIGUI-159    
1 68133U 26047E   26243.90150850 -.00000076  00000+0  10442-3 0  9992
2 68133  50.0013 144.5201 0001206  12.0613 348.0288 13.29323451 23147
HULIANWANG DIGUI-160    
1 68134U 26047F   26243.88463290 -.00000080  00000+0  94714-4 0  9995
2 68134  50.0070 144.5133 0001152   1.2780 358.8095 13.29328673 23135
HULIANWANG DIGUI-161    
1 68135U 26047G   26243.89302354 -.00000082  00000+0  91656-4 0  9994
2 68135  50.0091 144.5845 0001146  12.8108 347.2793 13.29327771 23140
HULIANWANG DIGUI-162    
1 68136U 26047H   26243.72626338 -.00000102  00000+0  47242-4 0  9993
2 68136  50.0059 144.9974 0001229  20.1488 339.9432 13.29324634 23117
HULIANWANG DIGUI-163    
1 68137U 26047J   26242.96580813 -.00000070  00000+0  11640-3 0  9992
2 68137  50.0065 147.6531 0001146  16.4608 343.6301 13.29328521 23020
HULIANWANG DIGUI-164    
1 68656U 26076A   26243.90164991 -.00000003  00000+0 -40292-4 0  9993
2 68656  86.5003  18.3064 0001332 104.3436 255.7846 13.24406900 19395
HULIANWANG DIGUI-165    
1 68657U 26076B   26243.89401060  .00000001  00000+0 -32929-4 0  9998
2 68657  86.5026  18.3360 0001286  91.2596 268.8685 13.24409641 19390
HULIANWANG DIGUI-166    
1 68658U 26076C   26243.88657645  .00000020  00000+0  12202-4 0  9992
2 68658  86.4967  18.2430 0001313  92.1137 268.0148 13.24408192 19399
HULIANWANG DIGUI-167    
1 68659U 26076D   26243.87888466  .00000025  00000+0  24083-4 0  9994
2 68659  86.5022  18.3237 0001311  92.2250 267.9034 13.24410100 19398
HULIANWANG DIGUI-168    
1 68660U 26076E   26243.87142320  .00000044  00000+0  67237-4 0  9997
2 68660  86.5003  18.2911 0001300  92.1483 267.9800 13.24407024 19383
GUOWANG TEST OBJECT A   
1 69320U 26120A   26243.80165749  .00005237  00000+0  24983-3 0  9993
2 69320  55.0047  51.2660 0012927 129.1421 231.0750 15.20643578 14277
GUOWANG TEST OBJECT B   
1 69321U 26120B   26243.87470158  .00007578  00000+0  23717-3 0  9998
2 69321  54.9965  47.6221 0011087 131.7855 228.4121 15.34107056 14333
GUOWANG TEST OBJECT C   
1 69322U 26120C   26243.77441375  .00011718  00000+0  32740-3 0  9994
2 69322  54.9966  47.6996 0012608 142.0457 218.1462 15.37125451 14322
GUOWANG TEST OBJECT D   
1 69323U 26120D   26243.73895930  .00004211  00000+0  20001-3 0  9998
2 69323  55.0010  50.8829 0012803 152.4745 207.6956 15.21296046 14275
HULIANWANG DIGUI-169    
1 69572U 26137A   26242.66723806 -.00000132  00000+0 -16737-4 0  9997
2 69572  50.0078 329.0178 0000436 310.2886  49.7949 13.29511388 10231
HULIANWANG DIGUI-170    
1 69573U 26137B   26243.63619265 -.00000106  00000+0  39634-4 0  9990
2 69573  50.0009 325.4730 0000400  18.8567 341.2320 13.29377850 10370
HULIANWANG DIGUI-171    
1 69574U 26137C   26243.47744908 -.00000143  00000+0 -40472-4 0  9990
2 69574  49.9999 325.9451 0000937  28.1034 331.9889 13.29358568 10347
HULIANWANG DIGUI-172    
1 69575U 26137D   26242.64230340 -.00000153  00000+0 -61251-4 0  9998
2 69575  49.9993 328.8604 0000583  70.7091 289.3844 13.29695410 10232
HULIANWANG DIGUI-173    
1 69576U 26137E   26242.55889589 -.00000145  00000+0 -43742-4 0  9990
2 69576  50.0096 329.1436 0004749 169.6952 190.4019 13.30080496 10228
HULIANWANG DIGUI-174    
1 69577U 26137F   26242.70086408 -.00000148  00000+0 -49526-4 0  9996
2 69577  50.0061 328.5473 0000937 150.6270 209.4656 13.30038770 10252
HULIANWANG DIGUI-175    
1 69578U 26137G   26242.76787238 -.00000154  00000+0 -63194-4 0  9996
2 69578  49.9993 328.1901 0000886 225.5215 134.5585 13.30084651 10269
HULIANWANG DIGUI-176    
1 69579U 26137H   26242.75969441 -.00000122  00000+0  54442-5 0  9995
2 69579  50.0003 328.1892 0001546  28.5084 331.5873 13.30291262 10259
HULIANWANG DIGUI-177    
1 69580U 26137J   26242.75136585 -.00101883  00000+0 -21793+0 0  9996
2 69580  50.0001 328.1291 0002911  46.9323 313.1793 13.30490923 10262
