INTELSAT 902 (IS-902)   
1 26900U 01039A   26274.34766304 -.00000283  00000+0  00000+0 0  9996
2 26900   6.3791  70.4387 0003850 120.8502 253.8635  1.00272989 91761
INTELSAT 904 (IS-904)   
1 27380U 02007A   26274.31916245 -.00000225  00000+0  00000+0 0  9999
2 27380   7.1791  67.8633 0003601 132.8194 252.8009  1.00272297 52832
DIRECTV 5 (TEMPO 1)     
1 27426U 02023A   26274.64932913 -.00000059  00000+0  00000+0 0  9999
2 27426   5.1432  73.9227 0003369 125.3787 294.7679  1.00271756 89192
INTELSAT 905 (IS-905)   
1 27438U 02027A   26274.63923737  .00000092  00000+0  00000+0 0  9995
2 27438   7.0147  68.4674 0003812 155.2064 239.6450  1.00270884 52430
GALAXY 3C (G-3C)        
1 27445U 02030A   26274.59173037 -.00000154  00000+0  00000+0 0  9992
2 27445   4.0109  76.6361 0001191  62.6271 349.2679  1.00271319 47569
INTELSAT 906 (IS-906)   
1 27513U 02041A   26274.54246161  .00000011  00000+0  00000+0 0  9995
2 27513   6.0666  71.5631 0003461 140.0306  58.1417  1.00273262 88099
GALAXY 13 (HORIZONS-1)  
1 27954U 03044A   26274.63351472  .00000130  00000+0  00000+0 0  9992
2 27954   1.6878  82.3319 0002204 128.3534 237.7589  1.00270445 47644
INTELSAT 10-02          
1 28358U 04022A   26274.28586502 -.00000012  00000+0  00000+0 0  9993
2 28358   0.0188 244.4512 0000395  25.9670 201.5399  1.00271722 81621
DIRECTV 8               
1 28659U 05019A   26274.57799457 -.00000002  00000+0  00000+0 0  9990
2 28659   0.0178 159.4746 0003095  32.5068 267.3827  1.00271921 78143
GALAXY 28 (G-28)        
1 28702U 05022A   26274.27405985 -.00000201  00000+0  00000+0 0  9991
2 28702   3.5656  77.5472 0001728 107.6656 256.3993  1.00270946 53045
GALAXY 16 (G-16)        
1 29236U 06023A   26274.59095037 -.00000130  00000+0  00000+0 0  9995
2 29236   0.0121 189.3670 0002743   1.0633 293.6662  1.00271102 74044
DIRECTV 9S              
1 29494U 06043A   26274.51112244 -.00000291  00000+0  00000+0 0  9993
2 29494   2.6898  79.4899 0008009 193.4144  63.1886  0.99097102 52446
GALAXY 17 (G-17)        
1 31307U 07016B   26274.46009459 -.00000208  00000+0  00000+0 0  9995
2 31307   3.2332  78.4699 0004384 145.6519 226.7474  1.00271203 70872
INTELSAT 11 (IS-11)     
1 32253U 07044B   26274.61400380 -.00000077  00000+0  00000+0 0  9996
2 32253   3.8355  77.2854 0008369 138.7754  32.8187  0.99050133 69504
HORIZONS-2              
1 32388U 07063B   26274.46200525 -.00000255  00000+0  00000+0 0  9996
2 32388   2.8688  79.2127 0002019 136.9643 246.5914  1.00270767 68881
DIRECTV 11              
1 32729U 08013A   26274.59086369 -.00000129  00000+0  00000+0 0  9993
2 32729   0.0157  74.0190 0000087 158.6841 251.1670  1.00271168 46667
GALAXY 18 (G-18)        
1 32951U 08024A   26274.57661204  .00000022  00000+0  00000+0 0  9998
2 32951   0.0167 200.0162 0003124   0.4182 254.4682  1.00271268 46910
GALAXY 19 (G-19)        
1 33376U 08045A   26274.54365127 -.00000142  00000+0  00000+0 0  9999
2 33376   0.0209 235.6017 0002593 312.0365 281.3830  1.00272010 65973
FM-5                    
1 35493U 09034A   26274.46009432 -.00000202  00000+0  00000+0 0  9992
2 35493   0.0216 254.6416 0000097  83.0842 111.9748  1.00270131 47708
INTELSAT 14 (IS-14)     
1 36097U 09064A   26274.51509830 -.00000276  00000+0  00000+0 0  9990
2 36097   0.1824  83.6633 0002608 119.7733 307.2710  1.00272921 61672
INTELSAT 15 (IS-15)     
1 36106U 09067A   26274.58498269 -.00000188  00000+0  00000+0 0  9996
2 36106   0.0142 119.2499 0002727  93.9629  92.8707  1.00270967 42298
DIRECTV 12              
1 36131U 09075A   26274.45339812 -.00000106  00000+0  00000+0 0  9997
2 36131   0.0411  13.9506 0000174 181.6589 235.0867  1.00269619 47619
INTELSAT 16 (IS-16)     
1 36397U 10006A   26274.26295003  .00000105  00000+0  00000+0 0  9997
2 36397   0.0314 275.6066 0002350 306.5784 249.1847  1.01413181 60723
XM-5                    
1 37185U 10053A   26274.58774368 -.00000026  00000+0  00000+0 0  9999
2 37185   0.0677 269.8838 0000139 263.7627 293.0982  1.00271984 58554
INTELSAT 17 (IS-17)     
1 37238U 10065B   26274.57433674 -.00000004  00000+0  00000+0 0  9998
2 37238   0.0134 204.6300 0002493 342.5410  95.9063  1.00270430 54317
INTELSAT 28 (IS-28)     
1 37392U 11016A   26274.46172977 -.00000227  00000+0  00000+0 0  9997
2 37392   2.0733  81.1632 0003683 117.3683 306.2071  1.00270893 54357
INTELSAT 18 (IS-18)     
1 37834U 11056A   26274.59271464  .00000050  00000+0  00000+0 0  9990
2 37834   0.0319 260.3170 0002392 311.0134 192.3909  1.00273391 54871
INTELSAT 22 (IS-22)     
1 38098U 12011A   26274.62483718 -.00000062  00000+0  00000+0 0  9990
2 38098   0.0219 241.0191 0001607 296.0731 130.3373  1.00271025  8255
INTELSAT 19 (IS-19)     
1 38356U 12030A   26274.65620476  .00000000  00000+0  00000+0 0  9996
2 38356   0.0131 186.8479 0003133  11.3739 214.4028  1.00270583 51518
INTELSAT 20 (IS-20)     
1 38740U 12043A   26274.57453659 -.00000027  00000+0  00000+0 0  9995
2 38740   0.0184 119.7079 0001675  54.3317 111.6128  1.00270581 51812
INTELSAT 21 (IS-21)     
1 38749U 12045A   26274.40454998 -.00000287  00000+0  00000+0 0  9993
2 38749   0.0184 250.6931 0002234 303.2402 263.8691  1.00272163 51583
INTELSAT 23 (IS-23)     
1 38867U 12057A   26274.38624275 -.00000287  00000+0  00000+0 0  9991
2 38867   0.0192 260.9211 0002026 345.1560 210.1085  1.00274841 51012
FM-6                    
1 39360U 13058A   26274.55129546 -.00000018  00000+0  00000+0 0  9994
2 39360   0.0185 245.3478 0001245  24.6754 182.4154  1.00270155 47131
INTELSAT 30 (IS-30)     
1 40271U 14062A   26274.06478271 -.00000151  00000+0  00000+0 0  9999
2 40271   0.0128 111.5670 0001080 287.1053 259.4305  1.00269785  7859
DIRECTV 14              
1 40333U 14078B   26274.59086369 -.00000128  00000+0  00000+0 0  9990
2 40333   0.0134 266.4168 0000764 201.5271  15.8781  1.00270307 43110
DIRECTV 15              
1 40663U 15026A   26274.54643289 -.00000105  00000+0  00000+0 0  9990
2 40663   0.0285  96.1593 0000275 176.8846 191.0951  1.00270718 41538
SKY MEXICO-1            
1 40664U 15026B   26274.46272969 -.00000237  00000+0  00000+0 0  9991
2 40664   0.0225 261.3470 0002324 299.0877 257.5638  1.00273668 41517
INTELSAT 34 (IS-34)     
1 40874U 15039A   26274.17190215 -.00000287  00000+0  00000+0 0  9994
2 40874   0.0248 302.7889 0000099 285.9041 147.6389  1.00270532 40690
INTELSAT 31 (IS-31)     
1 41581U 16035A   26274.45574486 -.00000153  00000+0  00000+0 0  9996
2 41581   0.0119 219.1011 0002121  17.5437 202.5881  1.00270417 37749
INTELSAT 36 (IS-36)     
1 41747U 16053A   26274.57453660 -.00000027  00000+0  00000+0 0  9993
2 41747   0.0021 142.7234 0001955 195.9022 307.0211  1.00270238 37028
INTELSAT 32E (IS-32E)   
1 41945U 17007B   26274.31690911 -.00000271  00000+0  00000+0 0  9998
2 41945   0.0186 210.5490 0000244  12.3290 218.1032  1.00269303 35287
INTELSAT 35E (IS-35E)   
1 42818U 17041A   26274.46112310 -.00000240  00000+0  00000+0 0  9990
2 42818   0.0168 152.4345 0002210  47.1956 302.0897  1.00270984 33883
INTELSAT 37E (IS-37E)   
1 42950U 17059A   26273.96546125  .00000000  00000+0  00000+0 0  9998
2 42950   0.0168 173.0193 0002889  26.0318 140.2307  1.00270679 33126
AZERSPACE 2 (IS-38)     
1 43632U 18074A   26274.20114350  .00000135  00000+0  00000+0 0  9992
2 43632   0.0184 152.9807 0001392  50.8333 283.6716  1.00271363 29515
HORIZONS-3E             
1 43633U 18074B   26273.37267123 -.00000029  00000+0  00000+0 0  9990
2 43633   0.0132 188.2850 0000860  15.4404 108.5931  1.00270634 29394
AT&T T-16               
1 44333U 19034A   26274.47969134 -.00000118  00000+0  00000+0 0  9997
2 44333   0.0156 114.0077 0000300 257.4270  70.6356  1.00270028 26691
INTELSAT 39 (IS-39)     
1 44476U 19049B   26274.05256163  .00000033  00000+0  00000+0 0  9991
2 44476   0.0170 220.9729 0000577 256.1980 333.5103  1.00270787 26183
GALAXY 30 (G-30)        
1 46114U 20056C   26274.50044619  .00000034  00000+0  00000+0 0  9994
2 46114   0.0163 226.1345 0002583 330.5463 228.7357  1.00271438 22355
GALAXY 33 (G-33)        
1 54026U 22128A   26274.51782375  .00000076  00000+0  00000+0 0  9992
2 54026   0.0208 269.2276 0001949 282.8296 231.6382  1.00271934 14808
GALAXY 34 (G-34)        
1 54027U 22128B   26273.65836686  .00000059  00000+0  00000+0 0  9993
2 54027   0.0177 229.1551 0001480 316.2899 291.9964  1.00272921 14976
GALAXY 31 (G-31)        
1 54243U 22153A   26274.01633481  .00000012  00000+0  00000+0 0  9999
2 54243   0.0135 228.9077 0001434 336.4829  49.2844  1.00273216  8192
GALAXY 32 (G-32)        
1 54244U 22153B   26274.38072581 -.00000176  00000+0  00000+0 0  9990
2 54244   0.0073 178.9402 0000752  91.4965 145.7647  1.00270853 14207
GALAXY 35 (G-35)        
1 54741U 22170A   26274.59207704 -.00000165  00000+0  00000+0 0  9999
2 54741   0.0192 238.5083 0002127 320.0841 291.7998  1.00271593 13966
GALAXY 36 (G-36)        
1 54742U 22170B   26274.59294370 -.00000188  00000+0  00000+0 0  9990
2 54742   0.0156 164.8985 0001581 340.4025 349.5092  1.00271491 13854
GALAXY 37 (G-37)        
1 57493U 23112A   26273.94392602  .00000047  00000+0  00000+0 0  9991
2 57493   0.0174 158.3534 0002312  52.7298  11.4522  1.00272826 11603
