IRIDIUM 106             
1 41917U 17003A   26278.39951571  .00000173  00000+0  54613-4 0  9991
2 41917  86.3977  42.4454 0001838  97.4457 262.6948 14.34218735509002
IRIDIUM 103             
1 41918U 17003B   26278.59613908  .00000094  00000+0  26418-4 0  9997
2 41918  86.3977  42.2628 0002088  88.7331 271.4104 14.34215800509053
IRIDIUM 109             
1 41919U 17003C   26278.60249837  .00000157  00000+0  48919-4 0  9996
2 41919  86.3980  42.3216 0002085  93.4521 266.6913 14.34214524509026
IRIDIUM 102             
1 41920U 17003D   26278.64053487  .00000030  00000+0  36529-5 0  9991
2 41920  86.3978  42.2267 0002110  95.7839 264.3597 14.34217838509110
IRIDIUM 105             
1 41921U 17003E   26278.52936275  .00000166  00000+0  52324-4 0  9994
2 41921  86.4025  10.7396 0002403  93.4002 266.7469 14.34216983510958
IRIDIUM 104             
1 41922U 17003F   26278.44391497  .00000126  00000+0  37846-4 0  9995
2 41922  86.3978  42.3531 0002373  89.2317 270.9151 14.34218501509079
IRIDIUM 114             
1 41923U 17003G   26278.58979417  .00000126  00000+0  38103-4 0  9992
2 41923  86.3979  42.2750 0002105  91.5492 268.5945 14.34217952509079
IRIDIUM 108             
1 41924U 17003H   26278.61808368  .00000047  00000+0  95440-5 0  9993
2 41924  86.4021  10.5858 0002210  96.1791 263.9657 14.34218127510937
IRIDIUM 112             
1 41925U 17003J   26278.57710850  .00000156  00000+0  48773-4 0  9994
2 41925  86.3974  42.1173 0002163  92.8673 267.2770 14.34218862509098
IRIDIUM 111             
1 41926U 17003K   26278.63419212  .00000055  00000+0  12693-4 0  9990
2 41926  86.3978  42.1666 0002081  92.6816 267.4618 14.34218264509084
IRIDIUM 113             
1 42803U 17039A   26278.54438760  .00000062  00000+0  15166-4 0  9999
2 42803  86.3911 276.0373 0002336  88.8774 271.2689 14.34217940487000
IRIDIUM 123             
1 42804U 17039B   26278.58586780  .00000027  00000+0  25866-5 0  9990
2 42804  86.3941 307.5086 0001989  91.3496 268.7928 14.34217539485771
IRIDIUM 120             
1 42805U 17039C   26278.46827463  .00000072  00000+0  18691-4 0  9991
2 42805  86.3900 275.8371 0002154  91.4783 268.6659 14.34217947486983
IRIDIUM 115             
1 42806U 17039D   26278.63192833  .00000119  00000+0  29414-4 0  9994
2 42806  86.4437 275.9123 0002128  86.9160 273.2285 14.43279749490198
IRIDIUM 118             
1 42807U 17039E   26278.61758046 -.00000017  00000+0 -13216-4 0  9999
2 42807  86.3941 307.4929 0002140  93.8759 266.2682 14.34217687485772
IRIDIUM 117             
1 42808U 17039F   26278.56683833  .00000142  00000+0  43619-4 0  9992
2 42808  86.3942 307.4710 0002192  91.5938 268.5509 14.34218633485790
IRIDIUM 126             
1 42809U 17039G   26278.59220950  .00000077  00000+0  20526-4 0  9992
2 42809  86.3944 307.5134 0002238  90.2984 269.8469 14.34218155485778
IRIDIUM 124             
1 42810U 17039H   26278.42708565  .00000233  00000+0  63226-4 0  9997
2 42810  86.4463 244.2389 0002253  84.6321 275.5137 14.43280908491010
IRIDIUM 128             
1 42811U 17039J   26278.58294803  .00000150  00000+0  46467-4 0  9996
2 42811  86.4003 339.0261 0002121  96.4182 263.7256 14.34218409485801
IRIDIUM 121             
1 42812U 17039K   26278.61123751  .00000090  00000+0  25074-4 0  9998
2 42812  86.3945 307.5340 0002208  94.3782 265.7667 14.34218200485653
IRIDIUM 133             
1 42955U 17061A   26278.61466043  .00000134  00000+0  40743-4 0  9994
2 42955  86.4006 339.1335 0002150  95.5584 264.5857 14.34217741470600
IRIDIUM 100             
1 42956U 17061B   26278.60831900  .00000025  00000+0  17336-5 0  9994
2 42956  86.4000 339.0518 0002101  95.6047 264.5389 14.34217634470609
IRIDIUM 122             
1 42957U 17061C   26278.57660541  .00000112  00000+0  32906-4 0  9998
2 42957  86.4004 339.0659 0002169  92.5146 267.6298 14.34218434470602
IRIDIUM 129             
1 42958U 17061D   26278.60197634  .00000044  00000+0  85203-5 0  9994
2 42958  86.4006 339.1235 0002400  93.1471 267.0000 14.34217936470625
IRIDIUM 119             
1 42959U 17061E   26278.57025819  .00000194  00000+0  62371-4 0  9992
2 42959  86.4005 339.1329 0002170  92.7874 267.3570 14.34221320470633
IRIDIUM 107             
1 42960U 17061F   26278.58929034  .00000098  00000+0  27946-4 0  9999
2 42960  86.4007 339.1469 0002047  91.4173 268.7257 14.34218304470649
IRIDIUM 132             
1 42961U 17061G   26278.59563285  .00000041  00000+0  76219-5 0  9999
2 42961  86.4007 339.1231 0002206  94.4627 265.6821 14.34218036470646
IRIDIUM 136             
1 42962U 17061H   26278.62734621  .00000121  00000+0  36237-4 0  9992
2 42962  86.4005 339.1170 0002206  96.0426 264.1021 14.34218459470669
IRIDIUM 139             
1 42963U 17061J   26278.63368849  .00000044  00000+0  86010-5 0  9998
2 42963  86.4007 339.1781 0002157  94.8762 265.2680 14.34217977470672
IRIDIUM 125             
1 42964U 17061K   26278.62100370  .00000055  00000+0  12495-4 0  9998
2 42964  86.4009 339.2464 0002191  82.3327 277.8118 14.34217879470688
IRIDIUM 135             
1 43070U 17083A   26278.52535953  .00000033  00000+0  46231-5 0  9991
2 43070  86.3906 275.8748 0002249  89.4932 270.6522 14.34217678459961
IRIDIUM 138             
1 43071U 17083B   26278.48096124  .00000008  00000+0 -42864-5 0  9990
2 43071  86.3917 275.6056 0002190  86.7421 273.4025 14.34217648459946
IRIDIUM 116             
1 43072U 17083C   26278.51901675  .00000130  00000+0  39264-4 0  9995
2 43072  86.3904 275.8620 0002052  94.1877 265.9553 14.34218433459986
IRIDIUM 130             
1 43073U 17083D   26278.55707271  .00000031  00000+0  40201-5 0  9990
2 43073  86.3913 276.1324 0002036  90.0938 270.0491 14.34217476459936
IRIDIUM 151             
1 43074U 17083E   26278.53170177  .00000120  00000+0  35751-4 0  9990
2 43074  86.3906 275.9171 0002228  91.1548 268.9903 14.34217535459950
IRIDIUM 134             
1 43075U 17083F   26278.49999009 -.00000008  00000+0 -98579-5 0  9994
2 43075  86.3905 275.9398 0002074  89.5778 270.5655 14.34217346459915
IRIDIUM 137             
1 43076U 17083G   26278.51267537  .00000121  00000+0  36146-4 0  9997
2 43076  86.3909 276.0296 0002268  98.4035 261.7419 14.34218197459981
IRIDIUM 141             
1 43077U 17083H   26278.50633123  .00000067  00000+0  16949-4 0  9993
2 43077  86.3905 275.8566 0002279  88.8174 271.3283 14.34218075459985
IRIDIUM 153             
1 43078U 17083J   26278.38874123  .00000192  00000+0  61493-4 0  9990
2 43078  86.3940 244.3715 0002313  83.0521 277.0938 14.34216379461072
IRIDIUM 131             
1 43079U 17083K   26278.49364609  .00000046  00000+0  93733-5 0  9997
2 43079  86.3909 276.0554 0002280  90.0125 270.1333 14.34217992459917
IRIDIUM 144             
1 43249U 18030A   26278.60439121  .00000163  00000+0  51090-4 0  9993
2 43249  86.3939 244.2078 0002170  88.3592 271.7853 14.34218431445966
IRIDIUM 149             
1 43250U 18030B   26278.61073326  .00000146  00000+0  45058-4 0  9995
2 43250  86.3937 244.1710 0002259  84.5099 275.6354 14.34218577445988
IRIDIUM 157             
1 43251U 18030C   26278.62976157  .00000035  00000+0  55442-5 0  9997
2 43251  86.3939 244.2187 0002219  85.7016 274.4433 14.34217796445963
IRIDIUM 140             
1 43252U 18030D   26278.43948364  .00000096  00000+0  27177-4 0  9996
2 43252  86.3939 244.3106 0002210  85.4668 274.6780 14.34217983445995
IRIDIUM 145             
1 43253U 18030E   26278.56633393  .00000170  00000+0  53564-4 0  9996
2 43253  86.3939 244.2295 0002025  90.4596 269.6832 14.34218811445942
IRIDIUM 146             
1 43254U 18030F   26278.61707601  .00000169  00000+0  53254-4 0  9991
2 43254  86.3939 244.2201 0002151  87.8888 272.2554 14.34218702445966
IRIDIUM 148             
1 43255U 18030G   26278.44582620  .00000110  00000+0  32350-4 0  9995
2 43255  86.3938 244.3366 0002298  87.8068 272.3391 14.34217786445973
IRIDIUM 142             
1 43256U 18030H   26278.62341894  .00000146  00000+0  45032-4 0  9992
2 43256  86.3936 244.1472 0002142  89.3882 270.7559 14.34218548445961
IRIDIUM 150             
1 43257U 18030J   26278.45216838  .00000160  00000+0  50164-4 0  9991
2 43257  86.3940 244.3388 0002168  86.2641 273.8803 14.34218837445969
IRIDIUM 143             
1 43258U 18030K   26278.43314084  .00000183  00000+0  58411-4 0  9990
2 43258  86.3942 244.4436 0002129  86.3025 273.8415 14.34218447445899
IRIDIUM 161             
1 43478U 18047C   26278.61302058  .00000203  00000+0  54369-4 0  9991
2 43478  86.4499  42.2637 0002298  93.3591 266.7873 14.43280097441065
IRIDIUM 152             
1 43479U 18047D   26278.61516419  .00000124  00000+0  37271-4 0  9995
2 43479  86.3973  42.1253 0002128  92.9235 267.2204 14.34218385438316
IRIDIUM 147             
1 43480U 18047E   26278.62151211  .00000133  00000+0  40294-4 0  9992
2 43480  86.3976  42.1298 0002068  96.2964 263.8467 14.34221176438314
IRIDIUM 110             
1 43481U 18047F   26278.62785052  .00000156  00000+0  48464-4 0  9991
2 43481  86.3978  42.2219 0002368  91.7561 268.3906 14.34218622438306
IRIDIUM 162             
1 43482U 18047G   26278.39872464  .00000234  00000+0  63449-4 0  9997
2 43482  86.4496  42.2432 0002149  92.9077 267.2370 14.43282136441029
IRIDIUM 160             
1 43569U 18061A   26278.50391705  .00000100  00000+0  28676-4 0  9991
2 43569  86.4023  10.6746 0002200  96.1456 263.9990 14.34218335429187
IRIDIUM 166             
1 43570U 18061B   26278.52928788  .00000052  00000+0  11552-4 0  9993
2 43570  86.4022  10.6130 0002132  97.1515 262.9924 14.34218031429219
IRIDIUM 158             
1 43571U 18061C   26278.49757483  .00000023  00000+0  11238-5 0  9992
2 43571  86.4022  10.6362 0002125  93.6330 266.5109 14.34218074429172
IRIDIUM 165             
1 43572U 18061D   26278.31363981  .00000098  00000+0  27831-4 0  9997
2 43572  86.4023  10.7615 0002099  96.4869 263.6566 14.34218272429179
IRIDIUM 155             
1 43573U 18061E   26278.62443214  .00000153  00000+0  47555-4 0  9997
2 43573  86.4020  10.4954 0002083  95.1481 264.9953 14.34216762429186
IRIDIUM 154             
1 43574U 18061F   26278.53563033  .00000051  00000+0  10984-4 0  9993
2 43574  86.4024  10.6715 0002117  97.0479 263.0958 14.34217991429229
IRIDIUM 163             
1 43575U 18061G   26278.51660290  .00000185  00000+0  58825-4 0  9999
2 43575  86.4020  10.5911 0002170  94.2516 265.8928 14.34218041429193
IRIDIUM 156             
1 43576U 18061H   26278.63076908  .00000133  00000+0  40469-4 0  9998
2 43576  86.4022  10.5508 0002016  95.1617 264.9809 14.34217765429201
IRIDIUM 164             
1 43577U 18061J   26278.54197299  .00000003  00000+0 -60752-5 0  9991
2 43577  86.4019  10.6301 0002019  98.8720 261.2704 14.34217614429238
IRIDIUM 159             
1 43578U 18061K   26278.30095449  .00000087  00000+0  24076-4 0  9999
2 43578  86.4020  10.6653 0002229  94.1449 266.0001 14.34218331429163
IRIDIUM 180             
1 43922U 19002A   26278.57952487  .00000090  00000+0  25205-4 0  9990
2 43922  86.3944 307.4711 0002254  93.3220 266.8234 14.34218184404815
IRIDIUM 176             
1 43923U 19002B   26278.60650905  .00000454  00000+0  68118-4 0  9999
2 43923  86.6064 307.3876 0002375  92.2058 267.9432 14.72253969415494
IRIDIUM 168             
1 43924U 19002C   26278.57318224  .00000074  00000+0  19478-4 0  9994
2 43924  86.3945 307.5541 0002238  93.0710 267.0742 14.34218034404791
IRIDIUM 173             
1 43925U 19002D   26278.63026549  .00000031  00000+0  38876-5 0  9995
2 43925  86.3941 307.4144 0002203  92.3107 267.8341 14.34217789404788
IRIDIUM 169             
1 43926U 19002E   26278.56769430  .00000153  00000+0  43433-4 0  9990
2 43926  86.4260 339.0766 0001941  87.8135 272.3285 14.38609195406097
IRIDIUM 172             
1 43927U 19002F   26278.62392253  .00000046  00000+0  92259-5 0  9995
2 43927  86.3942 307.4255 0002277  92.7684 267.3773 14.34217915404795
IRIDIUM 175             
1 43928U 19002G   26278.62338473  .00000201  00000+0  53266-4 0  9997
2 43928  86.4492 244.3310 0002416 172.9699 187.1537 14.43650839414918
IRIDIUM 171             
1 43929U 19002H   26278.60489492  .00000079  00000+0  21204-4 0  9994
2 43929  86.3953 307.7521 0002171  94.5179 265.6265 14.34218112404786
IRIDIUM 170             
1 43930U 19002J   26278.61269920  .00000411  00000+0  61228-4 0  9999
2 43930  86.6064 307.3864 0002391  91.2537 268.8954 14.72251163415503
IRIDIUM 167             
1 43931U 19002K   26278.59855187  .00000112  00000+0  33018-4 0  9997
2 43931  86.3943 307.4594 0002005  94.3043 265.8382 14.34218283404780
IRIDIUM 181             
1 56726U 23068S   26278.61751395  .00000197  00000+0  52458-4 0  9991
2 56726  86.4559  10.6317 0002319  97.5183 262.6282 14.43308157178360
IRIDIUM 177             
1 56727U 23068T   26278.52205016  .00000284  00000+0  36409-4 0  9991
2 56727  86.1909 276.4673 0002469  86.7309 273.4193 14.77173169182670
IRIDIUM 174             
1 56728U 23068U   26278.60033684  .00000439  00000+0  65649-4 0  9991
2 56728  86.6073 307.5501 0002398  88.4124 271.7368 14.72252587182266
IRIDIUM 178             
1 56729U 23068V   26278.58314305  .00000541  00000+0  68001-4 0  9990
2 56729  86.6573 339.2680 0002410  89.7835 270.3663 14.80038447182696
IRIDIUM 179             
1 56730U 23068W   26278.57775614  .00000339  00000+0  41395-4 0  9997
2 56730  86.6826 348.5739 0002345  92.6395 267.5095 14.80048039182693
