IRIDIUM 33              
1 24946U 97051C   26280.12693640  .00000167  00000+0  51558-4 0  9997
2 24946  86.3836 302.9801 0006668 334.9511  25.1361 14.35183468521140
IRIDIUM 33 DEB          
1 33773U 97051L   26280.12435334  .00000483  00000+0  13606-3 0  9991
2 33773  86.3963 294.1105 0009122 239.8762 120.1535 14.43782125926521
IRIDIUM 33 DEB          
1 33775U 97051N   26280.32670319  .00000735  00000+0  21709-3 0  9992
2 33775  86.3575 281.9968 0010365 252.6821 171.7290 14.42219636924432
IRIDIUM 33 DEB          
1 33776U 97051P   26280.15675190  .00000410  00000+0  12736-3 0  9996
2 33776  86.4030 315.4261 0012429 302.2156 117.7015 14.38645296923721
IRIDIUM 33 DEB          
1 33777U 97051Q   26280.31857477  .00002230  00000+0  48739-3 0  9999
2 33777  86.3721 265.1058 0005818 350.1317   9.9776 14.57397123928802
IRIDIUM 33 DEB          
1 33850U 97051T   26280.32647407  .00000913  00000+0  26757-3 0  9994
2 33850  86.3359 261.6929 0009226 262.0801 151.5258 14.42870326924579
IRIDIUM 33 DEB          
1 33853U 97051W   26280.33265554  .00001456  00000+0  80156-3 0  9993
2 33853  86.0002 218.7461 0213831  40.0953 113.1987 14.00027080895226
IRIDIUM 33 DEB          
1 33860U 97051AD  26280.22844064  .00004579  00000+0  73939-3 0  9998
2 33860  86.3773 254.6046 0010605  42.1394  19.7802 14.71168221931067
IRIDIUM 33 DEB          
1 33862U 97051AF  26280.23787330  .00002733  00000+0  40215-3 0  9994
2 33862  86.4045 265.2523 0050970 109.7308 309.1225 14.74139715932160
IRIDIUM 33 DEB          
1 33866U 97051AK  26280.19193062  .00001050  00000+0  39963-3 0  9995
2 33866  86.3047 326.6202 0109882 280.5615 142.4671 14.26842241910641
IRIDIUM 33 DEB          
1 33870U 97051AP  26280.09592309  .00001199  00000+0  32303-3 0  9991
2 33870  86.3695 290.2376 0018028 270.5527 157.7813 14.47112916924504
IRIDIUM 33 DEB          
1 33881U 97051BA  26280.13592138  .00004480  00000+0  83898-3 0  9999
2 33881  86.3878 336.1532 0054275 237.9509 151.2961 14.63674344918562
IRIDIUM 33 DEB          
1 33884U 97051BD  26279.89953402  .00007342  00000+0  86407-3 0  9997
2 33884  86.3638 234.2536 0011788   2.7465  51.2839 14.84658103932626
IRIDIUM 33 DEB          
1 33886U 97051BF  26280.14222006  .00000281  00000+0  89169-4 0  9992
2 33886  86.3795 301.6221 0013723 359.5846  64.9694 14.36329564923352
IRIDIUM 33 DEB          
1 33887U 97051BG  26279.91621733  .00000275  00000+0  85320-4 0  9994
2 33887  86.3035 234.8620 0006207   6.2797  53.0147 14.37453537924486
IRIDIUM 33 DEB          
1 33953U 97051BN  26280.02988044  .00001988  00000+0  43108-3 0  9992
2 33953  86.3797 284.0500 0016599 166.3583 248.0321 14.57626397926463
IRIDIUM 33 DEB          
1 33960U 97051BV  26280.10429606  .00009784  00000+0  85738-3 0  9990
2 33960  86.2566 147.3771 0003418  97.0273  54.6363 14.96559485933165
IRIDIUM 33 DEB          
1 33966U 97051CB  26280.03970516  .00001035  00000+0  25872-3 0  9993
2 33966  86.3861 277.8963 0005227 294.3677 124.5484 14.50622953927651
IRIDIUM 33 DEB          
1 34071U 97051CE  26280.29765738  .00001263  00000+0  31659-3 0  9990
2 34071  86.3415 247.8875 0006951 170.8104 189.3229 14.50652791926615
IRIDIUM 33 DEB          
1 34077U 97051CL  26280.05480359  .00004665  00000+0  78933-3 0  9998
2 34077  86.3794 279.5577 0012007  82.9606 340.3176 14.69110892927073
IRIDIUM 33 DEB          
1 34079U 97051CN  26280.30092308  .00010785  00000+0  10632-2 0  9992
2 34079  86.3726 231.7489 0008553  26.5470 131.1114 14.91899697934186
IRIDIUM 33 DEB          
1 34088U 97051CX  26279.98895177  .00032258  00000+0  19487-2 0  9995
2 34088  86.3633 251.2501 0007350 126.0164 301.8118 15.10526449932176
IRIDIUM 33 DEB          
1 34091U 97051DA  26280.02409755  .00035387  00000+0  27318-2 0  9997
2 34091  86.3417 288.0155 0021667 314.4077  45.5381 15.01217724923162
IRIDIUM 33 DEB          
1 34097U 97051DG  26280.28170002  .00002509  00000+0  81577-3 0  9999
2 34097  86.1985 229.3640 0082499 104.3061 256.7314 14.36502605914032
IRIDIUM 33 DEB          
1 34145U 97051DY  26279.98855840  .00001639  00000+0  46546-3 0  9998
2 34145  86.2163 199.4593 0050516 186.8787 173.1727 14.44099821919400
IRIDIUM 33 DEB          
1 34146U 97051DZ  26279.81354775  .00002265  00000+0  57026-3 0  9993
2 34146  86.2842 217.9127 0024917 317.1766  71.9796 14.50619404924269
IRIDIUM 33 DEB          
1 34159U 97051EN  26280.00680529  .00000653  00000+0  20372-3 0  9992
2 34159  86.3450 281.0134 0028889  32.0565 328.2383 14.39103720922489
IRIDIUM 33 DEB          
1 34350U 97051ES  26280.33253514  .00000790  00000+0  21573-3 0  9997
2 34350  86.3269 233.1416 0018982 224.1348 288.0580 14.46042607926072
IRIDIUM 33 DEB          
1 34366U 97051FJ  26279.98904722  .00002420  00000+0  53923-3 0  9993
2 34366  86.3629 279.2872 0018207 209.3741 179.8007 14.56438870925205
IRIDIUM 33 DEB          
1 34375U 97051FT  26279.93155020  .00000570  00000+0  25485-3 0  9993
2 34375  86.4268  62.3804 0099762 258.8550 230.1850 14.18460488909389
IRIDIUM 33 DEB          
1 34376U 97051FU  26280.30737641  .00005103  00000+0  89654-3 0  9997
2 34376  86.2938 231.6239 0021267 227.3500 132.5923 14.67360828923794
IRIDIUM 33 DEB          
1 34486U 97051GB  26279.90729816  .00031459  00000+0  17261-2 0  9995
2 34486  86.3765 232.0235 0010126  94.8361 322.3969 15.13973804934720
IRIDIUM 33 DEB          
1 34487U 97051GC  26279.94508576  .00000373  00000+0  10384-3 0  9999
2 34487  86.3405 243.9318 0029090 221.1104 202.9417 14.43577334925502
IRIDIUM 33 DEB          
1 34492U 97051GH  26279.81941939  .00010010  00000+0  31996-2 0  9995
2 34492  86.4707 213.5954 0180217 356.9568  64.3456 14.30671263893142
IRIDIUM 33 DEB          
1 34497U 97051GN  26280.02748574  .00000829  00000+0  31305-3 0  9997
2 34497  86.2722 284.8929 0081117  96.4933 318.9827 14.28286149911408
IRIDIUM 33 DEB          
1 34508U 97051GZ  26280.17950550  .00001622  00000+0  49669-3 0  9999
2 34508  86.3728 335.9006 0061160 271.4465  87.9728 14.40149127916027
IRIDIUM 33 DEB          
1 34521U 97051HN  26279.94981809  .00003102  00000+0  55562-3 0  9992
2 34521  86.3736 258.8294 0003267  20.0073 340.1268 14.66539517928390
IRIDIUM 33 DEB          
1 34525U 97051HS  26280.02114801  .00000633  00000+0  18121-3 0  9993
2 34525  86.3669 279.4666 0004819 156.7690 257.3373 14.43530624923900
IRIDIUM 33 DEB          
1 34529U 97051HW  26279.98745799  .00000306  00000+0  89139-4 0  9991
2 34529  86.3579 268.2311 0003149 323.1518  36.9464 14.40944143924366
IRIDIUM 33 DEB          
1 34538U 97051JF  26279.89530545  .00001542  00000+0  44216-3 0  9991
2 34538  86.2750 234.7656 0037353  58.8704 355.9252 14.43954236920574
IRIDIUM 33 DEB          
1 34540U 97051JH  26280.16747752  .00004970  00000+0  64195-3 0  9992
2 34540  86.3138 170.5298 0011961 202.9270 308.9666 14.80727499934307
IRIDIUM 33 DEB          
1 34648U 97051JZ  26280.10757629  .00002670  00000+0  11892-2 0  9999
2 34648  86.3982 161.1599 0167971  76.3942 285.5889 14.15253450891774
IRIDIUM 33 DEB          
1 34651U 97051KC  26280.20476849  .00002331  00000+0  83131-3 0  9996
2 34651  86.2847  13.0374 0128603 321.9944  37.2225 14.29329370901557
IRIDIUM 33 DEB          
1 34652U 97051KD  26280.25501935  .00002361  00000+0  44172-3 0  9992
2 34652  86.3344 206.8135 0028342   1.2309 152.3415 14.64207942928491
IRIDIUM 33 DEB          
1 34690U 97051KM  26280.17606693  .00002706  00000+0  60322-3 0  9990
2 34690  86.3718 267.1304 0011841  86.2036  42.7116 14.56513639924368
IRIDIUM 33 DEB          
1 34696U 97051KT  26279.87873049  .00022710  00000+0  27489-2 0  9995
2 34696  86.1767 246.4705 0044724 207.7270 181.7181 14.82834177910685
IRIDIUM 33 DEB          
1 34765U 97051LJ  26280.25689068  .00000740  00000+0  22332-3 0  9994
2 34765  86.3334 264.5809 0014742 321.8976  99.6667 14.41128501919124
IRIDIUM 33 DEB          
1 34833U 97051MH  26280.02150954  .00001456  00000+0  34008-3 0  9990
2 34833  86.3870 282.2648 0019511 167.3582 247.3848 14.53939854920475
IRIDIUM 33 DEB          
1 34870U 97051MQ  26278.51258282  .00005753  00000+0  73035-3 0  9992
2 34870  86.3146 177.5640 0013021 234.7062 245.2200 14.81472038932987
IRIDIUM 33 DEB          
1 34896U 97051MY  26280.06605388  .00002442  00000+0  41392-3 0  9999
2 34896  86.3343 192.6047 0022928 276.4226 145.9936 14.68711401919953
IRIDIUM 33 DEB          
1 34926U 97051NF  26279.85793185  .00014015  00000+0  25477-2 0  9995
2 34926  86.1304 228.6720 0073019   7.4257  20.7937 14.64324209908088
IRIDIUM 33 DEB          
1 34985U 97051NR  26279.99691947  .00001002  00000+0  29253-3 0  9997
2 34985  86.3643 289.5413 0019490 324.4921  64.4773 14.43047903914753
IRIDIUM 33 DEB          
1 35051U 97051NX  26280.15352389  .00001233  00000+0  32142-3 0  9993
2 35051  86.3221 238.6231 0008219 155.5142 204.6454 14.48757607913159
IRIDIUM 33 DEB          
1 35052U 97051NY  26280.23916919  .00000355  00000+0  10914-3 0  9995
2 35052  86.3266 252.4573 0011403 171.9452 188.1932 14.38802625915673
IRIDIUM 33 DEB          
1 35297U 97051PM  26279.82608211  .00001041  00000+0  28522-3 0  9999
2 35297  86.3820 295.4359 0013902 228.1747 131.8269 14.46244431747335
IRIDIUM 33 DEB          
1 35299U 97051PP  26279.92257356  .00001435  00000+0  41638-3 0  9992
2 35299  86.2824 263.1017 0053064 194.7548 194.3807 14.42922075906289
IRIDIUM 33 DEB          
1 35480U 97051QA  26279.20440739  .00001286  00000+0  32003-3 0  9994
2 35480  86.3519 255.7835 0012833 179.9275 180.1934 14.50957160913430
IRIDIUM 33 DEB          
1 35484U 97051QE  26279.53192543  .00062414  00000+0  23626-2 0  9991
2 35484  86.3432 209.9248 0016663  93.2703 267.0450 15.26547008665179
IRIDIUM 33 DEB          
1 35488U 97051QJ  26280.13161518  .00005620  00000+0  59621-3 0  9992
2 35488  86.3280 162.6665 0026287  62.1291 298.2593 14.88635343926982
IRIDIUM 33 DEB          
1 35616U 97051QN  26280.23446870  .00007600  00000+0  80306-3 0  9997
2 35616  86.3553 208.5636 0005844 184.6585 175.4588 14.89097409920078
IRIDIUM 33 DEB          
1 35618U 97051QQ  26276.12534346  .00001026  00000+0  24048-3 0  9995
2 35618  86.3352 224.6031 0030778 106.0548 254.4052 14.53270764696685
IRIDIUM 33 DEB          
1 35620U 97051QS  26278.21160376  .00008386  00000+0  22448-2 0  9995
2 35620  86.3830  91.7944 0127180   2.6340 357.5502 14.43423224642361
IRIDIUM 33 DEB          
1 35625U 97051QX  26275.71461985  .00002640  00000+0  91550-3 0  9990
2 35625  86.1857 253.7698 0101658 330.0224 151.3721 14.32424385702468
IRIDIUM 33 DEB          
1 35628U 97051RA  26280.16841759  .00004355  00000+0  69842-3 0  9993
2 35628  86.3538 235.4479 0013346  32.1551 328.0476 14.71438085908308
IRIDIUM 33 DEB          
1 35631U 97051RD  26279.91826635  .00000652  00000+0  17033-3 0  9995
2 35631  86.3627 252.4878 0015397 198.7985 190.3402 14.47923866915116
IRIDIUM 33 DEB          
1 35680U 97051RJ  26279.19416757  .00003934  00000+0  15275-2 0  9990
2 35680  86.1004 249.4667 0151221  51.6605   5.9401 14.23590553649304
IRIDIUM 33 DEB          
1 35744U 97051RX  26278.53430338  .00003600  00000+0  53802-3 0  9998
2 35744  86.3337 190.9156 0017481 252.5587 107.3720 14.74405275917007
IRIDIUM 33 DEB          
1 35797U 97051SF  26279.48218343  .00008331  00000+0  85502-3 0  9999
2 35797  86.3383 192.2302 0008622 172.0746 188.0619 14.90267176917652
IRIDIUM 33 DEB          
1 35806U 97051SQ  26279.19819440  .00003078  00000+0  63691-3 0  9991
2 35806  86.3393 249.2919 0014819 131.0204 229.2290 14.59953453906612
IRIDIUM 33 DEB          
1 35809U 97051ST  26279.50754236  .00006383  00000+0  81586-3 0  9995
2 35809  86.3303 199.0383 0009701 301.4192  58.6080 14.81227073912082
IRIDIUM 33 DEB          
1 35846U 97051SW  26280.00757538  .00000892  00000+0  25450-3 0  9998
2 35846  86.3699 291.4637 0015318 267.7389  92.2058 14.44108724756325
IRIDIUM 33 DEB          
1 35848U 97051SY  26279.18056149  .00008720  00000+0  10220-2 0  9993
2 35848  86.3850 241.5243 0003925 228.2343 131.8545 14.84894625710965
IRIDIUM 33 DEB          
1 35850U 97051TA  26280.10734117  .00006910  00000+0  80758-3 0  9991
2 35850  86.3503 207.7034 0005497 228.7860 131.2890 14.84978138757779
IRIDIUM 33 DEB          
1 35915U 97051TY  26280.09042775  .00008277  00000+0  89985-3 0  9992
2 35915  86.3450 205.6817 0006752 222.9090 137.1610 14.87953241125139
IRIDIUM 33 DEB          
1 35918U 97051UB  26279.34829663  .00001949  00000+0  46337-3 0  9993
2 35918  86.3990 307.8599 0023410 250.0456 122.3090 14.53263879895272
IRIDIUM 33 DEB          
1 35929U 97051UN  26279.42194078  .00053519  00000+0  19681-2 0  9990
2 35929  86.3415 169.0391 0010781  16.1201 344.0387 15.27615719922864
IRIDIUM 33 DEB          
1 36011U 97051US  26279.74914676  .00000846  00000+0  25114-3 0  9996
2 36011  86.3352 267.3325 0017107 325.1129 155.3467 14.42111796688343
IRIDIUM 33 DEB          
1 36012U 97051UT  26277.49400333  .00008975  00000+0  30983-2 0  9997
2 36012  86.4404 187.9382 0227297  35.9198 325.7030 14.22219687696847
IRIDIUM 33 DEB          
1 36028U 97051VK  26279.95146626  .00019857  00000+0  12234-2 0  9999
2 36028  86.3118 164.6231 0016436  56.6201 303.6606 15.09754414916045
IRIDIUM 33 DEB          
1 36080U 97051VM  26276.63346295  .00001247  00000+0  33298-3 0  9991
2 36080  86.3168 239.3519 0014434 263.2716  96.6844 14.47608717516796
IRIDIUM 33 DEB          
1 36083U 97051VQ  26280.23146969  .00001078  00000+0  30804-3 0  9993
2 36083  86.3376 265.5345 0024771 322.9995  36.9496 14.44116874897567
IRIDIUM 33 DEB          
1 36390U 97051VU  26276.96722501  .00002823  00000+0  39561-3 0  9999
2 36390  86.2929 163.7004 0027159 222.2331 137.6797 14.76914589706152
IRIDIUM 33 DEB          
1 36483U 97051VZ  26279.32058242  .00000974  00000+0  26403-3 0  9995
2 36483  86.3738 285.0222 0007753 208.2308 151.8476 14.46715273694479
IRIDIUM 33 DEB          
1 36490U 97051WG  26279.84327869  .00008224  00000+0  10213-2 0  9991
2 36490  86.3608 235.1494 0005853  81.5754 278.6132 14.82484377908930
IRIDIUM 33 DEB          
1 36493U 97051WK  26280.16426620  .00003770  00000+0  64401-3 0  9996
2 36493  86.3538 238.6224 0013027  51.8896 308.3491 14.68634615788945
IRIDIUM 33 DEB          
1 36497U 97051WP  26277.86486803  .00006471  00000+0  11235-2 0  9999
2 36497  86.1572 115.1410 0043464 185.3427 174.7330 14.67436094699894
IRIDIUM 33 DEB          
1 37136U 97051XG  26279.06620648  .00000980  00000+0  37109-3 0  9999
2 37136  86.1762 206.6848 0077888 109.2665 251.6974 14.28523580687422
IRIDIUM 33 DEB          
1 37548U 97051XH  26277.73561331  .00002024  00000+0  48293-3 0  9998
2 37548  86.3472 274.3347 0021370 282.0664  77.8148 14.53137848698282
IRIDIUM 33 DEB          
1 37550U 97051XK  26279.68177338  .00004132  00000+0  67059-3 0  9990
2 37550  86.3721 251.3208 0004273 121.5257 238.6377 14.70957465907087
IRIDIUM 33 DEB          
1 37562U 97051XX  26279.74878535  .00002430  00000+0  51225-3 0  9994
2 37562  86.3684 273.3533 0023680 171.2312 312.2837 14.58907812906705
IRIDIUM 33 DEB          
1 37565U 97051YA  26279.15128443  .00001184  00000+0  28398-3 0  9998
2 37565  86.3467 239.8509 0013146 152.0860 208.1054 14.52633112701539
IRIDIUM 33 DEB          
1 38017U 97051YD  26280.28086126  .00015376  00000+0  33543-2 0  9993
2 38017  86.3303  35.4827 0080623 186.3341 173.6856 14.55751884657369
IRIDIUM 33 DEB          
1 38022U 97051YJ  26279.18558886  .00001902  00000+0  55442-3 0  9996
2 38022  86.2647 245.9131 0044805 143.3504 217.0776 14.43093406734813
IRIDIUM 33 DEB          
1 38028U 97051YQ  26279.60055394  .00000852  00000+0  22832-3 0  9995
2 38028  86.3250 230.6737 0026062 209.3047 150.6695 14.46910746698014
IRIDIUM 33 DEB          
1 38228U 97051ZC  26278.79106869  .00000559  00000+0  21474-3 0  9995
2 38228  86.2886 282.1388 0062098 315.5222 219.2468 14.27704790890190
IRIDIUM 33 DEB          
1 38241U 97051ZR  26279.12560547  .00001701  00000+0  37848-3 0  9997
2 38241  86.3235 219.1834 0005087 101.7907 258.3872 14.56431451645273
IRIDIUM 33 DEB          
1 38474U 97051AAB 26277.18011219  .00001002  00000+0  24281-3 0  9997
2 38474  86.3410 241.1494 0024905 169.6533 190.5190 14.51821273696031
IRIDIUM 33 DEB          
1 38477U 97051AAE 26274.65479199  .00002343  00000+0  17467-2 0  9990
2 38477  86.4110 357.0763 0397986 107.2998 257.2101 13.62752373586646
IRIDIUM 33 DEB          
1 39777U 97051AAJ 26279.73179405  .00004956  00000+0  95594-3 0  9995
2 39777  85.9584  29.4644 0055387 253.6838 105.8278 14.62335021645335
IRIDIUM 33 DEB          
1 39778U 97051AAK 26279.95386708  .00002259  00000+0  50630-3 0  9992
2 39778  86.3717 273.5256 0009601  97.1637 263.0663 14.56223744650305
IRIDIUM 33 DEB          
1 39781U 97051AAN 26274.36651778  .00002013  00000+0  71150-3 0  9996
2 39781  86.3803 136.9412 0173220  54.7591  70.9451 14.26114005122713
IRIDIUM 33 DEB          
1 40996U 97051ABJ 26279.79720511  .00056221  00000+0  24262-2 0  9991
2 40996  86.3437 219.1512 0009292  57.6856 302.5287 15.22256010669845
IRIDIUM 33 DEB          
1 40998U 97051ABL 26278.81485134  .00000835  00000+0  22893-3 0  9993
2 40998  86.3772 286.6690 0008146 155.6606 328.7567 14.45962918109737
IRIDIUM 33 DEB          
1 46435U 97051ABN 26277.19917571  .00005298  00000+0  13119-2 0  9998
2 46435  86.2743  65.4801 0195906  24.5878 150.2718 14.40795684121626
IRIDIUM 33 DEB          
1 46734U 97051ABR 26277.65040969  .00001816  00000+0  52590-3 0  9998
2 46734  86.2655 232.7295 0040662  73.4136 101.6579 14.43488089672777
IRIDIUM 33 DEB          
1 46965U 97051ABX 26279.56342802  .00001857  00000+0  36466-3 0  9996
2 46965  86.3386 208.3827 0020995  36.4471 138.5766 14.62048784666172
IRIDIUM 33 DEB          
1 46971U 97051ACD 26269.05356433  .00070065  00000+0  33011-2 0  9990
2 46971  86.3136 195.2376 0007836  39.3222 333.1067 15.19190577685618
IRIDIUM 33 DEB          
1 46972U 97051ACE 26278.73590455  .00001064  00000+0  25966-3 0  9994
2 46972  86.3814 271.4204 0008798 176.3183 308.9957 14.51749801658809
IRIDIUM 33 DEB          
1 46974U 97051ACG 26275.45293511  .00004008  00000+0  99209-3 0  9997
2 46974  86.3002 336.4040 0083201 287.9418  71.2728 14.49686640617575
