STARLINK-38024          
1 69975U 26159A   26222.49718932  .00123340  00000+0  81467-3 0  9997
2 69975  97.2832  62.6180 0002121  93.3445 266.8063 15.75223912  6011
STARLINK-37993          
1 69976U 26159B   26222.49542957  .00102164  00000+0  67716-3 0  9992
2 69976  97.2833  62.6206 0002159  91.3186 268.8326 15.75205617  6019
STARLINK-37995          
1 69977U 26159C   26222.53494947  .00121423  00000+0  80257-3 0  9997
2 69977  97.2823  62.5643 0001136  50.7474 309.3891 15.75214555  6015
STARLINK-38057          
1 69978U 26159D   26222.50106475  .00128584  00000+0  84804-3 0  9998
2 69978  97.2821  62.6128 0002597  86.2368 273.9194 15.75242108  6018
STARLINK-38063          
1 69979U 26159E   26222.51130745  .00108266  00000+0  71718-3 0  9992
2 69979  97.2843  62.5998 0001333  81.2010 278.9407 15.75202296  6019
STARLINK-38093          
1 69980U 26159F   26222.54836497  .00142879  00000+0  94157-3 0  9994
2 69980  97.2823  62.7002 0001223  84.2289 275.9115 15.75221560  6025
STARLINK-38050          
1 69981U 26159G   26222.53212767  .00107766  00000+0  71382-3 0  9993
2 69981  97.2818  62.5682 0001280  40.1051 320.0309 15.75205595  6019
STARLINK-38065          
1 69982U 26159H   26222.52789204  .00114213  00000+0  75517-3 0  9997
2 69982  97.2832  62.5756 0002382  89.0441 271.1097 15.75225958  6012
STARLINK-38077          
1 69983U 26159J   26222.55189350  .00111812  00000+0  73979-3 0  9999
2 69983  97.2821  62.6972 0001389  29.7601 330.3743 15.75219298  6024
STARLINK-38068          
1 69984U 26159K   26222.50883721  .00109447  00000+0  72476-3 0  9990
2 69984  97.2824  62.6018 0002509 105.6459 254.5083 15.75204478  6016
STARLINK-38089          
1 69985U 26159L   26222.51836961  .00110849  00000+0  73524-3 0  9999
2 69985  97.2821  62.5887 0001370  76.2959 283.8458 15.75164729  6015
STARLINK-38073          
1 69986U 26159M   26222.50354689  .00165039  00000+0  10839-2 0  9991
2 69986  97.2828  62.6082 0002904  82.4227 277.7368 15.75233663  6018
STARLINK-38099          
1 69987U 26159N   26222.52471844  .00132262  00000+0  87290-3 0  9995
2 69987  97.2822  62.5792 0001307  62.5219 297.6179 15.75217716  6018
STARLINK-38064          
1 69988U 26159P   26222.51342456  .00182315  00000+0  11948-2 0  9991
2 69988  97.2829  62.5946 0001855 100.8492 259.2982 15.75237419  6012
STARLINK-38080          
1 69989U 26159Q   26222.50707108  .00107234  00000+0  71026-3 0  9991
2 69989  97.2842  62.6049 0001736  87.0376 273.1087 15.75207793  6011
STARLINK-38070          
1 69990U 26159R   26222.50989778  .00199825  00000+0  13065-2 0  9993
2 69990  97.2829  62.6002 0001755  90.0680 270.0787 15.75242310  6017
STARLINK-38042          
1 69991U 26159S   26222.50248269  .00106620  00000+0  70697-3 0  9993
2 69991  97.2836  62.6098 0001221  79.9028 280.2375 15.75184817  6014
STARLINK-38071          
1 69992U 26159T   26222.51483878  .00192219  00000+0  12581-2 0  9998
2 69992  97.2831  62.5935 0001821 113.9037 246.2419 15.75239723  6012
STARLINK-38082          
1 69993U 26159U   26222.50530800  .00106206  00000+0  70345-3 0  9990
2 69993  97.2838  62.6061 0002102  87.3978 272.7528 15.75210164  6015
STARLINK-38090          
1 69994U 26159V   26222.49189487  .00104341  00000+0  69095-3 0  9998
2 69994  97.2849  62.6278 0002088  77.3688 282.7811 15.75220719  6011
STARLINK-38084          
1 69995U 26159W   26222.52048255  .00110607  00000+0  73228-3 0  9995
2 69995  97.2824  62.5857 0001404  84.7987 275.3438 15.75208232  6011
STARLINK-38085          
1 69996U 26159X   26222.49895308  .00119645  00000+0  79089-3 0  9993
2 69996  97.2824  62.6144 0001964  84.1600 275.9889 15.75216733  6010
STARLINK-38091          
1 69997U 26159Y   26222.54414698  .00129634  00000+0  85662-3 0  9992
2 69997  97.2831  62.7072 0001543  81.2008 278.9432 15.75196416  6026
STARLINK-38086          
1 69998U 26159Z   26222.50319135  .00111313  00000+0  73689-3 0  9990
2 69998  97.2832  62.6103 0001691  95.9958 264.1500 15.75207862  6012
