SAR-LUPE 2              
1 31797U 07030A   26273.27859657  .00043221  00000+0  45395-3 0  9996
2 31797  98.1116  32.0380 0003090 165.6924 194.4421 15.64235142 73295
SAPPHIRE                
1 39088U 13009C   26273.22133547  .00000024  00000+0  23268-4 0  9998
2 39088  98.4316  90.2283 0010155 299.4312  60.5860 14.35262950711648
PRAETORIAN SDA_602      
1 65565U 25203A   26273.07258049  .00000030  00000+0  16273-4 0  9999
2 65565  81.2988 273.6796 0004874 272.7247  87.3351 13.83894054 53201
PRAETORIAN SDA_603      
1 65566U 25203B   26273.09678981  .00000168  00000+0  14089-3 0  9997
2 65566  81.2994 273.5748 0008553 267.4177  92.6000 13.83966984 53219
PRAETORIAN SDA_604      
1 65567U 25203C   26273.25728084  .00000037  00000+0  22938-4 0  9994
2 65567  81.3011 274.0049 0004415 278.1726  81.8929 13.83057600 53208
PRAETORIAN SDA_605      
1 65568U 25203D   26273.06545223  .00000033  00000+0  19439-4 0  9994
2 65568  81.2974 273.7795 0007150 268.2989  91.7348 13.83135086 53198
PRAETORIAN SDA_606      
1 65569U 25203E   26273.26602263  .00000038  00000+0  23761-4 0  9993
2 65569  81.3013 273.8584 0004939 269.9173  90.1417 13.83212373 53214
PRAETORIAN SDA_607      
1 65570U 25203F   26273.08083897  .00000105  00000+0  84152-4 0  9997
2 65570  81.2995 273.5693 0007723 267.1618  92.8655 13.83764992 53212
PRAETORIAN SDA_608      
1 65571U 25203G   26273.05998199  .00000032  00000+0  18312-4 0  9999
2 65571  81.2965 273.7201 0004902 276.5952  83.4646 13.83825802 53199
PRAETORIAN SDA_609      
1 65572U 25203H   26273.10751088  .00000166  00000+0  13862-3 0  9992
2 65572  81.3005 273.6411 0005818 269.1106  90.9384 13.84216454 53217
PRAETORIAN SDA_610      
1 65573U 25203J   26273.05801692  .00000032  00000+0  18108-4 0  9995
2 65573  81.2968 273.7218 0005613 275.3621  84.6895 13.83535069 53194
PRAETORIAN SDA_611      
1 65574U 25203K   26273.07909987 -.00000195  00000+0 -18850-3 0  9999
2 65574  81.2968 273.9087 0004498 282.3361  77.7292 13.83315629 53181
PRAETORIAN SDA_612      
1 65575U 25203L   26273.08236077  .00000119  00000+0  94419-4 0  9994
2 65575  81.2986 273.2346 0008222 267.9509  92.0706 13.85039041 53234
PRAETORIAN SDA_613      
1 65576U 25203M   26273.05460875  .00000035  00000+0  20974-4 0  9999
2 65576  81.2958 274.0099 0004562 269.4562  90.6071 13.82773587 53176
PRAETORIAN SDA_614      
1 65577U 25203N   26273.23570352  .00000035  00000+0  20593-4 0  9999
2 65577  81.2972 273.1958 0006011 265.0294  95.0177 13.84785416 53253
PRAETORIAN SDA_615      
1 65578U 25203P   26273.23847174  .00000093  00000+0  72921-4 0  9995
2 65578  81.2982 273.2234 0007990 265.2385  94.7859 13.84442552 53246
PRAETORIAN SDA_616      
1 65579U 25203Q   26273.08136134  .00000070  00000+0  52828-4 0  9995
2 65579  81.3020 274.1218 0004435 280.0297  80.0359 13.83276180 53188
PRAETORIAN SDA_617      
1 65580U 25203R   26273.25657970  .00000037  00000+0  22931-4 0  9997
2 65580  81.2996 273.7812 0006271 266.1686  93.8753 13.83157850 53219
PRAETORIAN SDA_618      
1 65581U 25203S   26273.07311057 -.00003124  00000+0 -28124-2 0  9991
2 65581  81.2952 273.3228 0009437 279.3322  80.6767 13.84235886 53226
PRAETORIAN SDA_619      
1 65582U 25203T   26273.07454064  .00000138  00000+0  11441-3 0  9993
2 65582  81.3003 273.7358 0007080 266.6216  93.4130 13.83731681 53832
PRAETORIAN SDA_620      
1 65583U 25203U   26273.06745013  .00002653  00000+0  24074-2 0  9999
2 65583  81.2965 273.8151 0007166 282.1424  77.8929 13.83251283 53196
PRAETORIAN SDA_621      
1 65584U 25203V   26273.07337812  .00000035  00000+0  20996-4 0  9998
2 65584  81.2979 273.6430 0006262 260.0289 100.0161 13.83810486 53205
PRAETORIAN SDA_601      
1 65585U 25203W   26273.23673791  .00000137  00000+0  11396-3 0  9992
2 65585  81.2996 273.9083 0004449 283.4447  76.6213 13.83176604 53205
VICTUS HAZE PUMA        
1 69646U 26142A   26273.20470962  .00002259  00000+0  10325-3 0  9997
2 69646  97.4503 169.6218 0019690  95.2372 265.1111 15.21430289 15634
