COSMOS 2407             
1 28380U 04028A   26272.76156403  .00000064  00000+0  50343-4 0  9994
2 28380  82.9652 357.3785 0038245 321.4365 154.2231 13.76341321114262
COSMOS 2414             
1 28521U 05002A   26272.63605557  .00000060  00000+0  36787-4 0  9991
2 28521  82.9509 324.6470 0040803  33.3972 326.9752 13.87935278 98308
COSMOS 2463             
1 36519U 10017A   26272.79283623  .00000052  00000+0  40782-4 0  9993
2 36519  82.9642 172.8625 0035525 197.8175 221.9577 13.71671176822270
