OPS 7218 (TRANSIT 16)   
1 02807U 67048A   26273.24234867  .00000087  00000+0  11967-3 0  9999
2 02807  89.6769 344.4485 0019739 358.7768  60.8086 13.50781823922110
OPS 4947 (TRANSIT 17)   
1 02965U 67092A   26273.52089936  .00000077  00000+0  96125-4 0  9998
2 02965  89.2625   2.3584 0049621 108.2395 276.8930 13.53514664910449
OPS 7034 (TRANSIT 18)   
1 03133U 68012A   26273.47166531  .00000075  00000+0  98413-4 0  9990
2 03133  90.0205 274.3777 0075271  46.5551  65.9509 13.51625958608590
NNSS 19 (TRANSIT 19)    
1 04507U 70067A   26273.43407932  .00000080  00000+0  97959-4 0  9998
2 04507  90.0208 234.9126 0171872 166.9216 193.6478 13.51380458761618
NNSS 20 (TRANSIT 20)    
1 06909U 73081A   26273.44300659  .00000112  00000+0  10600-3 0  9997
2 06909  89.8614 250.7316 0152312 283.6964  74.7282 13.71536022843597
TRANSAT                 
1 10457U 77106A   26273.51708034  .00000049  00000+0  61323-4 0  9997
2 10457  89.6447  68.1514 0027262  73.3308 353.3747 13.48982243406775
NOVA 1                  
1 12458U 81044A   26273.52274626  .00000042  00000+0  77789-4 0  9998
2 12458  89.8383  87.0444 0015075  26.1562  41.8120 13.23310952190452
NOVA 3                  
1 15362U 84110A   26273.52297523  .00000038  00000+0  70160-4 0  9994
2 15362  90.1116  83.8091 0029900 243.8378 175.0775 13.23078050 25560
OSCAR 30                
1 15935U 85066A   26273.50617972  .00000054  00000+0  82993-4 0  9998
2 15935  90.1443 104.3340 0167264 341.0514  76.7409 13.36125145  3417
OSCAR 24                
1 15936U 85066B   26273.52051854  .00000041  00000+0  59439-4 0  9997
2 15936  90.1612  97.2179 0168471 347.6401  64.2069 13.35980264  5409
POLAR BEAR              
1 17070U 86088A   26273.23336442  .00000080  00000+0  71344-4 0  9992
2 17070  89.6251 172.2304 0038248 323.8446 147.4347 13.75303148999857
OSCAR 27                
1 18361U 87080A   26273.47982480  .00000064  00000+0  89893-4 0  9994
2 18361  90.3617  90.0098 0105530 108.5932 252.6713 13.44956215914780
OSCAR 29                
1 18362U 87080B   26273.51403035  .00000059  00000+0  82181-4 0  9991
2 18362  90.3623  90.4898 0106669 131.8799 283.2682 13.44491501914309
OSCAR 23                
1 19070U 88033A   26273.59369951  .00000029  00000+0  37965-4 0  9990
2 19070  90.3379  25.6535 0191244  88.8046 284.5885 13.27828870861260
OSCAR 32                
1 19071U 88033B   26273.62079088  .00000054  00000+0  88046-4 0  9998
2 19071  90.3384  25.8020 0189488  75.4840 349.4151 13.27990052861392
NOVA 2                  
1 19223U 88052A   26273.47389948  .00000029  00000+0  49542-4 0  9990
2 19223  89.9795  77.7763 0028769 290.7818 122.9735 13.22965092848053
OSCAR 25                
1 19419U 88074A   26273.56996880  .00000062  00000+0  89943-4 0  9996
2 19419  90.0508  21.4052 0097691 133.0502 240.0015 13.42671504865563
OSCAR 31                
1 19420U 88074B   26273.60375775  .00000069  00000+0  10168-3 0  9996
2 19420  90.0524  21.8033 0096002 127.3148 245.5833 13.42622883865679
