ORBCOMM FM06            
1 25118U 97084G   26275.23503161  .00000640  00000+0  21065-3 0  9994
2 25118  45.0130 257.2852 0001947 300.8845  73.3450 14.47775935509909
ORBCOMM FM04            
1 25159U 98007C   26274.92067048  .00000494  00000+0  21416-3 0  9996
2 25159 107.9614  29.0919 0039391 142.2090 218.1828 14.35886466491910
ORBCOMM FM19            
1 25415U 98046C   26275.25173120  .00000424  00000+0  17972-3 0  9995
2 25415  44.9929  94.5712 0004370 127.9702  41.6219 14.39659016472208
ORBCOMM FM20            
1 25416U 98046D   26273.95065735  .00000308  00000+0  14712-3 0  9993
2 25416  44.9929 109.8637 0001442 108.0922 252.0084 14.38187665472018
ORBCOMM FM27            
1 25481U 98053G   26273.48938438  .00000534  00000+0  21596-3 0  9999
2 25481  45.0045 195.1341 0002044 354.3047   5.7779 14.39298939465401
ORBCOMM FM32            
1 25982U 99065C   26274.57513131  .00000368  00000+0  16944-3 0  9995
2 25982  45.0164  29.6095 0007584 223.3968 136.6284 14.37257764402390
ORBCOMM FM109           
1 40086U 14040A   26274.38775900  .00000151  00000+0  68191-4 0  9992
2 40086  47.0037 309.3451 0001929 314.2399  45.8328 14.58930457649856
ORBCOMM FM110           
1 41182U 15081D   26275.21103562  .00000261  00000+0  91172-4 0  9995
2 41182  47.0012 215.3488 0002949 224.4566 135.6083 14.58980268573255
ORBCOMM FM118           
1 41183U 15081E   26275.24690070  .00000293  00000+0  98407-4 0  9997
2 41183  47.0036 215.5485 0002956 175.0570 185.0346 14.58828351573362
ORBCOMM FM112           
1 41184U 15081F   26274.97575564  .00000219  00000+0  82513-4 0  9996
2 41184  46.9979 125.2348 0002937 333.7852  26.2884 14.58974023574549
ORBCOMM FM113           
1 41185U 15081G   26275.22960114  .00000117  00000+0  60931-4 0  9992
2 41185  46.9994 124.4625 0001771 329.4273  30.6509 14.58944360574566
ORBCOMM FM108           
1 41187U 15081J   26274.36766896  .00000161  00000+0  70054-4 0  9995
2 41187  47.0057  40.1241 0002406 307.4985  52.5682 14.58991208575581
ORBCOMM FM117           
1 41188U 15081K   26274.88208391  .00000195  00000+0  77419-4 0  9993
2 41188  47.0021  36.3021 0002722 318.2760  41.7918 14.58974252575704
ORBCOMM FM116           
1 41189U 15081L   26274.99945679  .00000225  00000+0  83653-4 0  9994
2 41189  47.0010 125.5479 0001460 203.6494 156.4325 14.58976260574537
