O3B FM5                 
1 39188U 13031A   26267.98523014 -.00000017  00000+0  00000+0 0  9999
2 39188   0.0786 315.2046 0002433 215.6497 189.1543  5.00115671242037
O3B FM4                 
1 39189U 13031B   26271.30291074 -.00000014  00000+0  00000+0 0  9996
2 39189   0.0406 358.1845 0004304 158.3294 203.5114  5.00115702242206
O3B FM2                 
1 39190U 13031C   26270.76865109 -.00000014  00000+0  00000+0 0  9993
2 39190   0.0358   3.7958 0002609 179.7371 176.4709  5.00116131242239
O3B PFM                 
1 39191U 13031D   26268.58398265 -.00000016  00000+0  00000+0 0  9997
2 39191   0.0592 336.9945 0004821 180.4757 202.5555  5.00116209241686
O3B FM3                 
1 40079U 14038A   26269.05049429 -.00000015  00000+0  00000+0 0  9999
2 40079   0.0485 354.5988 0003689 230.9547 134.4212  5.00115819218094
O3B FM7                 
1 40080U 14038B   26271.19543790 -.00000014  00000+0  00000+0 0  9998
2 40080   0.0414 351.5124 0002693 153.5301 214.9809  5.00115552223039
O3B FM6                 
1 40081U 14038C   26271.42227854 -.00000014  00000+0  00000+0 0  9995
2 40081   0.0457 354.2491 0002580 193.5192 172.2335  5.00115767222982
O3B FM8                 
1 40082U 14038D   26271.47546064 -.00000014  00000+0  00000+0 0  9998
2 40082   0.0447 353.7223 0002768 192.8996 173.3803  5.00116124223117
O3B FM10                
1 40348U 14083A   26271.30289348 -.00000014  00000+0  00000+0 0  9994
2 40348   0.0482 345.2231 0002677 200.8679 173.9115  5.00115724215054
O3B FM11                
1 40349U 14083B   26268.71699217 -.00000016  00000+0  00000+0 0  9998
2 40349   0.0534 348.2295 0002158 181.7589 190.0205  5.00115538214936
O3B FM12                
1 40350U 14083C   26271.34248924 -.00000014  00000+0  00000+0 0  9996
2 40350   0.0526 349.2164 0002439 196.5842 174.2023  5.00115964215085
O3B FM9                 
1 40351U 14083D   26271.36930093 -.00000014  00000+0  00000+0 0  9994
2 40351   0.0532 346.9726 0002605 198.2143 174.8162  5.00116138215229
LEO 1 (LEO VANTAGE 1)   
1 43113U 18004C   26271.36739278  .00001416  00000+0  10191-3 0  9994
2 43113  99.2429 203.1740 0349139 122.4868 241.0589 14.68308543452626
O3B FM15                
1 43231U 18024A   26271.43615577 -.00000014  00000+0  00000+0 0  9998
2 43231   0.0563 356.0472 0002587 192.8439 171.1101  5.00115840156181
O3B FM16                
1 43232U 18024B   26271.48844971 -.00000014  00000+0  00000+0 0  9996
2 43232   0.0593 358.9284 0002579 189.4043 171.6689  5.00116012156112
O3B FM14                
1 43233U 18024C   26270.52984524 -.00000014  00000+0  00000+0 0  9990
2 43233   0.0591   0.4052 0002821 183.9989 175.5989  5.00115844156074
O3B FM13                
1 43234U 18024D   26270.79564867 -.00000014  00000+0  00000+0 0  9994
2 43234   0.0551 341.9131 0000689 134.3171 243.7826  5.00115755156197
O3B FM20                
1 44112U 19020A   26271.15560214 -.00000014  00000+0  00000+0 0  9990
2 44112   0.0541 353.3998 0002235 194.0562 172.5465  5.00115706136716
O3B FM19                
1 44113U 19020B   26268.58397955 -.00000016  00000+0  00000+0 0  9996
2 44113   0.0752 338.6335 0002863 178.9120 202.4716  5.00116217136451
O3B FM17                
1 44114U 19020C   26271.26278910 -.00000014  00000+0  00000+0 0  9993
2 44114   0.0509  14.6979 0002567 175.2303 170.0725  5.00115689136688
O3B FM18                
1 44115U 19020D   26271.40906069 -.00000014  00000+0  00000+0 0  9993
2 44115   0.0543 353.1391 0002758 194.3583 172.5042  5.00115411136817
SALSAT                  
1 46495U 20068K   26271.57925647  .00005015  00000+0  16980-3 0  9994
2 46495  97.8879 281.0651 0007777 305.7280  54.3236 15.31079083331179
O3B MPOWER F1           
1 54755U 22174A   26271.52333325 -.00000014  00000+0  00000+0 0  9990
2 54755   0.0414 343.6933 0006988 207.7916 233.9341  5.00114309 70523
O3B MPOWER F2           
1 54756U 22174B   26271.45350623 -.00000014  00000+0  00000+0 0  9993
2 54756   0.0390 348.5850 0005480 192.7761 178.6433  5.00118700 70612
O3B MPOWER F4           
1 56367U 23059A   26267.52002965 -.00000018  00000+0  00000+0 0  9996
2 56367   0.0590 342.3109 0007695 196.7885 180.9060  5.00115028 63573
O3B MPOWER F3           
1 56368U 23059B   26271.35111633 -.00000014  00000+0  00000+0 0  9992
2 56368   0.0588 341.0319 0006365 199.2662 179.7073  5.00115469 59893
O3B MPOWER F9           
1 64866U 25153A   26270.91957575 -.00000014  00000+0  00000+0 0  9995
2 64866   0.0667 355.7355 0007446 201.7309 162.5137  5.00115245 24708
O3B MPOWER F10          
1 64867U 25153B   26271.48541701 -.00000014  00000+0  00000+0 0  9999
2 64867   0.0624 354.4939 0005138 280.5623  84.8911  5.00114828 27206
