SKYSAT-A                
1 39418U 13066C   26275.38092268  .00001438  00000+0  83661-4 0  9994
2 39418  97.3698 321.3299 0019765 305.7650  54.1744 15.13465009704697
SKYSAT-B                
1 40072U 14037D   26274.83274025  .00000742  00000+0  87079-4 0  9997
2 40072  98.3980 239.9665 0004368 300.6243  59.4541 14.88248892661826
SKYSAT-C1               
1 41601U 16040C   26275.30614275  .00005059  00000+0  13815-3 0  9992
2 41601  96.9499 301.2932 0002816  41.0682 319.0775 15.37828284574329
SKYSAT-C4               
1 41771U 16058B   26275.55367865  .00010054  00000+0  17074-3 0  9998
2 41771  96.9164 293.0434 0002211 160.4281 199.7058 15.51646886562103
SKYSAT-C5               
1 41772U 16058C   26275.33184793  .00003888  00000+0  11906-3 0  9997
2 41772  97.0373 311.0788 0000787 175.3972 184.7279 15.34370362560177
SKYSAT-C2               
1 41773U 16058D   26274.99330900  .00006885  00000+0  15193-3 0  9994
2 41773  97.0138 293.2094 0004023  50.7674 309.3932 15.44180870561525
SKYSAT-C3               
1 41774U 16058E   26275.30756770  .00016415  00000+0  22972-3 0  9991
2 41774  96.8930 302.3118 0001407 101.7811 258.3603 15.56874970562753
SKYSAT-C11              
1 42987U 17068A   26275.00433613  .00026150  00000+0  28120-3 0  9993
2 42987  97.4480  69.0380 0000172  51.8741 308.2534 15.63730997499902
SKYSAT-C10              
1 42988U 17068B   26275.16674758  .00005692  00000+0  16311-3 0  9995
2 42988  97.4657  53.2919 0001187  91.3443 268.7937 15.36316297498771
SKYSAT-C9               
1 42989U 17068C   26274.93628504  .00008344  00000+0  18540-3 0  9991
2 42989  97.4577  55.0660 0008967 108.9653 251.2567 15.43908993499211
SKYSAT-C8               
1 42990U 17068D   26275.16524697  .00006519  00000+0  17200-3 0  9991
2 42990  97.4672  53.5117 0001349  86.2494 273.8906 15.38829616498750
SKYSAT-C7               
1 42991U 17068E   26274.83740339  .00006532  00000+0  17252-3 0  9990
2 42991  97.4685  54.1752 0006864  86.3598 273.8432 15.38777759498765
SKYSAT-C6               
1 42992U 17068F   26275.18114326  .00005249  00000+0  16170-3 0  9993
2 42992  97.4726  53.9392 0001476 111.4257 248.7143 15.34070471498724
SKYSAT-C12              
1 43797U 18099AR  26275.48459589  .00010257  00000+0  17156-3 0  9998
2 43797  96.9231 294.6225 0005968 116.9866 243.1997 15.52051239438482
FLOCK 4Q-16             
1 58271U 23174R   26275.17116574  .00015232  00000+0  23932-3 0  9998
2 58271  97.3757   6.0513 0006876 139.9452 220.2309 15.53711461162166
PELICAN-1               
1 58296U 23174AS  26274.76391148  .00003467  00000+0  35318-4 0  9990
2 58296  97.4009  21.3671 0001831 151.0061 209.1301 15.65898424162892
FLOCK 4Q-2              
1 58320U 23174BS  26275.55338584  .00016984  00000+0  26071-3 0  9994
2 58320  97.3806   6.9039 0005818 107.8190 252.3699 15.54337274162251
FLOCK 4Q-9              
1 58322U 23174BU  26274.82575864  .00014836  00000+0  22254-3 0  9992
2 58322  97.3805   6.3507 0007090 111.1712 249.0300 15.54994463162136
FLOCK 4Q-4              
1 58327U 23174BZ  26275.50874637  .00017850  00000+0  28525-3 0  9999
2 58327  97.3763   5.9207 0005724 133.8406 226.3321 15.53213019162196
FLOCK 4Q-13             
1 58328U 23174CA  26275.52912588  .00019177  00000+0  27219-3 0  9993
2 58328  97.3974   9.8396 0006432 114.9119 245.2805 15.56452791162340
FLOCK 4BE-18            
1 60480U 24149N   26275.49631922  .00021079  00000+0  43378-3 0  9992
2 60480  97.3661   0.5822 0003368 203.4356 156.6740 15.45968906118868
FLOCK 4BE-7             
1 60481U 24149P   26275.51584809  .00021995  00000+0  46641-3 0  9990
2 60481  97.3690 359.8038 0002623 209.6655 150.4445 15.45080929118799
FLOCK 4BE-36            
1 60486U 24149U   26275.48687962  .00029383  00000+0  54748-3 0  9991
2 60486  97.3669   1.5547 0003365 211.4581 148.6469 15.48785432118923
FLOCK 4BE-25            
1 60487U 24149V   26275.15409421  .00018474  00000+0  43268-3 0  9992
2 60487  97.3730 359.2075 0001999 199.8561 160.2609 15.42156124118706
FLOCK 4BE-31            
1 60488U 24149W   26275.51101905  .00026800  00000+0  49348-3 0  9996
2 60488  97.3736   2.6901 0002406 211.1831 148.9278 15.49146146118965
FLOCK 4BE-20            
1 60489U 24149X   26275.46649038  .00044434  00000+0  92054-3 0  9990
2 60489  97.3609 358.3395 0004817 209.8063 150.2912 15.45614081118732
FLOCK 4BE-23            
1 60490U 24149Y   26275.51547046  .00018689  00000+0  45682-3 0  9992
2 60490  97.3710 358.6052 0002384 227.1265 132.9781 15.40861031118706
FLOCK 4BE-17            
1 60492U 24149AA  26275.14258902  .00020986  00000+0  46859-3 0  9993
2 60492  97.3701 359.5612 0002611 209.5495 150.5606 15.43559138118732
FLOCK 4BE-22            
1 60494U 24149AC  26275.47132698  .00024501  00000+0  51584-3 0  9992
2 60494  97.3665   0.2830 0002853 218.7749 141.3296 15.45270312118848
FLOCK 4BE-34            
1 60495U 24149AD  26275.48941598  .00026663  00000+0  55943-3 0  9995
2 60495  97.3716   1.1929 0002853 237.7089 122.3884 15.45354137118876
FLOCK 4BE-32            
1 60497U 24149AF  26275.50987232  .00026453  00000+0  53212-3 0  9999
2 60497  97.3652   0.8492 0003110 231.1741 128.9231 15.46590259118896
FLOCK 4BE-11            
1 60501U 24149AK  26274.80056455  .00029240  00000+0  57012-3 0  9990
2 60501  97.3632   0.4615 0003090 226.5990 133.5003 15.47477666118812
FLOCK 4BE-24            
1 60505U 24149AP  26274.76756087  .00029387  00000+0  56595-3 0  9994
2 60505  97.3648   0.7533 0002970 239.2803 120.8155 15.47834360118821
TANAGER-1               
1 60507U 24149AR  26275.54391152  .00009614  00000+0  21282-3 0  9997
2 60507  97.2275   9.1800 0000488  41.8578 318.2708 15.43998613119608
FLOCK 4BE-29            
1 60509U 24149AT  26275.49028521  .00029298  00000+0  53271-3 0  9993
2 60509  97.3746   3.3961 0000796 286.8856  73.2308 15.49492590119007
FLOCK 4BE-13            
1 60512U 24149AW  26275.71558318  .00026986  00000+0  55989-3 0  9993
2 60512  97.3657   1.4430 0003639 228.0456 132.0483 15.45678784118953
FLOCK 4BE-27            
1 60513U 24149AX  26275.47455215  .00005386  00000+0  15552-3 0  9992
2 60513  97.3755 357.4632 0002409 281.6836  78.4138 15.36094135118606
FLOCK 4BE-9             
1 60514U 24149AY  26274.80862500  .00025345  00000+0  54399-3 0  9997
2 60514  97.3729   0.3325 0001693 249.8238 110.2829 15.44696591118758
FLOCK 4BE-6             
1 60516U 24149BA  26274.80280792  .00021414  00000+0  48562-3 0  9994
2 60516  97.3727 359.4567 0002233 267.2076  92.8916 15.43093825118694
FLOCK 4BE-14            
1 60517U 24149BB  26275.51493140  .00022835  00000+0  48413-3 0  9990
2 60517  97.3625   0.4422 0003300 250.1461 109.9432 15.45076882118879
FLOCK 4BE-1             
1 60518U 24149BC  26275.02353453  .00029815  00000+0  59165-3 0  9990
2 60518  97.3718   1.6285 0003044 251.7728 108.3190 15.46962631118861
FLOCK 4BE-28            
1 60519U 24149BD  26275.11925352  .00017855  00000+0  31319-3 0  9996
2 60519  97.3690   2.9735 0002534 253.5976 106.4997 15.50610854118982
FLOCK 4BE-5             
1 60559U 24149CV  26274.91513042  .00024607  00000+0  53887-3 0  9993
2 60559  97.3781   0.1518 0002375 243.3535 116.7471 15.44106094118729
FLOCK 4BE-3             
1 60561U 24149CX  26275.51923420  .00022896  00000+0  47580-3 0  9999
2 60561  97.3627   0.6883 0002866 239.8646 120.2320 15.45667466118896
FLOCK 4BE-19            
1 60563U 24149CZ  26274.93360507  .00033317  00000+0  59677-3 0  9997
2 60563  97.3680   2.2756 0003743 252.0772 108.0072 15.49887377118927
FLOCK 4G-8              
1 62613U 25009E   26275.49161869  .00006379  00000+0  21135-3 0  9999
2 62613  97.3935 357.1463 0002503 299.0431  61.0559 15.31638840 95338
FLOCK 4G-9              
1 62622U 25009P   26275.15182755  .00004782  00000+0  16913-3 0  9993
2 62622  97.3888 355.3933 0003192 317.1405  42.9587 15.29642184 95203
FLOCK 4G-7              
1 62624U 25009R   26275.49791963  .00006588  00000+0  22174-3 0  9991
2 62624  97.3870 356.3051 0001086 315.7813  44.3342 15.31118440 95318
FLOCK 4G-12             
1 62625U 25009S   26275.49590639  .00006234  00000+0  21018-3 0  9993
2 62625  97.3953 356.9314 0002502 292.8718  67.2259 15.31083229 95319
FLOCK 4G-11             
1 62629U 25009W   26274.75377783  .00006515  00000+0  21808-3 0  9997
2 62629  97.3853 355.6644 0001312 322.5448  37.5702 15.31297942 95214
PELICAN-2               
1 62631U 25009Y   26275.47117443  .00005038  00000+0  12548-3 0  9995
2 62631  97.2035   4.8750 0000578 119.6339 240.4965 15.40693296 96079
FLOCK 4G-26             
1 62633U 25009AA  26275.47617329  .00005729  00000+0  19122-3 0  9997
2 62633  97.3947 357.1099 0001788 279.4518  80.6521 15.31449440 95321
FLOCK 4G-28             
1 62634U 25009AB  26275.05014969  .00006000  00000+0  17105-3 0  9995
2 62634  97.3973   0.0931 0000327 313.3804  46.7413 15.36453904 95489
FLOCK 4G-24             
1 62637U 25009AE  26275.47550728  .00006336  00000+0  20961-3 0  9998
2 62637  97.3957 357.4502 0001578 256.3791 103.7274 15.31689952 95340
FLOCK 4G-3              
1 62639U 25009AG  26274.18439279  .00003720  00000+0  12455-3 0  9997
2 62639  97.3949 355.8197 0001631 290.8006  69.3060 15.31586601 95119
FLOCK 4G-27             
1 62641U 25009AJ  26275.12453570  .00006060  00000+0  20392-3 0  9994
2 62641  97.3863 355.9944 0000669 302.6126  57.5051 15.31157245 95255
FLOCK 4G-29             
1 62642U 25009AK  26275.49756749  .00021847  00000+0  66128-3 0  9996
2 62642  97.3943 357.2283 0002045 221.0004 139.1085 15.34196668 95322
FLOCK 4G-22             
1 62645U 25009AN  26275.45607607  .00006391  00000+0  21508-3 0  9993
2 62645  97.3939 357.0464 0000700 255.8291 104.2872 15.31136263 95327
FLOCK 4G-25             
1 62646U 25009AP  26275.48419624  .00005874  00000+0  19680-3 0  9990
2 62646  97.3947 357.1877 0000383 289.7847  70.3353 15.31315099 95330
FLOCK 4G-23             
1 62647U 25009AQ  26275.48221694  .00032126  00000+0  77794-3 0  9999
2 62647  97.3845 357.6723 0001369 216.6336 143.4817 15.41038263 95401
FLOCK 4G-34             
1 62650U 25009AT  26274.78700242  .00006803  00000+0  23032-3 0  9995
2 62650  97.3895 355.8845 0000558 306.2388  53.8802 15.30915272 95216
FLOCK 4G-21             
1 62651U 25009AU  26275.16035687  .00025326  00000+0  67449-3 0  9994
2 62651  97.3920 357.9030 0001041 275.0518  85.0608 15.38175451 95363
FLOCK 4G-31             
1 62652U 25009AV  26275.14763609  .00008944  00000+0  30082-3 0  9995
2 62652  97.3898 356.2115 0000386  22.2104 337.9154 15.31032875 95267
FLOCK 4G-4              
1 62659U 25009BC  26275.48092688  .00006008  00000+0  17001-3 0  9996
2 62659  97.3866 356.8515 0001634 268.0465  92.0592 15.36684403152956
FLOCK 4G-6              
1 62660U 25009BD  26274.46493737  .00005821  00000+0  19534-3 0  9990
2 62660  97.3873 355.3969 0001972 334.7174  25.3970 15.31265519152751
FLOCK 4G-2              
1 62661U 25009BE  26275.48376145  .00006310  00000+0  20874-3 0  9990
2 62661  97.3940 357.1730 0002602 312.7026  47.3996 15.31693203152944
FLOCK 4G-5              
1 62663U 25009BG  26275.12785155  .00004482  00000+0  14739-3 0  9999
2 62663  97.3962 357.2953 0001761 290.9047  69.2006 15.32052815 95303
FLOCK 4G-1              
1 62666U 25009BK  26275.14722206  .00006051  00000+0  20058-3 0  9997
2 62666  97.3953 356.8178 0002760 308.4099  51.6894 15.31641622 95277
FLOCK 4G-14             
1 62667U 25009BL  26275.46422139  .00006470  00000+0  21784-3 0  9997
2 62667  97.3956 356.8766 0002672 301.7119  58.3861 15.31114931 95305
FLOCK 4G-10             
1 62670U 25009BP  26275.53432304  .00005357  00000+0  18012-3 0  9997
2 62670  97.3852 356.1500 0002901 327.2688  32.8373 15.31237915152950
FLOCK 4G-36             
1 62675U 25009BU  26275.13783975  .00005967  00000+0  20037-3 0  9998
2 62675  97.3946 356.4720 0003010 308.7387  51.3585 15.31231180 95256
FLOCK 4G-15             
1 62678U 25009BX  26275.46511635  .00006790  00000+0  22668-3 0  9996
2 62678  97.3947 356.9583 0003106 301.8669  58.2270 15.31368736152951
FLOCK 4G-30             
1 62679U 25009BY  26275.48103972  .00030878  00000+0  77778-3 0  9996
2 62679  97.3832 357.1266 0002016 277.2786  82.8230 15.39846087153016
FLOCK 4G-18             
1 62680U 25009BZ  26275.46579538  .00027509  00000+0  74550-3 0  9993
2 62680  97.3927 357.3718 0003546 298.4228  61.6659 15.37614209152984
FLOCK 4G-17             
1 62681U 25009CA  26275.48534126  .00006039  00000+0  20148-3 0  9999
2 62681  97.3847 356.3630 0003255 323.3056  36.7962 15.31433982152961
FLOCK 4G-33             
1 62685U 25009CE  26275.45675599  .00003312  00000+0  12944-3 0  9996
2 62685  97.3874 354.1382 0004130 323.3975  36.6981 15.26561901 95163
PELICAN-3               
1 65315U 25188A   26275.12268591  .00004170  00000+0  10305-3 0  9993
2 65315  97.1876 349.6478 0000784 111.0494 249.0837 15.41028494 61783
PELICAN-4               
1 65316U 25188B   26274.76961259  .00034084  00000+0  82373-3 0  9995
2 65316  97.1918 349.4369 0001782  65.6745 294.4688 15.41083093 61728
PELICAN-5               
1 66667U 25276B   26275.44552300  .00006978  00000+0  19413-3 0  9998
2 66667  97.3676 350.7178 0002274 109.9576 250.1914 15.37148623 46961
PELICAN-6               
1 66703U 25276AP  26275.45668616  .00003469  00000+0  10428-3 0  9997
2 66703  97.3292 350.0249 0001885  89.9162 270.2298 15.35078795 46961
FLOCK 4H-1              
1 66704U 25276AQ  26275.47051775  .00011830  00000+0  51932-3 0  9998
2 66704  97.4077 347.4911 0001171 324.4794  35.6364 15.22093612 46740
FLOCK 4H-2              
1 66705U 25276AR  26275.16770573  .00003772  00000+0  16826-3 0  9998
2 66705  97.4077 347.2688 0000867  42.6827 317.4476 15.21998958 46704
FLOCK 4H-3              
1 66706U 25276AS  26275.46815991  .00003605  00000+0  16543-3 0  9997
2 66706  97.4146 347.4536 0003560  10.2919 349.8389 15.21057682 46726
FLOCK 4H-4              
1 66707U 25276AT  26275.44825428  .00003634  00000+0  16748-3 0  9991
2 66707  97.4130 347.2603 0004242   7.2938 352.8359 15.20892780 46713
FLOCK 4H-5              
1 66708U 25276AU  26274.74048876  .00003974  00000+0  17888-3 0  9991
2 66708  97.4080 346.7901 0000985  71.4957 288.6386 15.21659319 46634
FLOCK 4H-6              
1 66709U 25276AV  26275.45614106  .00011301  00000+0  50109-3 0  9992
2 66709  97.4128 347.5640 0002386 337.9451  22.1682 15.21762467 46733
FLOCK 4H-7              
1 66710U 25276AW  26275.45053871  .00003668  00000+0  16739-3 0  9998
2 66710  97.4089 347.2435 0002853  46.0611 314.0860 15.21230118 46728
FLOCK 4H-8              
1 66711U 25276AX  26275.43550425  .00003799  00000+0  17270-3 0  9990
2 66711  97.4129 347.4337 0003526  26.4170 333.7245 15.21347072 46720
FLOCK 4H-9              
1 66712U 25276AY  26275.43304096  .00003484  00000+0  15722-3 0  9993
2 66712  97.4119 347.5529 0002405 351.2046   8.9147 15.21653047 46735
FLOCK 4H-10             
1 66713U 25276AZ  26275.55801972  .00003636  00000+0  16716-3 0  9995
2 66713  97.4097 347.2814 0004098   9.1293 351.0017 15.20983000 46730
FLOCK 4H-12             
1 66715U 25276BB  26275.41929797  .00003638  00000+0  16409-3 0  9999
2 66715  97.4095 347.4498 0001166   1.6564 358.4676 15.21646112 47049
FLOCK 4H-13             
1 66716U 25276BC  26275.45203996  .00003609  00000+0  16247-3 0  9998
2 66716  97.4125 347.6981 0000378  94.1808 265.9472 15.21716370 46741
FLOCK 4H-14             
1 66717U 25276BD  26275.45234593  .00004187  00000+0  18495-3 0  9995
2 66717  97.4108 347.7862 0000501  89.6671 270.4623 15.22278634 46002
FLOCK 4H-15             
1 66718U 25276BE  26275.45498906  .00010909  00000+0  48252-3 0  9999
2 66718  97.4118 347.2266 0003283  20.6468 339.4900 15.21852622 46712
FLOCK 4H-16             
1 66719U 25276BF  26275.43318727  .00003653  00000+0  16790-3 0  9990
2 66719  97.4140 347.3200 0004020  12.2725 347.8608 15.20992157 46715
FLOCK 4H-18             
1 66721U 25276BH  26275.50843814  .00003442  00000+0  15868-3 0  9992
2 66721  97.4081 347.1399 0004177  34.1576 325.9928 15.20917144 46725
FLOCK 4H-19             
1 66722U 25276BJ  26275.51407169  .00003334  00000+0  14902-3 0  9991
2 66722  97.4083 347.7439 0000136 205.2715 154.8515 15.22017063 46056
FLOCK 4H-20             
1 66723U 25276BK  26275.43881272  .00004021  00000+0  17757-3 0  9999
2 66723  97.4120 347.8426 0001100 304.5134  55.5998 15.22308748 46006
FLOCK 4H-21             
1 66724U 25276BL  26275.42552203  .00003642  00000+0  16310-3 0  9990
2 66724  97.4085 347.5689 0000886 307.0154  53.1001 15.21889390 45997
FLOCK 4H-22             
1 66725U 25276BM  26275.16731382  .00003611  00000+0  16402-3 0  9997
2 66725  97.4076 346.9561 0003157  43.2626 316.8857 15.21403473 46686
FLOCK 4H-23             
1 66726U 25276BN  26275.50893292  .00003326  00000+0  15349-3 0  9997
2 66726  97.4144 347.3919 0003861   3.2252 356.9007 15.20911043 46721
FLOCK 4H-24             
1 66727U 25276BP  26275.48749043  .00003817  00000+0  17508-3 0  9993
2 66727  97.4139 347.4093 0003997  20.2633 339.8760 15.21026261 46728
FLOCK 4H-25             
1 66728U 25276BQ  26275.44982650  .00003332  00000+0  15013-3 0  9994
2 66728  97.4094 347.5828 0000874 106.0077 254.1255 15.21739238 46028
FLOCK 4H-26             
1 66729U 25276BR  26275.47018432  .00003826  00000+0  17700-3 0  9999
2 66729  97.4095 347.0924 0004625  14.6394 345.4974 15.20732087 46718
FLOCK 4H-27             
1 66730U 25276BS  26275.16065085  .00003342  00000+0  15126-3 0  9996
2 66730  97.4075 347.1054 0001092  83.3159 276.8201 15.21576816 46694
FLOCK 4H-29             
1 66732U 25276BU  26275.44244123  .00003787  00000+0  17453-3 0  9999
2 66732  97.4074 347.0420 0003609  33.3153 326.8309 15.20874349 46715
FLOCK 4H-30             
1 66733U 25276BV  26275.55892546  .00003680  00000+0  16903-3 0  9991
2 66733  97.4137 347.4448 0004154  17.9996 342.1386 15.21008634 46734
FLOCK 4H-31             
1 66734U 25276BW  26275.46115673  .00003677  00000+0  17013-3 0  9990
2 66734  97.4072 347.0125 0003889  28.3118 331.8329 15.20750597 46718
FLOCK 4H-32             
1 66735U 25276BX  26275.50864570  .00003469  00000+0  16015-3 0  9993
2 66735  97.4130 347.3277 0004403  12.8461 347.2886 15.20864572 46726
FLOCK 4H-33             
1 66736U 25276BY  26275.47433978  .00004035  00000+0  17984-3 0  9990
2 66736  97.4124 347.8172 0000628 289.5572  70.5596 15.21989028 46752
FLOCK 4H-34             
1 66737U 25276BZ  26275.47872247  .00003741  00000+0  16863-3 0  9995
2 66737  97.4144 347.7224 0000879 314.5216  45.5948 15.21649146 45996
FLOCK 4H-35             
1 66738U 25276CA  26275.51497654  .00002968  00000+0  13414-3 0  9995
2 66738  97.4100 347.6637 0000331 254.1121 106.0079 15.21722583 46045
FLOCK 4H-36             
1 66739U 25276CB  26275.43195068  .00003875  00000+0  17485-3 0  9991
2 66739  97.4151 347.6665 0001276 335.6378  24.4797 15.21587494 46737
EDDA-1                  
1 69017U 26100AP  26275.15412680  .00001723  00000+0  70381-4 0  9996
2 69017  97.3382 171.2670 0003570 107.5426 252.6203 15.25720030 23102
PELICAN-8               
1 69018U 26100AQ  26275.15118274  .00010706  00000+0  39958-3 0  9994
2 69018  97.3056 171.1507 0003379  80.5886 279.5736 15.27565232 23120
PELICAN-9               
1 69019U 26100AR  26275.14942768  .00002927  00000+0  11049-3 0  9994
2 69019  97.2464 170.5642 0003436 103.6379 256.5244 15.27785684 23106
PELICAN-11              
1 69871U 26156C   26274.71841489  .00000319  00000+0  33641-4 0  9997
2 69871  97.7042 173.7839 0005728 340.8060  19.2944 14.95872251 12706
