CALSPHERE 1             
1 00900U 64063C   26281.84966125  .00000483  00000+0  48215-3 0  9995
2 00900  90.2200  74.4004 0024477 310.2744 145.5095 13.76724527 87062
CALSPHERE 2             
1 00902U 64063E   26281.94088852  .00000057  00000+0  73253-4 0  9998
2 00902  90.2309  78.4646 0016736 255.6578 226.7540 13.52907700871648
LCS 1                   
1 01361U 65034C   26281.97367183  .00000009  00000+0  11402-3 0  9991
2 01361  32.1408 266.8614 0010929 167.3238 192.7535  9.89310917221155
TEMPSAT 1               
1 01512U 65065E   26281.79900094  .00000023  00000+0  29596-4 0  9997
2 01512  90.0103 212.6338 0067966 290.3560  96.3878 13.33599845975190
CALSPHERE 4A            
1 01520U 65065H   26281.89910185  .00000105  00000+0  18158-3 0  9991
2 01520  89.8861 121.3220 0070717 141.4490 325.3407 13.36294382977891
OPS 5712 (P/L 160)      
1 02826U 67053A   26281.92206612  .00005335  00000+0  73229-3 0  9997
2 02826  69.9143 119.2396 0003251 261.3885  98.6895 14.78928499 83048
OPS 5712 (P/L 153)      
1 02874U 67053H   26281.26539353 -.00000025  00000+0  20534-4 0  9992
2 02874  69.9731 232.9247 0005589  28.1369 332.0038 13.96841561 22583
RIGIDSPHERE 2 (LCS 4)   
1 05398U 71067E   26281.90059724  .00000431  00000+0  13416-3 0  9996
2 05398  87.6172 307.2366 0058530 213.6205 146.1276 14.37973614890228
COSMOS 2493 (SKRL-756 1)
1 39490U 13078A   26281.90713448  .00002122  00000+0  15709-3 0  9990
2 39490  82.4127 149.9079 0011680 214.3360 145.7112 15.02637036695032
COSMOS 2494 (SKRL-756 2)
1 39491U 13078B   26281.96386075  .00002348  00000+0  16133-3 0  9991
2 39491  82.4114 138.7591 0015788 173.7216 186.4212 15.05416278695922
