SCD 1                   
1 22490U 93009B   26271.12414378  .00000345  00000+0  43313-4 0  9995
2 22490  24.9699 291.9853 0042056 147.2084 260.1293 14.46152571776030
TECHSAT 1B (GO-32)      
1 25397U 98043D   26270.89950492  .00000019  00000+0  28327-4 0  9998
2 25397  99.0163 266.2942 0000362 324.6851  35.4303 14.24444626465951
SCD 2                   
1 25504U 98060A   26271.02501231  .00000349  00000+0  46594-4 0  9998
2 25504  24.9941 157.9433 0016922 129.6548 253.5550 14.45556819475227
DLR-TUBSAT              
1 25757U 99029B   26270.93928422  .00000044  00000+0  22689-4 0  9999
2 25757  98.6776 269.8664 0014942  41.5070 318.7256 14.52447326448162
TERRA                   
1 25994U 99068A   26271.28803451  .00000217  00000+0  53140-4 0  9996
2 25994  97.9346 316.6921 0000904 252.1022 176.8957 14.61166817424660
MAROC-TUBSAT            
1 27004U 01056D   26271.11192668 -.00000043  00000+0  43048-5 0  9998
2 27004  99.8137  89.9542 0019154 238.4079 234.9543 13.70265975240283
AQUA                    
1 27424U 02022A   26271.18000179  .00000510  00000+0  11114-3 0  9995
2 27424  98.4415 242.5890 0001279  63.1099 354.0652 14.62216022298324
SHIYAN-1 (SY-1)         
1 28220U 04012A   26271.24715763  .00009315  00000+0  26656-3 0  9999
2 28220  97.8634 356.1653 0005410  27.0566 333.0958 15.36185937226906
AURA                    
1 28376U 04026A   26271.23624847  .00000517  00000+0  11407-3 0  9990
2 28376  98.3540 228.6083 0001270  66.9840 293.1494 14.61454975181265
IRS-P5 (CARTOSAT-1)     
1 28649U 05017A   26270.61231927  .00000969  00000+0  10266-3 0  9991
2 28649  97.5282 289.0315 0002592  86.2159 273.9356 14.91261458159080
SINAH 1                 
1 28893U 05043D   26271.24426862  .00000192  00000+0  45796-4 0  9990
2 28893  98.3010  46.2603 0013495 317.3360  42.6793 14.64215327115608
RESURS-DK 1             
1 29228U 06021A   26270.88021201  .00001267  00000+0  76583-4 0  9999
2 29228  69.9312  73.6474 0004383 203.6973 156.3992 15.13550861118116
ARIRANG-2 (KOMPSAT-2)   
1 29268U 06031A   26271.26486214  .00000155  00000+0  37516-4 0  9994
2 29268  97.8332  90.7584 0015745 104.6350  68.0608 14.64710472 76563
LAPAN-TUBSAT            
1 29709U 07001A   26271.27826804 -.00000204  00000+0 -16657-4 0  9996
2 29709  98.1403 272.8683 0011360 204.8935 155.1733 14.86033762 66469
HAIYANG-1B              
1 31113U 07010A   26271.20621939  .00000040  00000+0  31115-4 0  9995
2 31113  98.3629 249.1174 0012234 255.5096 104.4730 14.31047894 15376
COSMO-SKYMED 1          
1 31598U 07023A   26271.31728389  .00000893  00000+0  81774-4 0  9997
2 31598  97.8818 104.0718 0001174  72.6418 287.4932 14.97488495 45228
TERRASAR-X              
1 31698U 07026A   26270.41932800 -.00000060  00000+0  34058-6 0  9998
2 31698  97.4467 276.6777 0001817  81.7564 278.3876 15.19146383 68743
WORLDVIEW-1 (WV-1)      
1 32060U 07041A   26271.21324148  .00004140  00000+0  17014-3 0  9990
2 32060  97.3892  29.4912 0001764  82.9736 277.1702 15.24731136 58575
YAOGAN-3                
1 32289U 07055A   26271.27959693  .00001298  00000+0  13668-3 0  9995
2 32289  97.8093 300.1306 0001710  87.0533 273.0881 14.91094056 21236
COSMO-SKYMED 2          
1 32376U 07059A   26271.31718785  .00000232  00000+0  35755-4 0  9995
2 32376  97.8909  93.4495 0001366  92.4488 267.6882 14.82157372 17287
RADARSAT-2              
1 32382U 07061A   26271.31485056  .00000156  00000+0  77300-4 0  9994
2 32382  98.5817 276.7929 0001252  84.1762 275.9563 14.29981864980699
CARTOSAT-2A             
1 32783U 08021A   26271.26682565  .00000118  00000+0  22500-4 0  9994
2 32783  97.7530 316.4049 0012829 131.3195 228.9123 14.79338703994046
HUANJING 1A (HJ-1A)     
1 33320U 08041A   26271.25562141  .00001520  00000+0  18739-3 0  9996
2 33320  97.6798 253.1835 0019386 155.3060 204.9087 14.84183513973695
HUANJING 1B (HJ-1B)     
1 33321U 08041B   26271.27256514  .00001178  00000+0  14813-3 0  9991
2 33321  97.6628 256.0535 0035292 202.8746 157.0898 14.83480631973698
GEOEYE 1                
1 33331U 08042A   26271.17151638  .00000258  00000+0  57501-4 0  9993
2 33331  98.1248 343.8538 0005874  94.0917 266.0957 14.64697468965229
THEOS                   
1 33396U 08049A   26271.32711510  .00000128  00000+0  79623-4 0  9994
2 33396  98.5465 325.2046 0001295  85.3646 274.7679 14.20144549932600
COSMO-SKYMED 3          
1 33412U 08054A   26271.24396016  .00001153  00000+0  80244-4 0  9990
2 33412  97.8115 131.4905 0014067 278.6807  81.2826 15.07487596972462
YAOGAN-4                
1 33446U 08061A   26270.77235730  .00000732  00000+0  95687-4 0  9996
2 33446  97.9342 203.5468 0015684  95.6172 264.6831 14.83359892960870
GOSAT (IBUKI)           
1 33492U 09002A   26271.22988499  .00000425  00000+0  83463-4 0  9999
2 33492  98.0970  21.0601 0001585  89.9948 270.1438 14.67538651946574
DEIMOS-1                
1 35681U 09041A   26271.28019811  .00000706  00000+0  11129-3 0  9994
2 35681  97.7540  64.1317 0001127 141.9303 218.1987 14.75326057922088
DUBAISAT-1              
1 35682U 09041B   26270.84927403  .00000617  00000+0  98700-4 0  9993
2 35682  98.0199  43.0763 0011678 100.4649 259.7876 14.75267462920236
OCEANSAT-2              
1 35931U 09051A   26271.28196891  .00000072  00000+0  74946-4 0  9990
2 35931  98.2440 247.8880 0014624 308.0534  51.9312 13.99666032893755
WORLDVIEW-2 (WV-2)      
1 35946U 09055A   26271.21982017  .00000070  00000+0  37647-4 0  9991
2 35946  98.4735 343.2488 0003161 275.8101  84.2725 14.37922828890452
SMOS                    
1 36036U 09059A   26271.11364859  .00000180  00000+0  71298-4 0  9995
2 36036  98.4430  96.9558 0001185  76.6965 283.4355 14.39771398888268
YAOGAN-7                
1 36110U 09069A   26271.19238638  .00000299  00000+0  48444-4 0  9990
2 36110  97.9897 156.3365 0025850  68.0704 292.3251 14.78087179904847
TANDEM-X                
1 36605U 10030A   26270.41932669 -.00000047  00000+0  96459-6 0  9991
2 36605  97.4472 276.6779 0001804  96.9138 263.2302 15.19146365902165
CARTOSAT-2B             
1 36795U 10035A   26271.26661008  .00000343  00000+0  53985-4 0  9999
2 36795  97.9850 321.0967 0010614 212.0018 148.0549 14.78658139875085
YAOGAN-10               
1 36834U 10038A   26271.33400503  .00000876  00000+0  10744-3 0  9991
2 36834  97.8938 293.9149 0001578  89.4764 281.0164 14.85605077872525
COSMO-SKYMED 4          
1 37216U 10060A   26271.26235840  .00000346  00000+0  50018-4 0  9994
2 37216  97.8904  93.3969 0001884  82.5005 277.6422 14.82150372859834
RESOURCESAT-2           
1 37387U 11015A   26271.19964592  .00000045  00000+0  40681-4 0  9990
2 37387  98.7542 337.8757 0010482 324.8103  35.2381 14.21611519800811
HAIYANG-2A              
1 37781U 11043A   26271.61951156 -.00000023  00000+0  22829-4 0  9999
2 37781  99.3462 271.7242 0003700  99.7409 260.4156 13.71169411760847
RASAT                   
1 37791U 11044D   26271.29610841  .00000042  00000+0  15781-4 0  9997
2 37791  98.0564   1.1108 0019541 222.8697 230.7027 14.68243903808319
SRMSAT                  
1 37841U 11058D   26271.01556559  .00000374  00000+0  58956-4 0  9992
2 37841  19.9708 157.0566 0011694 255.0090 230.6745 14.11594972772366
PLEIADES 1A             
1 38012U 11076F   26271.30457171  .00000061  00000+0  23014-4 0  9995
2 38012  98.1902 344.9761 0001418 103.8940 328.3768 14.58546119787023
ZIYUAN 1-02C (ZY 1-02C) 
1 38038U 11079A   26271.32079243  .00000256  00000+0  98194-4 0  9995
2 38038  98.3976 336.4236 0006512  10.3016  75.2927 14.38280368774034
ARIRANG-3 (KOMPSAT-3)   
1 38338U 12025B   26271.29168912  .00000274  00000+0  63656-4 0  9993
2 38338  98.1299 227.0358 0006068 139.8871 220.2779 14.62279652766416
EXACTVIEW-1 (ADS-1B)    
1 38709U 12039C   26271.24617912  .00000069  00000+0  49439-4 0  9999
2 38709  98.9891  31.0211 0010081 231.2372 128.7906 14.25008825737387
SPOT 6                  
1 38755U 12047A   26271.30663834  .00000121  00000+0  35803-4 0  9999
2 38755  98.2026 337.3524 0001139  80.4341 279.6987 14.58537048748088
PLEIADES 1B             
1 39019U 12068A   26271.32506286  .00000170  00000+0  46328-4 0  9993
2 39019  98.1873 344.9086 0001505 100.6452 259.4917 14.58570167735885
GOKTURK 2               
1 39030U 12073A   26271.28926976  .00000052  00000+0  14455-4 0  9994
2 39030  97.6771 103.5483 0001807  61.5158 298.6234 14.75620526739719
LANDSAT 8               
1 39084U 13008A   26271.16692249  .00000190  00000+0  52275-4 0  9997
2 39084  98.2204 340.0251 0001293  95.1445 264.9901 14.57105402712896
SARAL                   
1 39086U 13009A   26271.17802942  .00000047  00000+0  33055-4 0  9990
2 39086  98.5560  96.4609 0001937  20.2237 339.9024 14.32909371710356
GAOFEN-1                
1 39150U 13018A   26271.27272912  .00000000  00000+0  72336-5 0  9996
2 39150  97.9009 341.1919 0015798 296.2278  63.7308 14.76546093723451
VNREDSAT 1              
1 39160U 13021B   26271.30473338  .00000167  00000+0  39718-4 0  9990
2 39160  97.8974 320.6933 0001213  91.7202 268.4140 14.64752672715382
ARIRANG-5 (KOMPSAT-5)   
1 39227U 13042A   26271.25428972  .00001358  00000+0  10130-3 0  9994
2 39227  97.6211  96.5226 0004132 123.7549 236.4072 15.04506492719357
SKYSAT-A                
1 39418U 13066C   26271.08340029  .00002123  00000+0  12180-3 0  9997
2 39418  97.3704 317.1740 0020013 321.5890  38.3916 15.13451966704040
DUBAISAT-2              
1 39419U 13066D   26271.28030418  .00002725  00000+0  16758-3 0  9991
2 39419  97.4672 258.8275 0012423  45.8416 314.3833 15.10806017701956
GPM-CORE                
1 39574U 14009C   26271.26426515  .00006488  00000+0  14114-3 0  9990
2 39574  64.9711 322.7198 0010843 266.4271  93.5629 15.45164663713730
SENTINEL-1A             
1 39634U 14016A   26271.27403830  .00000402  00000+0  93711-4 0  9992
2 39634  98.1591 277.1896 0001490  84.9372 275.1999 14.59809760665050
KAZEOSAT 1              
1 39731U 14024A   26271.26783389  .00000003  00000+0  13941-4 0  9992
2 39731  98.3123 341.0981 0001463  89.2600 270.8757 14.42066707653418
ALOS-2                  
1 39766U 14029A   26271.27925814  .00000484  00000+0  71711-4 0  9999
2 39766  97.9235   6.9662 0001473  95.6188 264.5192 14.79479379666826
KAZEOSAT 2              
1 40010U 14033A   26271.28774450  .00000319  00000+0  42686-4 0  9993
2 40010  97.5344 105.4422 0008314 349.4654  10.6386 14.85568836664260
HODOYOSHI-4             
1 40011U 14033B   26271.30747795  .00000613  00000+0  71640-4 0  9998
2 40011  97.5473  91.1962 0022846 326.9325  33.0462 14.88329913664140
DEIMOS-2                
1 40013U 14033D   26271.26994791  .00001957  00000+0  18891-3 0  9995
2 40013  97.5650 142.0607 0001868  57.3347 302.8053 14.93954871653112
HODOYOSHI-3             
1 40015U 14033F   26270.90844360  .00000714  00000+0  87878-4 0  9995
2 40015  97.6545  69.9074 0033129  18.6728 341.5694 14.85577350662879
SPOT 7                  
1 40053U 14034A   26271.32339916  .00000169  00000+0  43586-4 0  9993
2 40053  98.0525 331.1022 0001132  87.8850 272.2481 14.61028175652192
SKYSAT-B                
1 40072U 14037D   26271.13487753  .00000940  00000+0  10851-3 0  9994
2 40072  98.3972 236.0504 0004576 315.0559  45.0285 14.88242370661278
WORLDVIEW-3 (WV-3)      
1 40115U 14048A   26271.18698252  .00000525  00000+0  67592-4 0  9991
2 40115  97.8479 344.5564 0001501  34.7392 325.3921 14.85154578657194
GAOFEN-2                
1 40118U 14049A   26271.28055804  .00001017  00000+0  13816-3 0  9992
2 40118  98.0009 335.3363 0005876 256.9090 103.1466 14.81013633654494
YAOGAN-21               
1 40143U 14053A   26271.30816353  .00003839  00000+0  14519-3 0  9997
2 40143  97.1381 307.1501 0009647  87.3755 272.8589 15.27489560670697
YAOGAN-22               
1 40275U 14063A   26270.85444089 -.00000033  00000+0  38048-4 0  9994
2 40275 100.7883  63.9092 0005980 323.3902  36.6800 13.15533652573316
ASNARO                  
1 40298U 14070A   26271.28002238  .00005084  00000+0  24213-3 0  9999
2 40298  97.3372 344.5686 0005698 157.2088 202.9401 15.19555436659665
YAOGAN-24               
1 40310U 14072A   26271.31785899  .00000047  00000+0  14478-4 0  9998
2 40310  98.1642  49.6057 0013264 297.2423  62.7435 14.76193137638934
CBERS 4                 
1 40336U 14079A   26271.26518205  .00000066  00000+0  37572-4 0  9993
2 40336  98.3425 324.8047 0002005  84.0367 276.1048 14.35515876618741
YAOGAN-26               
1 40362U 14088A   26271.27981119  .00020047  00000+0  34288-3 0  9992
2 40362  97.0702 269.3948 0004700  54.6789 305.4903 15.51285379653669
SMAP                    
1 40376U 15003A   26271.25952449  .00000247  00000+0  56942-4 0  9999
2 40376  98.1316 276.9136 0001457  89.4972 270.6398 14.63378421622699
KOMPSAT-3A              
1 40536U 15014A   26271.28626641  .00019029  00000+0  23060-3 0  9996
2 40536  97.6933 270.6511 0050293 155.8477 204.5153 15.59119870637850
SENTINEL-2A             
1 40697U 15028A   26271.29158559 -.00000076  00000+0 -12549-4 0  9993
2 40697  98.5666 344.6419 0001089  85.9798 274.1510 14.30817868588471
GAOFEN-8                
1 40701U 15030A   26271.27504472  .00010653  00000+0  19552-3 0  9999
2 40701  97.6830 111.0937 0008140 171.2326 188.9068 15.49431960627393
CARBONITE 1 (CBNT-1)    
1 40718U 15032D   26271.22978269  .00000957  00000+0  12136-3 0  9990
2 40718  97.6562  85.0478 0013538 321.0109  39.0128 14.83850833604629
YAOGAN-27               
1 40878U 15040A   26271.26456917 -.00000256  00000+0 -56135-3 0  9992
2 40878 100.1282 253.2234 0008138 342.0887  17.9939 13.16073560531229
GAOFEN-9 01             
1 40894U 15047A   26271.29755802  .00000533  00000+0  71318-4 0  9992
2 40894  97.6202 302.2773 0027800 158.6916 201.5463 14.83035484595471
YAOGAN-28               
1 41026U 15064A   26271.33326257  .00005472  00000+0  19909-3 0  9996
2 41026  97.3226  47.6732 0010332 177.4891 182.6402 15.28599190606430
YAOGAN-29               
1 41038U 15069A   26271.26658926  .00000391  00000+0  54581-4 0  9998
2 41038  97.9974 300.0362 0002857  66.9480 293.2034 14.83152577585905
KENT RIDGE 1            
1 41167U 15077B   26271.08876884  .00003298  00000+0  10241-3 0  9998
2 41167  14.9794 220.3978 0008243 251.9191 108.0233 15.23658210596810
GAOFEN-4                
1 41194U 15083A   26271.06761352 -.00000329  00000+0  00000+0 0  9997
2 41194   0.6147  83.1308 0003582 139.5120 274.2784  1.00269968 39569
JASON-3                 
1 41240U 16002A   26271.22603848 -.00000062  00000+0  63599-6 0  9997
2 41240  66.0396 269.2044 0008615 267.3816  92.6217 12.87627854500511
SENTINEL-3A             
1 41335U 16011A   26271.23733418  .00000058  00000+0  42180-4 0  9995
2 41335  98.6264 337.1302 0001234 106.0083 254.1233 14.26737164552755
ZIYUAN 3-02 (ZY 3-02)   
1 41556U 16033A   26271.25852343  .00003329  00000+0  15142-3 0  9996
2 41556  97.3753 344.9997 0011590 301.5465  58.4638 15.21362864573650
CARTOSAT-2C             
1 41599U 16040A   26271.26958720  .00002838  00000+0  13781-3 0  9999
2 41599  97.4373 329.7626 0009914 129.2230 230.9886 15.19230870569361
SKYSAT-C1               
1 41601U 16040C   26271.07657359  .00005916  00000+0  16139-3 0  9996
2 41601  96.9495 297.2895 0003174  49.8100 310.3424 15.37787084573670
LAPAN-A3                
1 41603U 16040E   26271.29745745  .00002417  00000+0  76464-4 0  9990
2 41603  97.1577 264.1452 0010453  16.0682 344.0891 15.33666839570610
GAOFEN-3                
1 41727U 16049A   26271.31811706  .00000208  00000+0  76353-4 0  9993
2 41727  98.4048 277.5662 0001098 100.0424 260.0890 14.42210863533513
SKYSAT-C4               
1 41771U 16058B   26270.84572432  .00012876  00000+0  21896-3 0  9994
2 41771  96.9157 288.5151 0001653 167.9348 192.1946 15.51545692561379
SKYSAT-C5               
1 41772U 16058C   26271.09277224  .00004431  00000+0  13552-3 0  9992
2 41772  97.0376 307.0367 0000246 192.5527 167.5711 15.34337912559526
SKYSAT-C2               
1 41773U 16058D   26271.04032371  .00008010  00000+0  17677-3 0  9999
2 41773  97.0131 289.3969 0004352  60.1462 300.0220 15.44124868560915
SKYSAT-C3               
1 41774U 16058E   26271.06529455  .00018468  00000+0  25951-3 0  9998
2 41774  96.8929 298.2131 0001391  94.7819 265.3596 15.56740241562099
ALSAT-1B                
1 41785U 16059C   26271.27020262  .00000465  00000+0  81009-4 0  9991
2 41785  97.7788 275.6078 0007785 253.4590 106.5763 14.72340337535749
PATHFINDER 1            
1 41787U 16059E   26271.21581819  .00000364  00000+0  71811-4 0  9995
2 41787  97.8242 265.8841 0027107 236.2573 123.6050 14.67767109534827
SCATSAT 1               
1 41790U 16059H   26271.13889445  .00000696  00000+0  97959-4 0  9995
2 41790  98.1087 335.9198 0053062 276.2300  83.2868 14.79721809116810
GOKTURK 1A              
1 41875U 16073A   26271.26217549  .00000161  00000+0  40691-4 0  9997
2 41875  98.1523 164.4782 0001502  72.8619 287.2747 14.62755759523893
RESOURCESAT-2A          
1 41877U 16074A   26271.32168706  .00000318  00000+0  16511-3 0  9994
2 41877  98.7452 343.9375 0003016 126.0031 234.1426 14.21616288508959
CARTOSAT-2D             
1 41948U 17008A   26271.30032615  .00003854  00000+0  18585-3 0  9999
2 41948  97.3997 328.6130 0003752 235.1670 124.9212 15.19286515533236
SENTINEL-2B             
1 42063U 17013A   26271.28442981 -.00000206  00000+0 -61764-4 0  9990
2 42063  98.5710 344.5772 0001170  90.2743 269.8574 14.30815967499381
CARTOSAT-2E             
1 42767U 17036C   26271.31854515  .00002978  00000+0  14461-3 0  9997
2 42767  97.4163 329.3542 0002647 336.3137  23.7975 15.19222556513809
FORMOSAT-5              
1 42920U 17049A   26271.22173672  .00000082  00000+0  31670-4 0  9996
2 42920  98.2173 344.1984 0012530 123.4508 236.7887 14.50910984481618
SENTINEL-5P             
1 42969U 17064A   26271.11090080  .00000019  00000+0  30101-4 0  9993
2 42969  98.8002 212.5384 0001051  75.8710 284.2583 14.19533221464163
SKYSAT-C11              
1 42987U 17068A   26271.22855671  .00029613  00000+0  32078-3 0  9999
2 42987  97.4472  65.0565 0000390  34.9445 325.1839 15.63520097499318
SKYSAT-C10              
1 42988U 17068B   26271.19358233  .00006543  00000+0  18742-3 0  9997
2 42988  97.4652  49.2616 0001205  89.3024 270.8357 15.36269827498167
SKYSAT-C9               
1 42989U 17068C   26271.17705786  .00009138  00000+0  20329-3 0  9992
2 42989  97.4570  51.2131 0008877 120.6292 239.5833 15.43842525498633
SKYSAT-C8               
1 42990U 17068D   26271.19855744  .00007185  00000+0  18967-3 0  9991
2 42990  97.4669  49.4716 0001437  86.4544 273.6865 15.38776821498145
SKYSAT-C7               
1 42991U 17068E   26270.87057924  .00008511  00000+0  22444-3 0  9999
2 42991  97.4679  50.1349 0006887  97.5803 262.6225 15.38725003498158
SKYSAT-C6               
1 42992U 17068F   26270.87602189  .00006548  00000+0  19981-3 0  9999
2 42992  97.4722  49.5829 0002416 121.0624 239.0856 15.34270093498069
CARTOSAT-2F             
1 43111U 18004A   26271.28681938  .00002894  00000+0  14062-3 0  9994
2 43111  97.4681 329.8474 0000288 210.3161 149.8057 15.19238522482989
GAOFEN-1 02             
1 43259U 18031A   26271.30992900  .00000277  00000+0  47189-4 0  9994
2 43259  98.0425 333.4879 0003705  54.4938 305.6617 14.76445628457919
GAOFEN-1 03             
1 43260U 18031B   26271.28810654  .00000414  00000+0  66957-4 0  9995
2 43260  98.0410 333.3119 0004097  96.6145 263.5531 14.76459759457900
GAOFEN-1 04             
1 43262U 18031D   26271.26381512  .00000381  00000+0  62165-4 0  9991
2 43262  98.0427 333.4927 0002542  87.4585 272.6915 14.76454435457898
SENTINEL-3B             
1 43437U 18039A   26271.14032012  .00000056  00000+0  41032-4 0  9997
2 43437  98.6261 337.1838 0001207  70.9705 289.1607 14.26735103438804
GAOFEN-5 01             
1 43461U 18043A   26271.15978405  .00000195  00000+0  50126-4 0  9993
2 43461  98.4710 244.9807 0002869 106.8240 253.3275 14.60663427446728
GAOFEN-6                
1 43484U 18048A   26271.28823662  .00000844  00000+0  12876-3 0  9991
2 43484  98.0869 334.1271 0010249 192.2581 167.8380 14.76452584448601
GAOFEN-11 01            
1 43585U 18063A   26271.28061481  .00011476  00000+0  15405-3 0  9997
2 43585  97.1179 338.0048 0002172 331.8364  28.2774 15.58087443456388
ICESAT-2                
1 43613U 18070A   26271.21906262  .00002274  00000+0  82427-4 0  9990
2 43613  92.0004 318.7978 0005996  84.4964 275.6969 15.28280281448198
HYSIS                   
1 43719U 18096A   26271.27341506  .00000535  00000+0  80037-4 0  9998
2 43719  97.9747 337.1554 0001621 112.9476 247.1906 14.78668774422653
KAZSTSAT                
1 43783U 18099AB  26271.03073521  .00001548  00000+0  12853-3 0  9990
2 43783  97.4230 298.2759 0014144  66.4121 293.8587 15.00062737426722
SAUDISAT 5A             
1 43831U 18102A   26271.27282093  .00003443  00000+0  12495-3 0  9999
2 43831  97.2953 330.8647 0010852 123.3087 236.9194 15.28933705431428
SAUDISAT 5B             
1 43833U 18102C   26271.27594459  .00003264  00000+0  11783-3 0  9993
2 43833  97.3067 334.1244 0011519 125.5050 234.7267 15.29145831431548
GAOFEN-10R              
1 44622U 19066A   26271.31127832  .00000774  00000+0  10159-3 0  9991
2 44622  98.0615 225.7036 0006153 147.0657 213.0941 14.83187015377666
CARTOSAT-3              
1 44804U 19081A   26271.23394505  .00003266  00000+0  15780-3 0  9998
2 44804  97.4199 331.3755 0012335 149.1775 211.0187 15.19279760379114
GAOFEN-12 01            
1 44819U 19082A   26271.28396963  .00000229  00000+0  36570-4 0  9997
2 44819  97.8152 274.9704 0002400  78.3534 281.7948 14.80525875369348
CSG-1                   
1 44873U 19092A   26271.27503374  .00000246  00000+0  37528-4 0  9996
2 44873  97.8911  93.4150 0001409  86.5802 273.5572 14.82151281366748
NEMO-HD                 
1 46277U 20061F   26271.26812948  .00006940  00000+0  14199-3 0  9998
2 46277  97.1805 332.2483 0002098  72.6059 287.5421 15.46429921337905
SENTINEL-6A             
1 46984U 20086A   26271.22379866 -.00000055  00000+0  26538-4 0  9996
2 46984  66.0395 281.0430 0007918 269.0557  90.9551 12.80929806273522
CAS500-1                
1 47932U 21022A   26271.27603012  .00003699  00000+0  17394-3 0  9994
2 47932  97.3746 164.3516 0003586 297.7105  62.3766 15.20187295306427
GAOFEN-12 02            
1 48079U 21026A   26271.30610286  .00000227  00000+0  36645-4 0  9991
2 48079  98.0004 269.1090 0003378 258.3362 101.7471 14.80362132297018
PLEIADES NEO 3          
1 48268U 21034A   26271.30769375  .00000332  00000+0  48769-4 0  9991
2 48268  97.8955 344.5926 0001410  89.2920 270.8454 14.81671846292922
PLEIADES NEO 4          
1 49070U 21073E   26271.27391762  .00000114  00000+0  21129-4 0  9992
2 49070  97.8953 344.5548 0001389  88.9488 271.1884 14.81670700276631
LANDSAT 9               
1 49260U 21088A   26271.20131016  .00000207  00000+0  55924-4 0  9999
2 49260  98.2183 340.0783 0001487  91.3328 268.8041 14.57103969266003
CSG-2                   
1 51444U 22008A   26271.30874829 -.00000360  00000+0 -38634-4 0  9997
2 51444  97.8904  93.4392 0001407  81.5144 278.6229 14.82145844251861
GAOFEN-12 03            
1 52912U 22069A   26271.28444429  .00000142  00000+0  25355-4 0  9993
2 52912  97.8109 156.4744 0001683 109.1774 250.9621 14.80165848229860
SWOT                    
1 54754U 22173A   26271.23960534 -.00000019  00000+0 -11489-4 0  9998
2 54754  77.6076 256.1927 0000212 168.0951 192.0206 14.00172650193578
GAOFEN-12 04            
1 57654U 23123A   26271.31883735  .00000654  00000+0  93576-4 0  9992
2 57654  97.9069 187.7598 0003375 122.3397 237.8142 14.79883161167884
PARS 1                  
1 59065U 24039Q   26271.24469025  .00007925  00000+0  15496-3 0  9993
2 59065  97.4938 255.6305 0011069  98.9260 261.3244 15.47664929144570
RESURS-P 4              
1 59371U 24061A   26271.30604116  .00002194  00000+0  72030-4 0  9998
2 59371  97.2851 217.4916 0002306 122.9387 237.2078 15.32643797139551
LEGION 1                
1 59625U 24081A   26271.19449183  .00002157  00000+0  11166-3 0  9991
2 59625  97.4943 347.9495 0009550  20.0139 340.1467 15.17262367133158
LEGION 2                
1 59626U 24081B   26271.22570712  .00002488  00000+0  12829-3 0  9993
2 59626  97.4943 348.0755 0010748 346.3750  13.7191 15.17245228133169
ALOS-4 (DAICHI-4)       
1 60182U 24123A   26271.29860858  .00000920  00000+0  13013-3 0  9994
2 60182  97.9222   6.9894 0001457  99.3359 260.8017 14.79468882121129
LEGION 3                
1 60452U 24146A   26271.19999379  .00002864  00000+0  16193-3 0  9990
2 60452  45.0011 198.2378 0006729  65.1258 295.0320 15.15586120117654
LEGION 4                
1 60453U 24146B   26271.19899640  .00002558  00000+0  14592-3 0  9992
2 60453  45.0017 290.1037 0007789 172.4286 187.6711 15.15619202116506
SENTINEL-2C             
1 60989U 24157A   26271.17955434  .00000065  00000+0  41564-4 0  9991
2 60989  98.5711 344.4789 0001241  82.6691 277.4633 14.30816028107715
IONOSFERA-M 1           
1 61735U 24199A   26271.22068373  .00000038  00000+0  36709-4 0  9995
2 61735  98.6991 143.2234 0001079 138.4652 221.6608 14.22770124142351
IONOSFERA-M 2           
1 61736U 24199B   26271.18442136  .00000042  00000+0  38348-4 0  9990
2 61736  98.6990 143.0974 0001744  58.0050 302.1298 14.22773474145475
PRSC-EO1                
1 62725U 25012A   26271.31169920  .00003589  00000+0  18192-3 0  9999
2 62725  97.4135 341.6949 0003244 271.6409  88.4453 15.17586859 93831
BIOMASS                 
1 63772U 25090A   26270.92605205  .00000779  00000+0  14586-3 0  9996
2 63772  98.0756  96.7689 0001400  84.1249 276.0115 14.67536673 75754
GOSAT-GW (IBUKI GW)     
1 64694U 25141A   26271.28054905  .00000148  00000+0  34456-4 0  9991
2 64694  98.0617 206.9346 0001419  84.7570 275.3796 14.67550310 66966
IONOSFERA-M 3           
1 64876U 25155A   26271.29436931  .00000024  00000+0  30664-4 0  9992
2 64876  98.6165 230.6619 0000396 340.9514  19.1648 14.21501044 61052
IONOSFERA-M 4           
1 64877U 25155B   26271.25864316  .00000021  00000+0  29303-4 0  9996
2 64877  98.6158 230.5435 0000486  76.8094 283.3138 14.21503641 61041
MICROCARB               
1 64899U 25156A   26271.21036998  .00000331  00000+0  59445-4 0  9998
2 64899  98.0087 346.8415 0016483 297.1012  62.8514 14.72856474 63132
CO3D 3                  
1 64900U 25156B   26271.00282175  .00002874  00000+0  13582-3 0  9993
2 64900  97.4343 348.2181 0001459 111.8240 248.3151 15.20209183 65156
CO3D 4                  
1 64901U 25156C   26271.06880303  .00002609  00000+0  12361-3 0  9997
2 64901  97.4343 348.2831 0000776  10.1238 350.0013 15.20193814 65160
CO3D 2                  
1 64902U 25156D   26271.16710129  .00002797  00000+0  13225-3 0  9995
2 64902  97.4342 348.2789 0001633  90.9646 269.1777 15.20205731 65174
CO3D 1                  
1 64903U 25156E   26271.23307840  .00000926  00000+0  45912-4 0  9997
2 64903  97.4343 348.3437 0001282  93.0446 267.0936 15.20197285 65188
PRSC-S1                 
1 65055U 25164A   26271.13312823  .00002779  00000+0  19325-3 0  9997
2 65055  41.1301  67.7002 0007505 324.5094  35.5220 15.07141467 63966
SENTINEL-6B             
1 66514U 25264A   26271.22414992 -.00000053  00000+0  33535-4 0  9993
2 66514  66.0396 281.1685 0007876 268.0155  91.9958 12.80929667 40364
CAS500-3                
1 66655U 25274F   26270.80904994  .00000932  00000+0  10648-3 0  9993
2 66655  97.7438 196.5096 0002781 252.0284 108.0630 14.88346575 45418
CSG-3                   
1 67304U 26001A   26271.22015863  .00000216  00000+0  33742-4 0  9995
2 67304  97.8915  93.3600 0001412  89.7916 270.3459 14.82148215 39727
PRSC-E03                
1 68835U 26092A   26271.23094838  .00001859  00000+0  12867-3 0  9993
2 68835  38.0003 201.8375 0002921 132.6956 227.4052 15.07102569 23506
CAS500-2                
1 69013U 26100AK  26271.21609818  .00003470  00000+0  16234-3 0  9993
2 69013  97.3740 166.9442 0010194  26.0050 334.1696 15.20363677 22467
