GPS BIIR-08             
1 27663U 03005A   26269.57670102  .00000014  00000+0  00000+0 0  9998
2 27663  54.8658 210.9441 0150968  53.7797 132.5568  2.00555032173340
GPS BIIR-11             
1 28190U 04009A   26271.10612649  .00000015  00000+0  00000+0 0  9994
2 28190  54.7515 271.5195 0118298 176.8926 187.9804  2.00573104165019
GPS BIIR-13             
1 28474U 04045A   26271.08243411 -.00000044  00000+0  00000+0 0  9996
2 28474  55.0691 320.7449 0172747 318.9944  92.3212  2.00560315160499
GPS BIIR-14M            
1 28874U 05038A   26271.10802685  .00000017  00000+0  00000+0 0  9999
2 28874  54.8020 269.0148 0128701 297.8819  97.4025  2.00558546153903
METEOSAT-9 (MSG-2)      
1 28912U 05049B   26270.55674729  .00000133  00000+0  00000+0 0  9997
2 28912   9.5887  53.1232 0001503  13.6281 185.7813  1.00268302  8022
GPS BIIR-16M            
1 29601U 06052A   26271.12681351  .00000027  00000+0  00000+0 0  9993
2 29601  54.9206 209.9293 0085906  91.1631 269.8130  2.00563689145478
GPS BIIR-17M            
1 32260U 07047A   26269.94006571  .00000023  00000+0  00000+0 0  9991
2 32260  54.1773  75.8748 0169037  89.7421 272.2287  2.00550899138851
GPS BIIR-18M            
1 32384U 07062A   26270.50820329  .00000016  00000+0  00000+0 0  9996
2 32384  54.9574 270.0306 0035912 170.2769  10.7141  2.00565585137568
GOES 14                 
1 35491U 09033A   26271.00322561 -.00000023  00000+0  00000+0 0  9998
2 35491   1.9476  81.5682 0002302 108.5128 251.4856  1.00070030  7619
GOES 15                 
1 36411U 10008A   26271.13044711  .00000028  00000+0  00000+0 0  9991
2 36411   1.5540  81.7318 0004991  89.3133 306.1566  1.00272317 60679
GSAT0101 (GALILEO-PFM)  
1 37846U 11060A   26269.91424163 -.00000065  00000+0  00000+0 0  9991
2 37846  56.9527 339.0018 0000600 306.8072  53.2590  1.70475628 92858
GSAT0102 (GALILEO-FM2)  
1 37847U 11060B   26266.31566586 -.00000074  00000+0  00000+0 0  9999
2 37847  56.9548 339.1002 0002407 309.5277  47.7298  1.70476103 92795
LUCH 5A                 
1 37951U 11074B   26271.33123749 -.00000039  00000+0  00000+0 0  9999
2 37951   9.0084  72.2669 0004533 135.6076  85.5322  1.00274060 54085
METEOSAT-10 (MSG-3)     
1 38552U 12035B   26268.69445431  .00000000  00000+0  00000+0 0  9992
2 38552   4.9040  60.4434 0000997 124.6493  69.5152  1.00273165 51860
SARSAT 13 (METOP-B)     
1 38771U 12049A   26271.24122872  .00000055  00000+0  44970-4 0  9995
2 38771  98.6393 320.6292 0003181  64.2520 295.8985 14.21461502727909
GPS BIIF-3              
1 38833U 12053A   26271.02333486  .00000057  00000+0  00000+0 0  9993
2 38833  53.5995 139.3826 0186384  67.6965 294.3766  2.00557187101503
GSAT0103 (GALILEO-FM3)  
1 38857U 12055A   26270.54194318  .00000061  00000+0  00000+0 0  9991
2 38857  55.8718  98.7351 0001635 312.1954  47.8643  1.70473397 86759
GPS BIIF-4              
1 39166U 13023A   26269.89319877  .00000016  00000+0  00000+0 0  9996
2 39166  54.4330 264.8227 0142825  51.1690 310.1014  2.00563107 97922
INSAT-3D                
1 39216U 13038B   26271.21486079 -.00000332  00000+0  00000+0 0  9998
2 39216   2.1840  81.1139 0002202 130.8767   1.9001  1.00271439 48111
GPS BIIF-5              
1 39533U 14008A   26270.89183702  .00000055  00000+0  00000+0 0  9999
2 39533  53.6646 145.1274 0083578 231.5423 127.8060  2.00566460 91744
LUCH 5V                 
1 39727U 14023A   26270.99411987 -.00000261  00000+0  00000+0 0  9991
2 39727   5.3830  68.6100 0002596 150.3791 240.4125  1.00275544 45395
GPS BIIF-6              
1 39741U 14026A   26271.17184676 -.00000050  00000+0  00000+0 0  9999
2 39741  56.4404 327.5036 0039830 323.9716  35.8347  2.00553545 90603
GPS BIIF-7              
1 40105U 14045A   26269.76481212  .00000041  00000+0  00000+0 0  9993
2 40105  55.4266  84.4192 0036568 120.4361 239.9736  2.00564951 88112
GSAT0201 (GALILEO 5)    
1 40128U 14050A   26261.66135895  .00000005  00000+0  00000+0 0  9998
2 40128  48.7780 269.5934 1687125 183.0003 175.8597  1.85519745 80054
GSAT0202 (GALILEO 6)    
1 40129U 14050B   26267.30639365  .00000005  00000+0  00000+0 0  9997
2 40129  48.7890 268.4477 1689319 183.9197 174.5774  1.85520321 82324
GPS BIIF-8              
1 40294U 14068A   26270.63353152 -.00000060  00000+0  00000+0 0  9998
2 40294  57.0536  27.0176 0066804  73.9467 286.7934  2.00557652 87264
GLONASS-K 2             
1 40315U 14075A   26271.06852012  .00000037  00000+0  00000+0 0  9990
2 40315  63.6162 186.8130 0021870 209.1722 150.7438  2.13101454 92041
GPS BIIF-9              
1 40534U 15013A   26270.26915558  .00000020  00000+0  00000+0 0  9994
2 40534  53.1548 199.9590 0113653  41.4398 319.4185  2.00569893 83873
GSAT0203 (GALILEO 7)    
1 40544U 15017A   26270.27820733 -.00000065  00000+0  00000+0 0  9990
2 40544  56.7448 338.8122 0005526 257.4522 102.5583  1.70476179 70941
GSAT0204 (GALILEO 8)    
1 40545U 15017B   26258.80260670 -.00000102  00000+0  00000+0 0  9996
2 40545  56.7566 339.1450 0004699 240.9831 119.0222  1.70476021 33792
GPS BIIF-10             
1 40730U 15033A   26270.93299530  .00000018  00000+0  00000+0 0  9990
2 40730  53.9109 262.8427 0117899  30.6831 329.9966  2.00550770 82055
METEOSAT-11 (MSG-4)     
1 40732U 15034A   26270.83468850  .00000071  00000+0  00000+0 0  9994
2 40732   3.4536  70.3592 0000501  86.1476 160.0017  1.00277123  8245
GSAT0206 (GALILEO 10)   
1 40890U 15045B   26259.96432677  .00000017  00000+0  00000+0 0  9990
2 40890  54.9240 219.0714 0002624 353.2075   6.7586  1.70473245 68605
GPS BIIF-11             
1 41019U 15062A   26270.48509706 -.00000060  00000+0  00000+0 0  9990
2 41019  57.0242  26.8795 0116643 231.2512 127.7114  2.00566858 79886
ELEKTRO-L 2             
1 41105U 15074A   26271.18634734 -.00000108  00000+0  00000+0 0  9990
2 41105   6.9453  69.2140 0002141 190.9848 159.3663  1.00271823 39536
GSAT0209 (GALILEO 12)   
1 41174U 15079A   26269.51833715  .00000063  00000+0  00000+0 0  9994
2 41174  55.8933  98.4806 0003413  21.4311 338.6628  1.70473998 66501
GSAT0208 (GALILEO 11)   
1 41175U 15079B   26269.73874665  .00000062  00000+0  00000+0 0  9997
2 41175  55.8911  98.4714 0003086  32.7098 327.3877  1.70473781 66926
GPS BIIF-12             
1 41328U 16007A   26270.57335465  .00000039  00000+0  00000+0 0  9997
2 41328  55.5952  85.4011 0098003 247.3202 111.6842  2.00571838 77898
GSAT0211 (GALILEO 14)   
1 41549U 16030A   26268.68884650  .00000010  00000+0  00000+0 0  9991
2 41549  55.0716 218.9325 0003800 339.4955  20.4499  1.70473000 64389
GSAT0210 (GALILEO 13)   
1 41550U 16030B   26269.53252088  .00000011  00000+0  00000+0 0  9993
2 41550  55.0706 218.9074 0003549 255.7048 104.2182  1.70473438 64390
INSAT-3DR               
1 41752U 16054A   26271.00322561 -.00000072  00000+0  00000+0 0  9990
2 41752   0.0673  89.4076 0012293 174.7182 177.8561  1.00271108 36844
GSAT0207 (GALILEO 15)   
1 41859U 16069A   26262.77251083  .00000026  00000+0  00000+0 0  9996
2 41859  55.5593  98.4673 0002813   1.3645 358.7113  1.70473990 61017
GSAT0212 (GALILEO 16)   
1 41860U 16069B   26269.07828041  .00000062  00000+0  00000+0 0  9992
2 41860  55.5622  98.2879 0003783  44.1269 315.9849  1.70474076 61378
GSAT0213 (GALILEO 17)   
1 41861U 16069C   26258.30017772  .00000003  00000+0  00000+0 0  9993
2 41861  55.5571  98.5941 0002003 331.4312  28.6313  1.70474479 61056
GSAT0214 (GALILEO 18)   
1 41862U 16069D   26264.89902317  .00000042  00000+0  00000+0 0  9996
2 41862  55.5585  98.4041 0001465   3.2419 356.8418  1.70474219 61295
GOES 16                 
1 41866U 16071A   26271.24822215 -.00000086  00000+0  00000+0 0  9997
2 41866   0.5883  84.1103 0002124 141.4914 126.1192  1.00271306 36136
GSAT-17                 
1 42815U 17040B   26271.06518684 -.00000253  00000+0  00000+0 0  9997
2 42815   0.0409  92.5080 0004962 156.6631 234.6542  1.00270929 33820
GSAT0215 (GALILEO 19)   
1 43055U 17079A   26270.08073969  .00000012  00000+0  00000+0 0  9991
2 43055  55.0492 218.7049 0002910 288.4935  71.4394  1.70473751 54727
GSAT0216 (GALILEO 20)   
1 43056U 17079B   26261.57308707  .00000017  00000+0  00000+0 0  9992
2 43056  55.0524 218.9384 0004504 291.2354  68.6899  1.70474061 54594
GSAT0217 (GALILEO 21)   
1 43057U 17079C   26265.89998998  .00000011  00000+0  00000+0 0  9993
2 43057  55.0495 218.8171 0003907 307.6750  52.2543  1.70473918 54655
GSAT0218 (GALILEO 22)   
1 43058U 17079D   26270.81274151  .00000014  00000+0  00000+0 0  9993
2 43058  55.0478 218.6800 0004680 288.2503  71.6667  1.70473803 54760
GOES 17                 
1 43226U 18022A   26271.19372214 -.00000177  00000+0  00000+0 0  9991
2 43226   1.1949  83.9423 0001244 147.3692 115.9363  1.00270763 31452
GSAT0221 (GALILEO 25)   
1 43564U 18060A   26265.43785046 -.00000078  00000+0  00000+0 0  9999
2 43564  57.1298 339.1540 0004899 270.7276  89.2757  1.70476363 50811
GSAT0222 (GALILEO 26)   
1 43565U 18060B   26266.83081615 -.00000072  00000+0  00000+0 0  9990
2 43565  57.1328 339.1203 0004544 241.1728 118.8453  1.70476245 50892
GSAT0219 (GALILEO 23)   
1 43566U 18060C   26270.57109309 -.00000065  00000+0  00000+0 0  9990
2 43566  57.1305 339.0204 0004401 273.8889  86.1334  1.70476065 50930
GSAT0220 (GALILEO 24)   
1 43567U 18060D   26259.06046681 -.00000101  00000+0  00000+0 0  9996
2 43567  57.1352 339.3320 0003758 269.7556  90.2538  1.70476411 50728
BEIDOU-3 M13            
1 43622U 18072A   26270.02035707 -.00000004  00000+0  00000+0 0  9999
2 43622  56.7181  59.3054 0003978 323.0098  36.9678  1.86231174 54556
BEIDOU-3 M14            
1 43623U 18072B   26270.95967956 -.00000006  00000+0  00000+0 0  9994
2 43623  56.7207  59.2692 0003278  23.9983 336.0189  1.86231168 54560
GPS BIII-1              
1 43873U 18109A   26270.73813003  .00000043  00000+0  00000+0 0  9991
2 43873  55.7530  88.1417 0040434 196.2947 174.4531  2.00565506 57134
METEOR-M2 2             
1 44387U 19038A   26271.22469524  .00000439  00000+0  20978-3 0  9993
2 44387  98.9254 260.0854 0002374  80.6461 279.4986 14.24390276375964
GPS BIII-2              
1 44506U 19056A   26270.48097521 -.00000050  00000+0  00000+0 0  9997
2 44506  55.5799 327.0727 0066284 200.4381 250.5659  2.00571589 52122
BEIDOU-3 M24            
1 44542U 19061A   26266.50572373 -.00000008  00000+0  00000+0 0  9997
2 44542  54.4306 179.4090 0020747  95.6918 264.5686  1.86175926 47622
BEIDOU-3 M23            
1 44543U 19061B   26270.60965041  .00000036  00000+0  00000+0 0  9992
2 44543  54.3911 179.2445 0006072   7.4053 135.4246  1.86227704 47701
BEIDOU-3 M22            
1 44793U 19078A   26271.17892248 -.00000014  00000+0  00000+0 0  9995
2 44793  53.8399 296.1946 0004867  38.8470 321.2374  1.86227454 46560
BEIDOU-3 M21            
1 44794U 19078B   26270.78161929 -.00000013  00000+0  00000+0 0  9996
2 44794  53.8133 296.1676 0002845  26.4216 333.6441  1.86227972 46569
ELEKTRO-L 3             
1 44903U 19095A   26271.19484071  .00000045  00000+0  00000+0 0  9993
2 44903   0.2088  78.1217 0002775  87.5140 299.8176  0.99409389 24742
GPS BIII-3              
1 45854U 20041A   26270.45488177 -.00000063  00000+0  00000+0 0  9992
2 45854  56.7317  24.9850 0068485 206.3309 160.0738  2.00573137 46091
COSMOS 2547             
1 46805U 20075A   26271.18275829  .00000037  00000+0  00000+0 0  9995
2 46805  64.6000 189.0409 0008075 234.4451 125.5140  2.13099846 46106
GPS BIII-4              
1 46826U 20078A   26269.15190132  .00000010  00000+0  00000+0 0  9999
2 46826  53.9654 206.6876 0076411 208.3764 276.4987  2.00565000 43530
GSAT0223 (GALILEO 27)   
1 49809U 21116A   26267.71433902 -.00000069  00000+0  00000+0 0  9997
2 49809  57.1201 338.9871 0004172 225.2566 136.7520  1.70476401 29880
GSAT0224 (GALILEO 28)   
1 49810U 21116B   26268.69962216 -.00000066  00000+0  00000+0 0  9999
2 49810  57.1203 338.9593 0003846 231.3014 128.0413  1.70476289 29911
GOES 18                 
1 51850U 22021A   26271.01951331  .00000101  00000+0  00000+0 0  9997
2 51850   0.0182 309.0353 0000649 301.9944 345.8299  1.00273364  7625
COSMOS 2557 (706K)      
1 52984U 22075A   26270.87688299 -.00000007  00000+0  00000+0 0  9994
2 52984  64.2326 310.8623 0012842 270.2283  89.7011  2.13102369 32904
METEOSAT-12 (MTG-I1)    
1 54743U 22170C   26271.18912068 -.00000002  00000+0  00000+0 0  9999
2 54743   0.7463  21.2698 0003352  96.8329 316.5487  1.00273764 14013
METEOR-M2 3             
1 57166U 23091A   26271.31349272 -.00000016  00000+0  11791-4 0  9999
2 57166  98.5974 324.1238 0003197 216.8569 143.2391 14.24053184169190
COSMOS 2569 (703K)      
1 57517U 23114A   26271.02100264  .00000030  00000+0  00000+0 0  9990
2 57517  65.3672  69.1565 0008674 287.1633  72.7543  2.13102510 24451
METEOR-M2 4             
1 59051U 24039A   26271.30442786 -.00000001  00000+0  19456-4 0  9990
2 59051  98.7143 229.3633 0006126 226.1577 133.9095 14.22438558133927
GSAT0225 (GALILEO 29)   
1 59598U 24079A   26270.76154152  .00000057  00000+0  00000+0 0  9996
2 59598  55.1886  98.2126 0001801 134.0787  43.8546  1.70474194 15068
GSAT0227 (GALILEO 30)   
1 59600U 24079C   26269.48206266  .00000060  00000+0  00000+0 0  9995
2 59600  55.1811  98.2459 0004288  97.9310 262.1972  1.70474248 15092
GSAT0232 (GALILEO 32)   
1 61182U 24167A   26271.06628354  .00000015  00000+0  00000+0 0  9994
2 61182  55.1612 218.4938 0005183 233.6917 234.2841  1.70473368 12638
GSAT0226 (GALILEO 31)   
1 61183U 24167B   26270.44722779  .00000013  00000+0  00000+0 0  9990
2 61183  55.1603 218.5179 0001959 244.5843 294.7937  1.70473356 12592
GSAT0233 (GALILEO 33)   
1 67160U 25302A   26269.97870296  .00000058  00000+0  00000+0 0  9996
2 67160  54.4019  99.2297 0003178 142.8281 205.6949  1.70474275  4857
GSAT0234 (GALILEO 34)   
1 67162U 25302C   26268.53360027  .00000058  00000+0  00000+0 0  9995
2 67162  54.4028  99.2701 0000335  74.4894 287.2335  1.70474315  4895
