INMARSAT 4-F2 (SOUTHPA*)
1 28899U 05044A   26280.26971594 -.00000273  00000+0  00000+0 0  9991
2 28899   5.2422  43.7255 0002711 163.6601  49.1566  1.00271545 76642
GSAT-8 (GAGAN/PRN 127)  
1 37605U 11022A   26280.18088228  .00000070  00000+0  00000+0 0  9997
2 37605   2.4143  80.3201 0007255 164.0464 251.6888  1.00271901 54340
LUCH 5A (SDCM/PRN 140)  
1 37951U 11074B   26280.16739323 -.00000057  00000+0  00000+0 0  9991
2 37951   9.0328  72.1388 0004494 141.8637  29.2068  1.00274741 54179
SES-5 (EGNOS/PRN 136)   
1 38652U 12036A   26280.24224250  .00000000  00000+0  00000+0 0  9993
2 38652   0.0132 334.5185 0002017 222.8917 270.6739  1.00270140 45583
GSAT-10 (GAGAN/PRN 128) 
1 38779U 12051B   26279.47373538 -.00000182  00000+0  00000+0 0  9999
2 38779   0.0162 112.9943 0004199   8.7908 146.9309  1.00270337 51213
LUCH 5B (SDCM/PRN 125)  
1 38977U 12061A   26279.59661383 -.00000148  00000+0  00000+0 0  9993
2 38977  10.7214  48.7485 0006778 175.8274 349.1533  1.00270993 50722
ASTRA 5B (EGNOS/PRN 123)
1 39617U 14011B   26280.24596919  .00000120  00000+0  00000+0 0  9997
2 39617   0.0937 295.5297 0003710 277.2951 275.1484  1.00272853 45794
LUCH 5V (SDCM/PRN 141)  
1 39727U 14023A   26279.97496145 -.00000281  00000+0  00000+0 0  9999
2 39727   5.4076  68.5141 0003117 164.4696 228.4153  1.00271505 45482
GSAT-15 (GAGAN/PRN 139) 
1 41028U 15065A   26280.04594175 -.00000274  00000+0  00000+0 0  9997
2 41028   0.0371  84.1467 0002009 110.4696 291.1326  1.00269590 39925
EUTELSAT 117 WEST B (W*)
1 41589U 16038B   26279.43412853 -.00000030  00000+0  00000+0 0  9993
2 41589   0.0159  47.4105 0000158  79.1545 287.8563  1.00273851 37770
SES-15 (WAAS/PRN 133)   
1 42709U 17026A   26280.21572240  .00000042  00000+0  00000+0 0  9993
2 42709   0.0336 324.7075 0000884 226.2852 133.3955  1.00273243  8550
QZS-2 (QZSS/PRN 194)    
1 42738U 17028A   26280.19968902 -.00000234  00000+0  00000+0 0  9992
2 42738  39.2664 241.5070 0746897 270.7518  75.6906  1.00254717  8745
QZS-3 (QZSS/PRN 199)    
1 42917U 17048A   26280.26642259 -.00000364  00000+0  00000+0 0  9999
2 42917   0.0515 194.4291 0002054  17.1022  27.3621  1.00273855 33389
QZS-4 (QZSS/PRN 195)    
1 42965U 17062A   26279.48690876 -.00000329  00000+0  00000+0 0  9999
2 42965  40.0344 342.0613 0750098 270.1724  78.5393  1.00267730 32910
BEIDOU-3 G1 (PRN 130)   
1 43683U 18085A   26280.27247340 -.00000123  00000+0  00000+0 0  9998
2 43683   2.6721  94.1950 0004999  28.7421 151.1376  1.00270586 29180
EUTELSAT 5 WEST B (EGN*)
1 44624U 19067A   26280.24024917 -.00000059  00000+0  00000+0 0  9993
2 44624   0.0660  12.0738 0003165 186.8290 258.5071  1.00272825 25556
BEIDOU-3 G2 (PRN 144)   
1 45344U 20017A   26280.04334174 -.00000155  00000+0  00000+0 0  9994
2 45344   2.6328  48.7672 0002656 160.8860 261.7239  1.00271807 24388
BEIDOU-3 G3 (PRN 143)   
1 45807U 20040A   26280.26312925 -.00000367  00000+0  00000+0 0  9993
2 45807   2.7186  67.3604 0003211 272.7935 240.9929  1.00266504 23192
GALAXY 30 (WAAS/PRN 135)
1 46114U 20056C   26280.18033352  .00000000  00000+0  00000+0 0  9990
2 46114   0.0205 175.7353 0002404  27.2188 112.8023  1.00271089 22418
QZS-1R (QZSS/PRN 196)   
1 49336U 21096A   26279.77081458 -.00000227  00000+0  00000+0 0  9999
2 49336  37.6948  77.9352 0745746 270.2630  79.6670  1.00279501 18122
QZS-6 (QZSS/PRN 200)    
1 62876U 25023A   26280.04533507 -.00000250  00000+0  00000+0 0  9992
2 62876   0.0163  99.0965 0002111 112.8328 270.5971  1.00268471  6072
