HST                     
1 20580U 90037B   26281.67127014  .00005552  00000+0  16789-3 0  9991
2 20580  28.4734  24.2725 0001576 348.7905  11.2656 15.31864315805980
POLAR                   
1 23802U 96013A   26279.72274735  .00000022  00000+0  00000+0 0  9999
2 23802  80.0081 225.7074 6585650 205.2585  97.6829  1.29845635146301
SWAS                    
1 25560U 98071A   26282.75657598  .00002048  00000+0  13147-3 0  9997
2 25560  69.8928 291.9269 0002656  59.3205 300.8221 15.10205974514564
CXO                     
1 25867U 99040B   26283.08973022  .00000686  00000+0  00000+0 0  9990
2 25867  57.7685 113.6354 7656956 309.1885   0.2461  0.37810264 17753
XMM-NEWTON              
1 25989U 99066A   26283.04063349  .00000027  00000+0  00000+0 0  9990
2 25989  63.8843 281.4992 4642983  62.8427   0.1584  0.50128104 23584
TERRA                   
1 25994U 99068A   26282.85825875  .00000271  00000+0  64024-4 0  9998
2 25994  97.9327 327.7856 0001606 191.1894 223.2150 14.61172635426353
TIMED                   
1 26998U 01055B   26282.20698456  .00000921  00000+0  86701-4 0  9992
2 26998  74.0698   5.4014 0001088 225.3854 134.7242 14.95498451347861
CORIOLIS                
1 27640U 03001A   26282.77209899  .00000095  00000+0  65306-4 0  9991
2 27640  98.7170 287.9322 0013027 241.0186 118.9685 14.19971342230487
SORCE                   
1 27651U 03004A   26282.21898529  .00001970  00000+0  14978-3 0  9990
2 27651  39.9921 330.8171 0016684 153.9702 206.1934 15.04207275289075
MOST                    
1 27843U 03031D   26281.97160642  .00000046  00000+0  41364-4 0  9996
2 27843  98.7082 288.1302 0008780 285.9762  74.0448 14.21341417206874
SCISAT 1                
1 27858U 03036A   26282.75137501  .00000413  00000+0  57265-4 0  9997
2 27858  73.9289 303.6958 0007991 330.6953  29.3775 14.81556339248416
SWIFT                   
1 28485U 04047A   26281.50215435  .00250533  00000+0  78205-3 0  9998
2 28485  20.5514  21.0839 0004305 112.4087 247.6819 15.89556617204763
HINODE (SOLAR-B)        
1 29479U 06041A   26282.30130777  .00000345  00000+0  67522-4 0  9997
2 29479  98.0537 296.7756 0016115 287.3049  72.6393 14.68739873 71626
SHIJIAN-6 02A (SJ-6 02A)
1 29505U 06046A   26282.89198009  .00003585  00000+0  17971-3 0  9999
2 29505  97.6251 324.8384 0004696  99.4511 260.7254 15.18003677 89662
SHIJIAN-6 02B (SJ-6 02B)
1 29506U 06046B   26282.83981706  .00001210  00000+0  97980-4 0  9990
2 29506  97.6966 311.0659 0014904  49.7272 310.5252 15.01522187 87949
FGRST (GLAST)           
1 33053U 08029A   26282.86154683  .00002971  00000+0  10415-3 0  9996
2 33053  25.5812 127.9216 0007553 239.6185 120.3607 15.24457858 13205
SDO                     
1 36395U 10005A   26277.11916721 -.00000067  00000+0  00000+0 0  9996
2 36395  34.8784  84.6864 0001797  82.1576 147.3231  1.00273214 61155
CRYOSAT 2               
1 36508U 10013A   26282.83346355  .00000108  00000+0  26012-4 0  9997
2 36508  92.0238 305.1179 0002168  92.8275 267.3180 14.51906045874713
X-SAT                   
1 37389U 11015C   26282.86985288 -.00000212  00000+0 -72596-4 0  9991
2 37389  98.3669 254.5140 0014399  11.4147 348.7357 14.25232980804014
GCOM-W1 (SHIZUKU)       
1 38337U 12025A   26282.16759466  .00000308  00000+0  78505-4 0  9997
2 38337  98.2108 221.0295 0001597  74.5833  20.0100 14.57115578765631
NUSTAR                  
1 38358U 12031A   26282.91668980  .00010782  00000+0  59559-3 0  9994
2 38358   6.0260 252.9257 0007605   9.3559 196.0720 15.09728829  1304
NEOSSAT                 
1 39089U 13009D   26282.28491317  .00000123  00000+0  57123-4 0  9994
2 39089  98.4226  99.6569 0009835 266.1799  93.8263 14.35860351713111
BRITE-AUSTRIA           
1 39091U 13009F   26281.94802457  .00000125  00000+0  57279-4 0  9994
2 39091  98.4048  98.6230 0009020 259.5522 100.4648 14.36578091713385
IRIS                    
1 39197U 13033A   26282.03124185  .00000797  00000+0  97037-4 0  9995
2 39197  97.9247 120.9391 0023336 308.6951  51.2177 14.86070703717287
HISAKI (SPRINT-A)       
1 39253U 13049A   26282.28367887  .00000115  00000+0  64371-4 0  9999
2 39253  29.7221 359.9291 0136522 221.9371 137.0675 13.55552764646917
CASSIOPE                
1 39265U 13055A   26282.80503640  .00046401 -37900-6  45242-3 0  9996
2 39265  80.9088 286.6783 0263156  33.9789 327.7987 15.33236051685182
STSAT-3                 
1 39422U 13066G   26282.88635514  .00001501  00000+0  11519-3 0  9992
2 39422  97.6350 251.0427 0010273  15.8441 344.3104 15.03266948701437
SWARM B                 
1 39451U 13067A   26282.87369940  .00002630  00000+0  91789-4 0  9993
2 39451  87.7396 307.4769 0002785  81.1131 279.0434 15.29142451700760
SWARM A                 
1 39452U 13067B   26282.82535781  .00010446  00000+0  17808-3 0  9990
2 39452  87.3381  13.6615 0003063  99.6542 260.5065 15.51193102724010
SWARM C                 
1 39453U 13067C   26282.82526729  .00010581  00000+0  18039-3 0  9990
2 39453  87.3382  12.2452 0003070  99.5619 260.5989 15.51191810723971
BRITE-CA1 (TORONTO)     
1 40020U 14033L   26282.17773735  .00000590  00000+0  96235-4 0  9999
2 40020  97.9895  49.1127 0077034 272.0118  87.2269 14.72838176658999
OCO 2                   
1 40059U 14035A   26282.83330814  .00000301  00000+0  76930-4 0  9993
2 40059  98.2109 222.4182 0001301  68.7514 291.3824 14.57104367652747
BRITE-PL2 (HEWELIUSZ)   
1 40119U 14049B   26282.30750273  .00001010  00000+0  97897-4 0  9995
2 40119  97.9193  35.2717 0015184  91.0408 269.2552 14.94916696658499
MMS 1                   
1 40482U 15011A   26282.91668980 -.00001074  00000+0  00000+0 0  9994
2 40482  72.9889 347.5064 8237846 169.9131 121.7823  0.28334175  1367
MMS 2                   
1 40483U 15011B   26282.91668980 -.00001074  00000+0  00000+0 0  9995
2 40483  72.9935 347.5052 8240694 169.9139 121.7567  0.28334122  1378
MMS 3                   
1 40484U 15011C   26282.91668980 -.00001074  00000+0  00000+0 0  9996
2 40484  72.9927 347.5174 8239062 169.9228 121.7311  0.28334121  1355
MMS 4                   
1 40485U 15011D   26282.91668980 -.00001074  00000+0  00000+0 0  9997
2 40485  72.9865 347.5013 8239272 169.9321 121.7279  0.28334401  1372
ASTROSAT                
1 40930U 15052A   26280.22988274  .00001386  00000+0  86558-4 0  9992
2 40930   5.9970  68.7329 0008271 201.0934 158.8853 14.82671780596484
DAMPE                   
1 41173U 15078A   26282.81453186  .00000742  00000+0  27321-4 0  9994
2 41173  97.4601 288.8924 0013055  35.8144 324.3970 15.31022213602089
PISAT                   
1 41784U 16059B   26282.23034565  .00000577  00000+0  10549-3 0  9993
2 41784  97.8263 277.8424 0028399 198.4919 161.5258 14.69153448536486
HXMT (HUIYAN)           
1 42758U 17034A   26282.82077156  .00003397  00000+0  16749-3 0  9998
2 42758  43.0143 264.3153 0030829 155.2308 205.0029 15.19301144515090
FLYING LAPTOP           
1 42831U 17042G   26282.88058845  .00001704  00000+0  13518-3 0  9990
2 42831  97.5022  74.3661 0019101  91.0112 269.3302 15.01675306503667
ZHANGHENG 1-01 (CSES-1) 
1 43194U 18015C   26282.88741951  .00007097  00000+0  32389-3 0  9999
2 43194  97.6965  90.9072 0013207 234.6815 125.3186 15.20862187482071
SALSAT                  
1 46495U 20068K   26282.75459098  .00006796  00000+0  22822-3 0  9997
2 46495  97.8877 292.9469 0007617 257.8188 102.2199 15.31194996332883
IXPE                    
1 49954U 21121A   26282.83336806  .00020612  00000+0  11348-2 0  9994
2 49954   0.2283 169.8003 0007191  16.7671 222.6254 15.11151460  5677
SMILE                   
1 69123U 26109A   26279.16572386  .00000497  00000+0  00000+0 0  9991
2 69123  69.9891 206.1780 8126460 285.3137   5.8598  0.47513295   477
