NSS-11                  
1 26554U 00059A   26276.20833911  .00000016  00000+0  00000+0 0  9991
2 26554   2.3988  79.9650 0003221 129.4961  53.4844  1.00272080 42374
AMC-6                   
1 26580U 00067A   26276.29091068  .00000078  00000+0  00000+0 0  9995
2 26580   0.4230  83.2984 0004807 125.4762 132.9234  1.00271730 94976
AMC-15                  
1 28446U 04041A   26276.18519508 -.00000098  00000+0  00000+0 0  9999
2 28446   0.0432  32.3955 0002063 178.4762 122.6559  1.00270848 80387
NSS-10                  
1 28526U 05003A   26275.81480562 -.00000257  00000+0  00000+0 0  9990
2 28526   6.7139  69.1021 0003490 126.2489  72.0908  1.00271463 54232
ASTRA 1KR               
1 29055U 06012A   26276.11711588  .00000109  00000+0  00000+0 0  9993
2 29055   0.7460  82.4257 0003662 115.8411 234.7431  1.00269628 46778
ASTRA 1L                
1 31306U 07016A   26275.95989773 -.00000192  00000+0  00000+0 0  9997
2 31306   1.5931  80.4395 0004856 115.7982 136.5157  1.00272111 46068
ASTRA 4A                
1 32299U 07057A   26276.17951207  .00000023  00000+0  00000+0 0  9992
2 32299   0.0439  51.1616 0002705 154.6658 235.5152  1.00270340 52728
ASTRA 1M                
1 33436U 08057A   26276.11711588  .00000112  00000+0  00000+0 0  9996
2 33436   0.5683  82.3905 0003685 114.4546 236.5641  1.00273386 46813
NSS-9                   
1 33749U 09008A   26276.14354524  .00000063  00000+0  00000+0 0  9991
2 33749   1.5336  81.3473 0002135 111.6587  53.6340  1.00273361 64602
SES-7 (PROTOSTAR 2)     
1 34941U 09027A   26276.08031043 -.00000354  00000+0  00000+0 0  9992
2 34941   0.0473  65.4276 0001774 185.0636 258.4890  1.00271044 63717
NSS-12                  
1 36032U 09058A   26275.68700006  .00000064  00000+0  00000+0 0  9993
2 36032   0.0625  73.7533 0002346  86.2857 155.7112  1.00270602 61993
SES-1                   
1 36516U 10016A   26276.05657028 -.00000124  00000+0  00000+0 0  9991
2 36516   0.0359 282.3747 0002632 275.8712  92.9120  1.00271956 60110
ASTRA 3B                
1 36581U 10021A   26276.18323876  .00000128  00000+0  00000+0 0  9997
2 36581   1.7414  82.0498 0002981  83.5106 295.8332  1.00274695 59950
SES-3                   
1 37748U 11035A   26276.30197381 -.00000112  00000+0  00000+0 0  9997
2 37748   1.5993  81.6709 0002748 133.6417 162.4285  1.00271533 55678
ASTRA 1N                
1 37775U 11041A   26276.11711588  .00000110  00000+0  00000+0 0  9991
2 37775   0.1020  44.9672 0003991 127.5287 260.7294  1.00269332 45601
SES-2                   
1 37809U 11049A   26276.31105767 -.00000206  00000+0  00000+0 0  9992
2 37809   0.3294  86.5922 0002974 111.0655 199.3646  1.00271457 55049
QUETZSAT 1              
1 37826U 11054A   26276.27450816 -.00000252  00000+0  00000+0 0  9991
2 37826   0.0399  47.4071 0002884 158.1710 188.2523  1.00270605 50956
SES-4                   
1 38087U 12007A   26275.67527167 -.00000175  00000+0  00000+0 0  9991
2 38087   0.0120 314.6809 0002451 231.0753  46.7687  1.00272756 53304
SES-5                   
1 38652U 12036A   26275.94836456  .00000000  00000+0  00000+0 0  9991
2 38652   0.0148   5.3721 0002273 194.8722 157.8057  1.00270044 45532
ASTRA 2F                
1 38778U 12051A   26275.75479899  .00000142  00000+0  00000+0 0  9997
2 38778   0.0657 256.6648 0004618 319.1823  95.6043  1.00275160 42214
SES-6                   
1 39172U 13026A   26275.67154499 -.00000268  00000+0  00000+0 0  9996
2 39172   0.0041 123.8309 0002046  78.0539  10.7898  1.00277126 48808
O3B FM5                 
1 39188U 13031A   26275.98084803 -.00000022  00000+0  00000+0 0  9992
2 39188   0.0757 312.9656 0002381 226.8203 180.2182  5.00115620242436
O3B FM4                 
1 39189U 13031B   26273.50170547 -.00000016  00000+0  00000+0 0  9993
2 39189   0.0407 358.8107 0004284 159.4179 201.7952  5.00115671242313
O3B FM2                 
1 39190U 13031C   26275.76590830 -.00000021  00000+0  00000+0 0  9992
2 39190   0.0362   5.4431 0002605 183.4361 171.1204  5.00116013242484
O3B PFM                 
1 39191U 13031D   26275.38025199 -.00000020  00000+0  00000+0 0  9991
2 39191   0.0585 336.6256 0004760 186.8102 196.5842  5.00115999242032
ASTRA 2E                
1 39285U 13056A   26275.84587962  .00000142  00000+0  00000+0 0  9998
2 39285   0.0889 306.2172 0002340 250.9237 147.4759  1.00275182 47499
SES-8                   
1 39460U 13071A   26274.34420924 -.00000272  00000+0  00000+0 0  9993
2 39460   0.0319 297.4693 0001664 218.9877  72.5691  1.00275280 45493
ASTRA 5B                
1 39617U 14011B   26276.18323876  .00000127  00000+0  00000+0 0  9992
2 39617   0.0805 302.4672 0003564 272.0563 246.8439  1.00271979 45751
O3B FM3                 
1 40079U 14038A   26275.84676817 -.00000021  00000+0  00000+0 0  9997
2 40079   0.0485 355.3677 0003793 235.7648 128.8378  5.00115734218433
O3B FM7                 
1 40080U 14038B   26275.39313578 -.00000020  00000+0  00000+0 0  9990
2 40080   0.0414 352.4826 0002658 155.5205 212.0174  5.00115636223233
O3B FM6                 
1 40081U 14038C   26275.61997672 -.00000021  00000+0  00000+0 0  9990
2 40081   0.0456 354.9800 0002579 196.2747 168.7438  5.00115737223203
O3B FM8                 
1 40082U 14038D   26276.07293557 -.00000022  00000+0  00000+0 0  9994
2 40082   0.0446 354.6298 0002764 197.3524 168.0151  5.00116098223343
O3B FM10                
1 40348U 14083A   26273.50168769 -.00000016  00000+0  00000+0 0  9993
2 40348   0.0480 345.5623 0002677 202.4964 171.9425  5.00115743215160
O3B FM11                
1 40349U 14083B   26275.91305073 -.00000021  00000+0  00000+0 0  9998
2 40349   0.0529 348.5512 0002125 188.5667 182.8873  5.00115492215302
O3B FM12                
1 40350U 14083C   26276.13985571 -.00000022  00000+0  00000+0 0  9993
2 40350   0.0523 349.3916 0002435 201.7359 168.8709  5.00115968215327
O3B FM9                 
1 40351U 14083D   26274.36765525 -.00000018  00000+0  00000+0 0  9997
2 40351   0.0530 347.0527 0002605 201.2596 171.6885  5.00116079215372
ASTRA 2G                
1 40364U 14089A   26275.75479953  .00000142  00000+0  00000+0 0  9995
2 40364   0.0497 359.0869 0001617 104.2286 208.1026  1.00274709 43047
SES-9                   
1 41380U 16013A   26275.49420645 -.00000352  00000+0  00000+0 0  9992
2 41380   0.0062 173.3178 0001427 338.3226 145.8080  1.00271275 38515
SES-10                  
1 42432U 17017A   26275.50797072 -.00000280  00000+0  00000+0 0  9999
2 42432   0.0034 114.3624 0002782  89.2955 283.5671  1.00271459 34831
SES-15                  
1 42709U 17026A   26275.60153416  .00000053  00000+0  00000+0 0  9992
2 42709   0.0375 336.3996 0000540 245.1213 237.2095  1.00268476  8511
SES-11 (ECHOSTAR 105)   
1 42967U 17063A   26276.21846090 -.00000099  00000+0  00000+0 0  9995
2 42967   0.0370 295.2942 0002962 253.1127 157.2403  1.00271344 32800
SES-14                  
1 43175U 18012B   26275.95539104 -.00000287  00000+0  00000+0 0  9996
2 43175   0.0367  30.4847 0001169 166.3045 111.3436  1.00271744  8100
O3B FM15                
1 43231U 18024A   26276.03363353 -.00000022  00000+0  00000+0 0  9990
2 43231   0.0564 356.2217 0002596 197.7174 166.0578  5.00115810156426
O3B FM16                
1 43232U 18024B   26275.68614576 -.00000021  00000+0  00000+0 0  9996
2 43232   0.0595 358.8926 0002578 193.3672 167.7381  5.00115976156323
O3B FM14                
1 43233U 18024C   26275.52710447 -.00000020  00000+0  00000+0 0  9993
2 43233   0.0593   0.2783 0002836 189.1844 170.5363  5.00115791156329
O3B FM13                
1 43234U 18024D   26275.39313039 -.00000020  00000+0  00000+0 0  9995
2 43234   0.0545 341.4781 0000656 148.1602 230.3719  5.00115635156417
SES-12                  
1 43488U 18049A   26275.94211448 -.00000278  00000+0  00000+0 0  9990
2 43488   0.0407  25.8709 0002310 218.7537 201.2152  1.00270429 30494
O3B FM20                
1 44112U 19020A   26275.75308160 -.00000021  00000+0  00000+0 0  9998
2 44112   0.0540 353.5998 0002238 199.0023 167.3964  5.00115678136946
O3B FM19                
1 44113U 19020B   26275.58013981 -.00000021  00000+0  00000+0 0  9994
2 44113   0.0743 337.4989 0002806 187.7649 194.7486  5.00116008136819
O3B FM17                
1 44114U 19020C   26275.66037822 -.00000021  00000+0  00000+0 0  9994
2 44114   0.0517  14.8596 0002573 179.6663 165.4710  5.00115674136909
O3B FM18                
1 44115U 19020D   26275.80665155 -.00000021  00000+0  00000+0 0  9997
2 44115   0.0542 353.1997 0002758 199.7748 167.0226  5.00115394137038
SES-17                  
1 49332U 21095A   26275.42602611 -.00000279  00000+0  00000+0 0  9999
2 49332   0.0411  22.0315 0001150 182.1154 253.2867  1.00268949 18934
SES-22                  
1 52933U 22071A   26276.28729603  .00000094  00000+0  00000+0 0  9995
2 52933   0.0167 139.3578 0001028  54.4309 142.6469  1.00269862  8600
SES-20                  
1 53960U 22123A   26275.65923826 -.00000109  00000+0  00000+0 0  9995
2 53960   0.0411  74.6475 0001339  41.9166  29.0647  1.00270234 14616
SES-21                  
1 53961U 22123B   26275.93875994  .00000060  00000+0  00000+0 0  9994
2 53961   0.0374  61.6646 0000982 123.2035  33.7534  1.00270847  8297
O3B MPOWER F1           
1 54755U 22174A   26276.25887975 -.00000022  00000+0  00000+0 0  9999
2 54755   0.0409 344.7237 0007008 210.7515 118.5746  5.00114307 70760
O3B MPOWER F2           
1 54756U 22174B   26276.05096913 -.00000022  00000+0  00000+0 0  9992
2 54756   0.0386 350.1502 0005649 197.7456 172.0993  5.00115332 70845
SES-18                  
1 55970U 23038A   26276.30147557 -.00000112  00000+0  00000+0 0  9990
2 55970   0.0240 268.6511 0002472 327.1540 141.6562  1.00271134 13187
SES-19                  
1 55971U 23038B   26276.29091068  .00000077  00000+0  00000+0 0  9993
2 55971   0.0265 278.8316 0001631 287.3676 135.6456  1.00271321 13176
O3B MPOWER F4           
1 56367U 23059A   26267.52002965 -.00000018  00000+0  00000+0 0  9996
2 56367   0.0590 342.3109 0007695 196.7885 180.9060  5.00115028 63573
O3B MPOWER F3           
1 56368U 23059B   26275.94859661 -.00000022  00000+0  00000+0 0  9990
2 56368   0.0581 340.8882 0006348 203.7091 175.4008  5.00115378 60124
O3B MPOWER F5           
1 58346U 23175A   26275.84959497 -.00000021  00000+0  00000+0 0  9993
2 58346   0.0617   2.7387 0006467 204.4163 152.8152  5.00115515 54828
O3B MPOWER F6           
1 58347U 23175B   26276.14998805 -.00000022  00000+0  00000+0 0  9995
2 58347   0.0581 355.9124 0004644 204.3107 159.7623  5.00115441 53740
ASTRA 1P (SES-24)       
1 60086U 24115A   26275.23655661  .00000114  00000+0  00000+0 0  9993
2 60086   0.0620   0.1361 0003295 238.7588 236.4491  1.00270587  8277
O3B MPOWER F7           
1 62362U 24244A   26276.01652693 -.00000022  00000+0  00000+0 0  9993
2 62362   0.0556 333.9052 0005682 213.4726 172.6178  5.00115366 31922
O3B MPOWER F8           
1 62363U 24244B   26274.98411905 -.00000019  00000+0  00000+0 0  9993
2 62363   0.0383  38.3225 0005098 143.5691 178.1111  5.00114552 26214
O3B MPOWER F9           
1 64866U 25153A   26275.11727627 -.00000020  00000+0  00000+0 0  9992
2 64866   0.0668 355.4278 0007480 205.5903 158.9557  5.00115234 24916
O3B MPOWER F10          
1 64867U 25153B   26275.88301425 -.00000021  00000+0  00000+0 0  9992
2 64867   0.0623 354.3665 0005333 283.2477  82.3294  5.00114766 27415
