LEMUR-1                 
1 40044U 14033AL  26273.17800307  .00001149  00000+0  13634-3 0  9993
2 40044  97.8029  60.7696 0049349  93.5885 267.0976 14.85569820661053
LEMUR-2-GREENBERG       
1 42837U 17042N   26272.99326209  .00010117  00000+0  30662-3 0  9996
2 42837  97.3861  93.4150 0007893 359.0261   1.0965 15.34307222504442
LEMUR-2-ANDIS           
1 42838U 17042P   26273.01026741  .00012946  00000+0  33890-3 0  9997
2 42838  97.3694  94.0370 0007494 354.7232   5.3934 15.38822883504559
LEMUR-2-MONSON          
1 42839U 17042Q   26273.04366605  .00006916  00000+0  23603-3 0  9998
2 42839  97.4125  93.2543 0005986 353.2502   6.8658 15.30637804504199
LEMUR-2-FURIAUS         
1 42840U 17042R   26273.05481691  .00010014  00000+0  31229-3 0  9991
2 42840  97.3806  91.1992 0007551  54.0176 306.1766 15.33403713504261
LEMUR-2-PETERG          
1 42841U 17042S   26273.05298936  .00016452  00000+0  44105-3 0  9999
2 42841  97.3999  98.6051 0003036 339.8204  20.2920 15.38056911504538
LEMUR-2-DEMBITZ         
1 42842U 17042T   26273.07882773  .00008720  00000+0  27375-3 0  9999
2 42842  97.3843  94.3047 0006298  14.0523 346.0894 15.33242755504407
LEMUR-2-ZACHARY         
1 42845U 17042W   26273.07478971  .00044085  00000+0  53248-3 0  9995
2 42845  97.3507 107.6765 0002433 359.9748   0.1509 15.60614243505507
LEMUR-2-AMANDA-SVANTE   
1 48269U 21034B   26272.75716908  .00022863  00000+0  56336-3 0  9997
2 48269  97.5679 354.2386 0002419 198.0611 162.0549 15.40579774297124
LEMUR-2-EMBRIONOVIS     
1 56970U 23084AQ  26273.22162436  .00008092  00000+0  20488-3 0  9993
2 56970  97.6435  61.7484 0007134 303.2778  56.7783 15.40007211183838
LEMUR-2-DEVERILL-M-T    
1 57391U 23100F   26273.08301126  .00017002  00000+0  36601-3 0  9990
2 57391  99.4352 342.5498 0005415  45.2549 314.9133 15.44735164177412
LEMUR-2-BASS            
1 58259U 23174D   26272.76509883  .00011162  00000+0  22843-3 0  9993
2 58259  97.3799 359.1498 0007218 144.6172 215.5558 15.46256711161509
LEMUR-2-JK0903EM1407    
1 58336U 23174CJ  26273.21515145  .00018326  00000+0  25614-3 0  9996
2 58336  97.3900   7.0294 0004532  95.4467 264.7305 15.56890542162041
LEMUR-2-MJR092620       
1 58340U 23174CN  26272.77530778  .00012372  00000+0  23494-3 0  9999
2 58340  97.3950   4.9842 0006375  98.9295 261.2677 15.48409865161813
LEMUR-2-NIMBUS2000      
1 58899U 24022A   26273.07415044  .00013576  00000+0  29881-3 0  9996
2 58899  97.3965 124.6423 0009488  97.0547 263.1780 15.44039915148431
LEMUR-2-VALHALLA        
1 58900U 24022B   26273.06708408  .00009053  00000+0  21060-3 0  9993
2 58900  97.3966 124.4801 0010213  93.7399 266.5016 15.42491303148428
LEMUR-2-CAEL            
1 58903U 24022E   26273.17442039  .00009375  00000+0  20715-3 0  9996
2 58903  97.3943 125.7256 0008656  78.7307 281.4914 15.44033844148522
LEMUR-2-JOHNNYTRUONG    
1 59146U 24043BA  26273.17271162  .00039427  00000+0  34237-3 0  9991
2 59146  97.5456  72.1044 0003355 155.7782 204.3637 15.68998381144453
LEMUR-2-TOMATOKECHUP    
1 60471U 24149D   26273.11903059  .00005982  00000+0  16253-3 0  9999
2 60471  97.3735 355.5407 0001700 164.9056 195.2240 15.37950215118283
LEMUR-2-STELLA          
1 60533U 24149BT  26272.78772441  .00006600  00000+0  36987-3 0  9993
2 60533  97.6679 355.8169 0001346  91.4613 268.6772 15.13743236116313
LEMUR-2-MARHISYAM       
1 60536U 24149BW  26272.74698145  .00004653  00000+0  26755-3 0  9998
2 60536  97.6825 356.3167 0003104 116.2711 243.8839 15.12978040116289
LEMUR-2-AHMED-ASRAR     
1 60576U 24149DN  26273.19953636  .00005783  00000+0  31608-3 0  9999
2 60576  97.6958 359.3010 0001895  33.5752 326.5599 15.14694021116458
LEMUR-2-LLOYD           
1 60577U 24149DP  26272.93415639  .00004735  00000+0  28798-3 0  9999
2 60577  97.6682 354.2144 0004551 139.4503 220.7066 15.10928327116209
LEMUR-2-SQUIRRELCOMM    
1 60578U 24149DQ  26273.18506665  .00003103  00000+0  20504-3 0  9993
2 60578  97.6642 353.8022 0006221  62.0629 298.1228 15.08142249116221
LEMUR-2-SIERRINI        
1 60579U 24149DR  26273.05044835  .00006642  00000+0  38152-3 0  9995
2 60579  97.6785 356.2211 0005351 166.0512 194.0867 15.12840938116303
LEMUR-2-WILSON          
1 62694U 25009CP  26273.01816738  .00001285  00000+0  12111-3 0  9991
2 62694  97.6949 349.6235 0004224  63.2405 296.9248 14.95517789 93027
LEMUR-2-STAR-FOX        
1 62696U 25009CR  26272.74034043  .00003480  00000+0  25833-3 0  9997
2 62696  97.6873 353.6290 0003613 105.0874 255.0751 15.03706725 93268
LEMUR-2-ARIANNA         
1 62699U 25009CU  26272.73825181  .00002941  00000+0  21900-3 0  9992
2 62699  97.6811 353.3213 0003720 112.8691 247.2928 15.03708017 93262
LEMUR-2-ALISIA          
1 62706U 25009DB  26272.76002522  .00003886  00000+0  28506-3 0  9998
2 62706  97.6908 354.2900 0001786 199.3990 160.7168 15.04082060115874
LEMUR-2-ROUNDTRIPPER    
1 62711U 25009DG  26272.77643398  .00004632  00000+0  32875-3 0  9991
2 62711  97.7192 355.3766 0004376 136.8844 223.2726 15.05225746 93354
LEMUR-2-MYNAMEISJEFF    
1 62712U 25009DH  26273.04083281  .00004563  00000+0  32417-3 0  9997
2 62712  97.7241 356.0876 0002941 161.1960 198.9375 15.05204487 93397
LEMUR-2-LEIA-PHILIP     
1 63246U 25052AN  26272.64478357  .00002408  00000+0  21058-3 0  9990
2 63246  97.6667 162.7669 0002417 212.6040 147.5034 14.97671854 84301
LEMUR-2-LIA-MARTIN      
1 63248U 25052AQ  26272.66664998  .00001823  00000+0  15717-3 0  9997
2 63248  97.6739 163.4516 0002601 154.2109 205.9244 14.98535239 84325
LEMUR-2-DELOITTE-1      
1 63259U 25052BB  26273.12903591  .00002079  00000+0  18000-3 0  9998
2 63259  97.6773 164.2358 0003358  92.5229 267.6378 14.98212334 84405
LEMUR-2-EMERSONROSE     
1 63261U 25052BD  26272.66554273  .00002148  00000+0  17864-3 0  9992
2 63261  97.6777 164.5512 0005196  59.0062 301.1671 14.99737446 84397
LEMUR-2-MARACHE-FRAN    
1 63262U 25052BE  26273.16684495  .00002394  00000+0  19276-3 0  9991
2 63262  97.6635 165.4586 0010701  22.1327 338.0357 15.00864723 84500
LEMUR-2-THEFALCONER     
1 63264U 25052BG  26272.63901322  .00001184  00000+0  10563-3 0  9991
2 63264  97.6697 163.2537 0002542  45.7430 314.4001 14.97825385 84322
LEMUR-2-UNTITLED-SC     
1 63351U 25061A   26273.18932362  .00001700  00000+0  96806-4 0  9996
2 63351  97.5772 247.9027 0016709 262.5839  97.3494 15.14108096 83479
LEMUR-2-ESPERANZA       
1 63352U 25061B   26272.89503930  .00002086  00000+0  11760-3 0  9992
2 63352  97.5779 247.7292 0016323 263.0017  96.9358 15.14208371 83432
LEMUR-2-KREMPEL-BRO2    
1 63353U 25061C   26273.15608660  .00002145  00000+0  11932-3 0  9996
2 63353  97.5826 248.6566 0017245 253.3946 106.5392 15.14654244 83493
LEMUR-2-THERMORAPTOR    
1 63354U 25061D   26272.86823597  .00002203  00000+0  12214-3 0  9991
2 63354  97.5829 248.4655 0016969 253.2850 106.6520 15.14738926 83459
LEMUR-2-NEUROSPICY      
1 63355U 25061E   26272.89787551  .00002130  00000+0  11794-3 0  9995
2 63355  97.5757 248.0405 0014819 256.8764 103.0815 15.14854571 83468
LEMUR-2-TILLINFINITY    
1 63356U 25061F   26273.15614909  .00002160  00000+0  11746-3 0  9992
2 63356  97.5742 248.6633 0016127 242.3647 117.5948 15.15461585 83531
LEMUR-2-KREMPEL-BRO1    
1 63357U 25061G   26272.87939636  .00002455  00000+0  13374-3 0  9994
2 63357  97.5743 248.2733 0016763 244.8955 115.0537 15.15257528 83486
LEMUR-2-LANGER2SPACE    
1 63358U 25061H   26272.92724929  .00002072  00000+0  11458-3 0  9994
2 63358  97.5747 248.0917 0014664 254.8970 105.0640 15.14941616 83479
LEMUR-2-BALTO           
1 63395U 25052BH  26273.01716858  .00001860  00000+0  15106-3 0  9996
2 63395  97.6618 165.3658 0008528  84.6038 275.6159 15.00810989 84481
LEMUR-2-KRISH           
1 64561U 25135AK  26272.84143390  .00002294  00000+0  20443-3 0  9991
2 64561  97.7829  27.1051 0000992  97.2931 262.8403 14.97004627 69575
LEMUR-2-HUBBLE-4        
1 64565U 25135AP  26273.24557778  .00000824  00000+0  83336-4 0  9997
2 64565  97.7781  25.9901 0001341 329.7032  30.4110 14.93645927 69552
LEMUR-2-SEJONG-2        
1 64586U 25135BL  26273.30736376  .00001783  00000+0  15829-3 0  9996
2 64586  97.7776  27.7157 0004076 346.6906  13.4207 14.97427592 69679
LEMUR-2-HUBBLE-5        
1 64840U 25135BT  26273.08949683  .00000653  00000+0  65958-4 0  9995
2 64840  97.7805  26.5966 0005376   4.7245 355.4025 14.94394934 69578
LEMUR-2-KARENDARRELL    
1 64841U 25135BU  26272.86198370  .00004276  00000+0  33590-3 0  9991
2 64841  97.7892  29.1161 0009785 208.8524 151.2160 15.01402168 69712
LEMUR-2-LUCILLE-ROSE    
1 65403U 25135BV  26273.03582776  .00003167  00000+0  25007-3 0  9995
2 65403  97.7630  29.1898 0012279 295.5418  64.4536 15.01376004 64368
LEMUR-2-AFFIE-WAUWIE    
1 66295U 25248C   26273.04998484  .00011550  00000+0  39116-3 0  9999
2 66295  45.3914 265.2709 0006746 333.1837  26.8704 15.30726132 50640
OTTER SDM               
1 66678U 25276N   26272.70240038  .00003350  00000+0  15486-3 0  9995
2 66678  97.4117 344.4711 0005526   9.4655 350.6684 15.20837866 46294
LEMUR-2-STAS-GORBUK     
1 66686U 25276W   26273.01064500  .00002996  00000+0  14101-3 0  9995
2 66686  97.4151 344.8059 0004863   8.9324 351.1997 15.20302365 46339
LEMUR-2-TEODOR          
1 66768U 25276DG  26273.00998116  .00003014  00000+0  13507-3 0  9995
2 66768  97.4057 345.1777 0002137 111.8274 248.3190 15.21998282 46383
LEMUR-2-LAILA           
1 66776U 25276DQ  26273.09955872  .00002749  00000+0  12261-3 0  9995
2 66776  97.4082 345.4549 0002203 129.4951 230.6480 15.22235433 46403
LEMUR-2-CELIJO-SB-PK    
1 66781U 25276DV  26272.99933479  .00003358  00000+0  26743-3 0  9995
2 66781  97.5150 340.3138 0003309 133.6838 226.4661 15.01020766 38349
LEMUR-2-FINNIAN         
1 66782U 25276DW  26272.75946089  .00002318  00000+0  18544-3 0  9996
2 66782  97.5184 340.5003 0010056 106.3052 253.9280 15.01106937 35683
LEMUR-2-STARLIGHT       
1 66783U 25276DX  26273.06751834  .00003012  00000+0  24626-3 0  9994
2 66783  97.5133 340.1283 0018173 130.0812 230.2008 14.99960685 45917
LEMUR-2-TARTIFLETTE     
1 66784U 25276DY  26272.99940191  .00003145  00000+0  25716-3 0  9990
2 66784  97.5133 340.0719 0016949 137.2073 223.0474 14.99943055 45906
LEMUR-2-VUKASIN         
1 66785U 25276DZ  26273.11023887  .00002192  00000+0  17575-3 0  9995
2 66785  97.4999 340.5778 0006060 101.4218 258.7688 15.01100045 45880
LEMUR-2-HOTSPUR-TOM     
1 66786U 25276EA  26272.73145815  .00003113  00000+0  25502-3 0  9992
2 66786  97.5119 339.7649 0017418 135.5531 224.7094 14.99876384 45794
LEMUR-2-MYRA            
1 66787U 25276EB  26272.74078127  .00003664  00000+0  28950-3 0  9996
2 66787  97.5342 340.3117 0017143 152.2748 207.9394 15.01164542 45899
LEMUR-2 FIKRETDENGIZ    
1 67363U 26004A   26272.99059369  .00001784  00000+0  19549-3 0  9996
2 67363  97.8095 270.0295 0009386 145.8463 214.3360 14.88970084 38871
TWILIGHT-1 OBJECT B     
1 67364U 26004B   26272.93743433  .00000916  00000+0  10570-3 0  9994
2 67364  97.8140 269.9178 0009504 137.5307 222.6647 14.87991609 38861
LEMUR-2-MARIO-SOUSA     
1 67365U 26004C   26272.95922176  .00001521  00000+0  16683-3 0  9994
2 67365  97.8062 269.9888 0008915 146.3508 213.8277 14.89164022 38885
LEMUR-2-SONNENBLUME     
1 67367U 26004E   26273.24943060  .00001401  00000+0  15561-3 0  9995
2 67367  97.8063 270.2045 0008610 147.0016 213.1740 14.88760223 38929
LEMUR-2-WOBLER          
1 67368U 26004F   26273.22237856  .00001923  00000+0  20947-3 0  9996
2 67368  97.8114 270.4169 0009000 137.0424 223.1497 14.89142569 38920
LEMUR-2-GRAM-E-SUE      
1 67370U 26004H   26273.22272945  .00002120  00000+0  23122-3 0  9995
2 67370  97.8049 270.1993 0007746 147.6757 212.4936 14.88983471 38926
LEMUR-2-KATIE           
1 67387U 26004AA  26272.95541678  .00002595  00000+0  26971-3 0  9995
2 67387  97.8104 270.7508 0004590  99.9775 260.1961 14.90765535 38916
LEMUR-2-HCS-BAZUS       
1 67388U 26004AB  26272.95392069  .00002515  00000+0  26157-3 0  9992
2 67388  97.8091 270.7151 0004267  95.6527 264.5177 14.90753503 38914
