ISS (ZARYA)             
1 25544U 98067A   26254.62728023  .00005127  00000+0  10088-3 0  9993
2 25544  51.6304 232.2787 0004958 129.1564 230.9865 15.49080967585152
POISK                   
1 36086U 09060A   26254.62728023  .00005127  00000+0  10088-3 0  9991
2 36086  51.6304 232.2787 0004958 129.1564 230.9865 15.49080967585975
CSS (TIANHE)            
1 48274U 21035A   26254.89562246  .00017425  00000+0  21444-3 0  9993
2 48274  41.4684 155.5829 0002605 272.3198  87.7342 15.59830354306704
ISS (NAUKA)             
1 49044U 21066A   26254.62728023  .00005127  00000+0  10088-3 0  9999
2 49044  51.6304 232.2787 0004958 129.1564 230.9865 15.49080967586019
FREGAT DEB              
1 49271U 11037PF  26254.72648799  .00016795  00000+0  23811-1 0  9999
2 49271  51.6434 101.2718 0940505 114.5849 255.5900 12.44344051235816
CSS (WENTIAN)           
1 53239U 22085A   26254.89562246  .00017425  00000+0  21444-3 0  9996
2 53239  41.4684 155.5829 0002605 272.3198  87.7342 15.59830354288238
CSS (MENGTIAN)          
1 54216U 22143A   26254.89562246  .00017425  00000+0  21444-3 0  9997
2 54216  41.4684 155.5829 0002605 272.3198  87.7342 15.59830354307449
HRC MONOBLOCK CAMERA    
1 66052U 98067XR  26254.87327290  .00204321  26952-4  57604-3 0  9991
2 66052  51.6162 188.6107 0004767 122.8057 237.3409 15.93069984 51729
SZ-21 MODULE            
1 66515U 25246C   26254.34908864  .00059690  00000+0  24672-3 0  9995
2 66515  41.4704 127.5508 0012060 276.8145  83.1331 15.84823564 47371
DUPLEX                  
1 66906U 98067XS  26254.27769091  .00043270  00000+0  36658-3 0  9993
2 66906  51.6242 212.6333 0004446 120.9992 239.1442 15.69233212 44141
KNACKSAT-2              
1 67683U 98067XZ  26254.29247162  .00057179  00000+0  49913-3 0  9999
2 67683  51.6239 218.7617 0007833 147.0851 213.0634 15.68357883 33758
GXIBA-1                 
1 67685U 98067YB  26254.91938442  .00083313  00000+0  61552-3 0  9990
2 67685  51.6227 213.1648 0008581 146.7135 213.4404 15.72205424 33883
UITMSAT-2               
1 67686U 98067YC  26253.59366184  .00179058  00000+0  83074-3 0  9997
2 67686  51.6208 214.7641 0007840 114.8320 245.3498 15.82332066 33748
LEOPARD                 
1 67687U 98067YD  26254.90347659  .00142785  00000+0  10037-2 0  9995
2 67687  51.6252 213.8470 0007796 125.5822 234.5904 15.73146341 33790
HMU-SAT2                
1 67688U 98067YE  26254.31334325  .00117037  00000+0  69660-3 0  9996
2 67688  51.6244 213.6175 0007749 117.7047 242.4741 15.77060963 33743
CREW DRAGON 12          
1 67796U 26031A   26254.62728023  .00005127  00000+0  10088-3 0  9990
2 67796  51.6304 232.2787 0004958 129.1564 230.9865 15.49080967586080
CYGNUS NG-24            
1 68689U 26079A   26254.62728023  .00005127  00000+0  10088-3 0  9994
2 68689  51.6304 232.2787 0004958 129.1564 230.9865 15.49080967586206
PROGRESS-MS 34          
1 68837U 26093A   26254.62728023  .00005127  00000+0  10088-3 0  9995
2 68837  51.6304 232.2787 0004958 129.1564 230.9865 15.49080967586245
TIANZHOU-10             
1 69049U 26102A   26254.89562246  .00017425  00000+0  21444-3 0  9996
2 69049  41.4684 155.5829 0002605 272.3198  87.7342 15.59830354307483
SHENZHOU-23 (SZ-23)     
1 69180U 26113A   26254.89562246  .00017425  00000+0  21444-3 0  9994
2 69180  41.4684 155.5829 0002605 272.3198  87.7342 15.59830354307265
