TDRS 3                  
1 19548U 88091B   26276.23012117 -.00000304  00000+0  00000+0 0  9999
2 19548  12.5225 340.2797 0039155 350.5467  75.0509  1.00266750126474
HST                     
1 20580U 90037B   26280.69404208  .00004543  00000+0  13615-3 0  9999
2 20580  28.4733  30.9626 0001517 337.3513  22.7016 15.31852805805839
TDRS 5                  
1 21639U 91054B   26281.21844105  .00000073  00000+0  00000+0 0  9992
2 21639  14.0583 352.9319 0009739 254.1982  40.7071  1.00271839128848
TDRS 6                  
1 22314U 93003B   26277.05460726 -.00000303  00000+0  00000+0 0  9996
2 22314  14.1862 356.2374 0009851 206.6080 143.7017  1.00268031123494
TDRS 7                  
1 23613U 95035B   26279.77137350 -.00000250  00000+0  00000+0 0  9992
2 23613  13.2921 347.4123 0010058  98.4820 296.3250  1.00267580114376
ISS (ZARYA)             
1 25544U 98067A   26281.01472253  .00004830  00000+0  96519-4 0  9991
2 25544  51.6313 101.7328 0006803 235.9979 124.0363 15.48769982589240
TERRA                   
1 25994U 99068A   26281.28637913  .00000202  00000+0  50033-4 0  9997
2 25994  97.9330 326.2786 0001489 197.1463 233.7719 14.61171389426127
TDRS 8                  
1 26388U 00034A   26280.82818699 -.00000204  00000+0  00000+0 0  9998
2 26388  12.8596  30.3458 0001514 163.8111 205.2377  1.00276290 96317
TIMED                   
1 26998U 01055B   26280.66837923  .00000801  00000+0  75910-4 0  9991
2 26998  74.0699   8.5001 0001152 225.8767 134.2323 14.95495021347632
AQUA                    
1 27424U 02022A   26281.23900589  .00000467  00000+0  10248-3 0  9994
2 27424  98.4434 252.8669 0001002  64.0468 352.4100 14.62225897299799
SORCE                   
1 27651U 03004A   26281.22310992  .00001814  00000+0  13882-3 0  9993
2 27651  39.9921 336.5034 0016571 146.5350 213.6494 15.04202167288920
AURA                    
1 28376U 04026A   26281.30063679  .00000452  00000+0  10105-3 0  9991
2 28376  98.3562 238.7739 0001081  69.8689 290.2627 14.61464944182738
SWIFT                   
1 28485U 04047A   26280.56072189  .00228744  00000+0  73284-3 0  9991
2 28485  20.5512  28.5789 0004464  98.4087 261.6869 15.89081926204617
THEMIS A                
1 30580U 07004A   26281.04328416 -.00000135  00000+0  00000+0 0  9992
2 30580   9.4780  99.8768 8326942 221.2312  31.7991  0.87844060 42272
THEMIS D                
1 30797U 07004D   26280.23808249 -.00000229  00000+0  00000+0 0  9993
2 30797   8.3060  73.6367 8299693 249.5816  13.9614  0.87844556 42061
THEMIS E                
1 30798U 07004E   26280.64122515 -.00000252  00000+0  00000+0 0  9990
2 30798   7.2161  89.4316 8411735 237.7496  29.1474  0.87839642 66910
FGRST (GLAST)           
1 33053U 08029A   26280.96331435  .00002585  00000+0  88908-4 0  9991
2 33053  25.5812 141.1131 0007688 216.2024 143.7995 15.24448517 12919
TDRS 11                 
1 39070U 13004A   26281.27737745  .00000069  00000+0  00000+0 0  9991
2 39070   3.6951  32.8908 0002443  34.6280 234.9545  1.00276583 47826
TDRS 12                 
1 39504U 14004A   26281.04788650 -.00000282  00000+0  00000+0 0  9998
2 39504   4.0986  20.8062 0006667 225.6530 106.4912  1.00275945 45405
GPM-CORE                
1 39574U 14009C   26281.16658873  .00004378  00000+0  96806-4 0  9999
2 39574  64.9694 289.5211 0010771 269.9161  90.0746 15.45255886715262
MMS 1                   
1 40482U 15011A   26281.33336806 -.00001193  00000+0  00000+0 0  9990
2 40482  72.9724 347.5100 8250125 169.8223 320.6016  0.28080757  1360
MMS 2                   
1 40483U 15011B   26281.33336806 -.00001194  00000+0  00000+0 0  9992
2 40483  72.9769 347.5089 8252952 169.8231 320.5765  0.28080701  1375
MMS 3                   
1 40484U 15011C   26281.33336806 -.00001194  00000+0  00000+0 0  9993
2 40484  72.9759 347.5209 8251274 169.8304 320.5513  0.28080499  1359
MMS 4                   
1 40485U 15011D   26281.33336806 -.00001195  00000+0  00000+0 0  9995
2 40485  72.9680 347.5045 8252413 169.8391 320.5830  0.28055737  1374
TDRS 13                 
1 42915U 17047A   26281.09430963 -.00000112  00000+0  00000+0 0  9996
2 42915   3.4948   5.4416 0012376 125.1091 268.7225  1.00271380 33481
NOAA 20 (JPSS-1)        
1 43013U 17073A   26281.27221636  .00000021  00000+0  31019-4 0  9997
2 43013  98.7855 219.7618 0000584  31.3062 328.8149 14.19529563460517
