NIMIQ 2                 
1 27632U 02062A   26270.46573742 -.00000060  00000+0  00000+0 0  9990
2 27632   9.6769  55.7779 0005970 128.6092 240.3681  1.00273235 45217
ANIK F2                 
1 28378U 04027A   26270.24638468 -.00000043  00000+0  00000+0 0  9995
2 28378   3.5429  78.0873 0003075  95.7213 169.8616  1.00272109 42283
ANIK F1R                
1 28868U 05036A   26271.24753547 -.00000068  00000+0  00000+0 0  9994
2 28868   4.5695  75.2341 0002462  76.9026 196.7333  1.00271961 47481
ANIK F3                 
1 31102U 07009A   26271.24454286  .00000005  00000+0  00000+0 0  9999
2 31102   1.4563  82.4201 0002776 107.5800 146.3878  1.00272281 47593
NIMIQ 4                 
1 33373U 08044A   26271.25418558 -.00000215  00000+0  00000+0 0  9998
2 33373   0.0524  86.2549 0001875 105.0008 185.3134  1.00272638 66018
TELSTAR 11N             
1 34111U 09009A   26271.03918671 -.00000245  00000+0  00000+0 0  9991
2 34111   0.0144 134.8837 0002643  54.4160 154.1050  1.00272364 47271
TERRESTAR-1             
1 35496U 09035A   26270.88218205 -.00000049  00000+0  00000+0 0  9997
2 35496   5.2411  48.6460 0001903 114.6600  49.9684  1.00272837 63167
NIMIQ 5                 
1 35873U 09050A   26271.25775488 -.00000252  00000+0  00000+0 0  9992
2 35873   0.0152 117.7683 0002906  70.4596 198.9316  1.00272018 62373
SKYTERRA 1              
1 37218U 10061A   26271.24929726 -.00000111  00000+0  00000+0 0  9990
2 37218   5.3417  50.5921 0002121 144.9956 159.9120  1.00273221 58221
NIMIQ 6                 
1 38342U 12026A   26271.19243640 -.00000169  00000+0  00000+0 0  9993
2 38342   0.0159 100.9324 0002960  89.4303 154.8128  1.00272176 51450
ANIK G1                 
1 39127U 13014A   26271.24846832 -.00000069  00000+0  00000+0 0  9990
2 39127   0.0202 110.0205 0003155  92.0031 147.1760  1.00271623 49287
TELSTAR 12V             
1 41036U 15068A   26270.82983515 -.00000114  00000+0  00000+0 0  9997
2 41036   0.0195 143.9726 0002272  49.0154  97.3978  1.00271504 39655
VIASAT-2                
1 42740U 17029A   26270.47660269 -.00000260  00000+0  00000+0 0  9990
2 42740   0.0202 246.7718 0001054 273.8414 307.3113  1.00271450 34226
LEO 1 (LEO VANTAGE 1)   
1 43113U 18004C   26271.23109956  .00001418  00000+0  10200-3 0  9997
2 43113  99.2429 203.0198 0349135 122.9051 240.6252 14.68308102452608
TELSTAR 19V             
1 43562U 18059A   26269.89375605 -.00000276  00000+0  00000+0 0  9995
2 43562   0.0111 177.5030 0002613   7.6591  79.2942  1.00270226 30161
TELSTAR 18V             
1 43611U 18069A   26270.93140892 -.00000288  00000+0  00000+0 0  9999
2 43611   0.0251 255.0440 0001924 294.3612 290.6488  1.00271900 29679
AMOS-17                 
1 44479U 19050A   26270.90748881  .00000115  00000+0  00000+0 0  9990
2 44479   0.0399 341.9563 0001800 207.1086 161.3448  1.00274118 26217
