DMSP 5D-3 F16 (USA 172) 
1 28054U 03048A   26278.99857848  .00000026  00000+0  37135-4 0  9997
2 28054  98.9841 303.5357 0006940 184.9580 186.1001 14.14493402185159
METEOSAT-9 (MSG-2)      
1 28912U 05049B   26278.92481238  .00000113  00000+0  00000+0 0  9995
2 28912   9.6091  53.0440 0001449   0.9906 339.1841  1.00271695  8106
DMSP 5D-3 F17 (USA 191) 
1 29522U 06050A   26278.97374116  .00000100  00000+0  74147-4 0  9991
2 29522  98.7428 283.3032 0011215  98.8371 261.4073 14.15012909 28091
FENGYUN 3A              
1 32958U 08026A   26278.84665948  .00000032  00000+0  35961-4 0  9990
2 32958  98.6968 217.6420 0008881 162.5212 197.6272 14.19590105951106
EWS-G3 (GOES 14)        
1 35491U 09033A   26278.87463505  .00000005  00000+0  00000+0 0  9993
2 35491   1.9698  81.4589 0002224 117.3778 198.4818  1.00070478  7694
DMSP 5D-3 F18 (USA 210) 
1 35951U 09057A   26278.95078883  .00000136  00000+0  93784-4 0  9991
2 35951  98.9182 259.5520 0010146 300.4687  59.5484 14.14948682875259
EWS-G2 (GOES 15)        
1 36411U 10008A   26278.51016975  .00000006  00000+0  00000+0 0  9997
2 36411   1.5758  81.7318 0004773  94.0596  85.3964  1.00272744 60744
FENGYUN 3B              
1 37214U 10059A   26278.97942697  .00000042  00000+0  45186-4 0  9993
2 37214  98.9509 325.3991 0021259 230.9786 199.0017 14.14860429823093
SUOMI NPP               
1 37849U 11061A   26278.93242401  .00000051  00000+0  45488-4 0  9998
2 37849  98.8040 219.0855 0002265  35.9101 324.2227 14.19536853774157
METEOSAT-10 (MSG-3)     
1 38552U 12035B   26278.74449884 -.00000019  00000+0  00000+0 0  9996
2 38552   4.9298  60.3913 0000929 146.4238  75.7814  1.00274441 51963
METOP-B                 
1 38771U 12049A   26278.91372569  .00000039  00000+0  37514-4 0  9994
2 38771  98.6380 328.1371 0002892  48.4112 311.7313 14.21462805728995
INSAT-3D                
1 39216U 13038B   26278.92177738 -.00000354  00000+0  00000+0 0  9996
2 39216   2.2057  81.0095 0001911 134.8678 260.0932  1.00271970 48192
FENGYUN 3C              
1 39260U 13052A   26278.92986902  .00000058  00000+0  50451-4 0  9992
2 39260  98.5148 247.7972 0015739  66.3734 293.9091 14.15775422674232
METEOR-M 2              
1 40069U 14037A   26278.93847997 -.00000211  00000+0 -77156-4 0  9990
2 40069  98.5275 250.8323 0006996  76.8333 283.3625 14.21486857635054
HIMAWARI-8              
1 40267U 14060A   26278.95702473 -.00000293  00000+0  00000+0 0  9995
2 40267   0.0438  27.3424 0001382 207.5432 264.9410  1.00272856 43874
FENGYUN 2G              
1 40367U 14090A   26278.97799988 -.00000313  00000+0  00000+0 0  9991
2 40367   5.9131  71.4173 0004498 186.5437 208.3255  1.00263929 43119
METEOSAT-11 (MSG-4)     
1 40732U 15034A   26278.81764582  .00000051  00000+0  00000+0 0  9999
2 40732   3.4733  70.2970 0000476  99.8179 148.3201  1.00279643  8327
ELEKTRO-L 2             
1 41105U 15074A   26278.74163883 -.00000130  00000+0  00000+0 0  9996
2 41105   6.9663  69.1173 0002661 194.7370   3.0343  1.00270526 39611
SENTINEL-3A             
1 41335U 16011A   26278.95161499  .00000029  00000+0  30201-4 0  9994
2 41335  98.6254 344.7331 0001290 104.1749 255.9575 14.26738434553851
INSAT-3DR               
1 41752U 16054A   26278.87804678 -.00000094  00000+0  00000+0 0  9990
2 41752   0.0883  86.7002 0012576 178.3207 139.6366  1.00270993 36927
HIMAWARI-9              
1 41836U 16064A   26278.95702512 -.00000292  00000+0  00000+0 0  9997
2 41836   0.0239 306.8573 0001100 272.0467 281.0349  1.00273848 36324
GOES 16                 
1 41866U 16071A   26278.86635271 -.00000108  00000+0  00000+0 0  9991
2 41866   0.6097  83.9860 0002242 149.3225 348.4314  1.00271050 36214
FENGYUN 4A              
1 41882U 16077A   26278.98267991 -.00000373  00000+0  00000+0 0  9992
2 41882   2.5966  78.8511 0008661 168.0653 244.6441  1.00273295 36040
CYGFM05                 
1 41884U 16078A   26278.95502783  .00025530  00000+0  28738-3 0  9996
2 41884  34.9550 244.4470 0004741 154.8380 205.2577 15.61535869546050
CYGFM04                 
1 41885U 16078B   26278.90773393  .00038236  00000+0  32968-3 0  9996
2 41885  34.9301 205.9833 0005445 219.1011 140.9324 15.68149617546355
CYGFM02                 
1 41886U 16078C   26278.89153749  .00051978  00000+0  35950-3 0  9994
2 41886  34.9379 196.4406 0006465 229.0838 130.9332 15.73335671546565
CYGFM01                 
1 41887U 16078D   26278.95282768  .00026877  00000+0  29226-3 0  9995
2 41887  34.9379 244.5145 0004322 151.7310 208.3651 15.62417205546013
CYGFM08                 
1 41888U 16078E   26278.94671616  .00033539  00000+0  31504-3 0  9994
2 41888  34.9412 220.7210 0006125 189.8621 170.1986 15.66060386546319
CYGFM07                 
1 41890U 16078G   26278.89791808  .00034183  00000+0  31926-3 0  9991
2 41890  34.9423 209.2766 0005653 211.7139 148.3248 15.66202771546332
CYGFM03                 
1 41891U 16078H   26278.93383140  .00034449  00000+0  32209-3 0  9993
2 41891  34.9382 210.9500 0004611 203.9009 156.1504 15.66181991546314
FENGYUN 3D              
1 43010U 17072A   26278.93297169  .00000048  00000+0  44522-4 0  9998
2 43010  99.0284 255.4320 0002544  89.3982 270.7485 14.19758300460705
NOAA 20 (JPSS-1)        
1 43013U 17073A   26278.87570988  .00000051  00000+0  45062-4 0  9992
2 43013  98.7851 217.3843 0000698  30.5499 329.5717 14.19529245460176
GOES 17                 
1 43226U 18022A   26278.58425147 -.00000199  00000+0  00000+0 0  9999
2 43226   1.2157  83.8207 0001392 165.1261 246.1575  1.00272152 31532
SENTINEL-3B             
1 43437U 18039A   26278.78448157  .00000038  00000+0  33589-4 0  9993
2 43437  98.6250 344.7174 0000977  67.6486 292.4798 14.26736431439894
FENGYUN 2H              
1 43491U 18050A   26278.97401321 -.00000143  00000+0  00000+0 0  9994
2 43491   3.3096  77.6626 0003176 156.3309 210.5810  1.00269709 30556
METOP-C                 
1 43689U 18087A   26278.92876765  .00000026  00000+0  32000-4 0  9995
2 43689  98.7307 336.6571 0000408 122.3576 237.7641 14.21476303410562
GEO-KOMPSAT-2A          
1 43823U 18100A   26278.92177738 -.00000361  00000+0  00000+0 0  9998
2 43823   0.0535  31.3394 0001270 110.1802 333.1864  1.00270230 28745
METEOR-M2 2             
1 44387U 19038A   26278.95164488  .00000136  00000+0  78679-4 0  9997
2 44387  98.9277 267.9355 0002289  71.4685 288.6741 14.24390435377063
ARKTIKA-M 1             
1 47719U 21016A   26278.14569832 -.00000119  00000+0  00000+0 0  9991
2 47719  63.2874  41.4466 7326318 270.4664  14.3069  2.00635643 40998
FENGYUN 3E              
1 49008U 21062A   26278.97539331 -.00000059  00000+0 -72441-5 0  9995
2 49008  98.7565 281.1783 0002584 112.4352 247.7098 14.19912395272305
GOES 18                 
1 51850U 22021A   26278.71737206  .00000079  00000+0  00000+0 0  9998
2 51850   0.0119  76.1688 0000641 189.4956 229.9955  1.00271298  7706
NOAA 21 (JPSS-2)        
1 54234U 22150A   26278.90671501  .00000030  00000+0  34874-4 0  9994
2 54234  98.7133 215.8593 0000891 208.5164 151.5964 14.19551993202257
METEOSAT-12 (MTG-I1)    
1 54743U 22170C   26278.88697946 -.00000024  00000+0  00000+0 0  9992
2 54743   0.7563  22.5928 0003078  95.0370 215.9075  1.00274894 14083
TIANMU-1 03             
1 55973U 23039A   26278.92298228  .00014247  00000+0  25451-3 0  9990
2 55973  97.5266  97.5180 0003656  70.5660 289.5986 15.50144697197972
TIANMU-1 04             
1 55974U 23039B   26278.93053843  .00014586  00000+0  25412-3 0  9997
2 55974  97.5188  96.6951 0004455  52.0922 308.0732 15.50846973197990
TIANMU-1 05             
1 55975U 23039C   26278.97419309  .00014601  00000+0  26161-3 0  9995
2 55975  97.5249  97.1446 0003386  78.4455 281.7177 15.50055415197969
TIANMU-1 06             
1 55976U 23039D   26278.94204638  .00014536  00000+0  25443-3 0  9999
2 55976  97.5258  97.8633 0003108  74.2386 285.9208 15.50720655197993
FENGYUN 3G              
1 56232U 23055A   26272.26318046  .00016751  00000+0  25793-3 0  9990
2 56232  49.9916 169.2876 0010954  97.6393 262.5820 15.54217677196188
METEOR-M2 3             
1 57166U 23091A   26278.97204874 -.00000036  00000+0  32476-5 0  9992
2 57166  98.5963 331.6137 0003622 191.9112 168.1982 14.24053487170289
TIANMU-1 07             
1 57399U 23101A   26278.92928691  .00005052  00000+0  17183-3 0  9995
2 57399  97.2482 327.0655 0004204 100.2793 259.8923 15.30876922178587
TIANMU-1 08             
1 57400U 23101B   26278.96124796  .00005121  00000+0  17410-3 0  9996
2 57400  97.2472 326.8510 0005554  90.5291 269.6587 15.30874192178581
TIANMU-1 09             
1 57401U 23101C   26278.94376103  .00005255  00000+0  17868-3 0  9991
2 57401  97.2430 326.1902 0005078 102.4185 257.7625 15.30862288178584
TIANMU-1 10             
1 57402U 23101D   26278.91059949  .00005183  00000+0  17594-3 0  9991
2 57402  97.2509 327.3272 0006255 100.4254 259.7693 15.30916789178570
FENGYUN 3F              
1 57490U 23111A   26278.95645389  .00000004  00000+0  22199-4 0  9997
2 57490  98.6732 346.8401 0001479 104.0929 256.0412 14.19953440164588
TIANMU-1 11             
1 58645U 23205A   26278.96062683  .00004209  00000+0  15704-3 0  9999
2 58645  97.3421 298.8361 0007823 344.0433  16.0559 15.27928753154436
TIANMU-1 12             
1 58646U 23205B   26278.95057828  .00004438  00000+0  16712-3 0  9998
2 58646  97.3412 298.5215 0006221 329.8844  30.2037 15.27603863154419
TIANMU-1 13             
1 58647U 23205C   26278.98250375  .00004371  00000+0  16470-3 0  9991
2 58647  97.3437 298.8659 0004517 307.6619  52.4210 15.27594531154412
TIANMU-1 14             
1 58648U 23205D   26278.96531119  .00004240  00000+0  15974-3 0  9991
2 58648  97.3378 297.9442 0005358 313.4688  46.6105 15.27616529154412
TIANMU-1 19             
1 58660U 23208A   26278.90826580  .00006898  00000+0  21849-3 0  9990
2 58660  97.4590  35.9538 0003383 283.2992  76.7872 15.33059793154288
TIANMU-1 20             
1 58661U 23208B   26278.92529902  .00007112  00000+0  21684-3 0  9998
2 58661  97.4536  36.7240 0005474 289.4304  70.6346 15.34255420154393
TIANMU-1 21             
1 58662U 23208C   26278.93197311  .00008680  00000+0  24312-3 0  9997
2 58662  97.4602  39.9219 0005454 280.5659  79.4970 15.36857752154569
TIANMU-1 22             
1 58663U 23208D   26278.93190806  .00006736  00000+0  21773-3 0  9998
2 58663  97.4587  35.8103 0002421 323.5311  36.5766 15.32421295154284
TIANMU-1 15             
1 58700U 24004A   26278.96243508  .00004519  00000+0  17017-3 0  9999
2 58700  97.4661 105.2172 0005998 314.3936  45.6812 15.27608350152688
TIANMU-1 16             
1 58701U 24004B   26278.94745259  .00004501  00000+0  16944-3 0  9997
2 58701  97.4613 104.3735 0004700 332.2709  27.8279 15.27624058152680
TIANMU-1 17             
1 58702U 24004C   26278.93196490  .00004822  00000+0  18087-3 0  9990
2 58702  97.4638 104.8844 0004718 342.5403  17.5673 15.27710323152672
TIANMU-1 18             
1 58703U 24004D   26278.91403998  .00004247  00000+0  16069-3 0  9992
2 58703  97.4654 105.1337 0004279 321.5890  38.5044 15.27494302152672
INSAT-3DS               
1 58990U 24033A   26278.80201868 -.00000173  00000+0  00000+0 0  9991
2 58990   0.0311 102.2182 0001474 108.1319 174.9145  1.00269642 48174
METEOR-M2 4             
1 59051U 24039A   26278.97165728  .00000013  00000+0  25778-4 0  9994
2 59051  98.7167 236.9460 0006472 201.6027 158.4879 14.22439176135018
GOES 19                 
1 60133U 24119A   26278.58702481 -.00000266  00000+0  00000+0 0  9993
2 60133   0.0287  27.2850 0000753 242.6825 240.4528  1.00271864  8079
MTG-S1                  
1 64723U 25143A   26278.88706612 -.00000023  00000+0  00000+0 0  9994
2 64723   0.6125 345.2688 0004199 257.5387  90.9614  1.00274998  4524
METOP-SGA1              
1 65159U 25172A   26278.75184648  .00000002  00000+0  20939-4 0  9999
2 65159  98.7420 336.5772 0000868 102.2236 257.9039 14.21468956 59497
FENGYUN 3H              
1 65815U 25219A   26278.81334123  .00000027  00000+0  32934-4 0  9997
2 65815  98.6851 217.4624 0001566  86.9554 273.1802 14.19935530 53084
