APRIZESAT 2             
1 28366U 04025A   26269.73080890  .00000095  00000+0  42879-4 0  9993
2 28366  98.1139  70.0341 0104427 303.9850  55.1450 14.38070077166234
SAUDICOMSAT 1           
1 28369U 04025D   26269.62118175  .00000249  00000+0  67989-4 0  9992
2 28369  98.5788 282.5034 0033264  73.4535 287.0311 14.55531781178888
SAUDICOMSAT 2           
1 28370U 04025E   26269.28689424  .00000198  00000+0  62885-4 0  9999
2 28370  98.6644 284.3949 0054698 314.1349  45.5352 14.50029302174759
APRIZESAT 1             
1 28372U 04025G   26269.88272305  .00000158  00000+0  50980-4 0  9992
2 28372  98.6317 283.3882 0044048 204.6969 155.2117 14.51822029176660
NANOSAT-1               
1 28493U 04049B   26269.36198195  .00000813  00000+0  11394-3 0  9992
2 28493  98.2427  48.5953 0003469 345.9972  14.1142 14.80325483170419
SAUDICOMSAT 7           
1 31119U 07012C   26269.38954423  .00000398  00000+0  80535-4 0  9992
2 31119  98.3913 245.6640 0054417 238.7692 120.8172 14.66209904 37265
SAUDICOMSAT 6           
1 31121U 07012E   26269.75034854  .00000527  00000+0  11002-3 0  9999
2 31121  98.4236 239.2253 0071969  11.6774 348.6075 14.62642823 35038
SAUDICOMSAT 5           
1 31124U 07012H   26269.90298395  .00000367  00000+0  71767-4 0  9998
2 31124  98.3624 246.9174 0047567 164.0740 196.1973 14.68265256 38528
SAUDICOMSAT 3           
1 31125U 07012J   26269.82302503  .00000562  00000+0  99506-4 0  9995
2 31125  98.3277 247.3755 0040351  90.5643 270.0186 14.70829328 39766
SAUDICOMSAT 4           
1 31127U 07012L   26269.74727421  .00000445  00000+0  91581-4 0  9993
2 31127  98.4120 244.4575 0062210 301.8862  57.6296 14.64605345 36158
APRIZESAT 4             
1 35684U 09041D   26269.73773358  .00000489  00000+0  64801-4 0  9991
2 35684  98.1335 347.0426 0042953 353.9586   6.1104 14.84000735926422
APRIZESAT 3             
1 35686U 09041F   26269.67425292  .00001236  00000+0  11041-3 0  9995
2 35686  98.2204  67.8678 0062811  91.8582 268.9833 14.96487322931556
S-NET D                 
1 43186U 18014G   26269.70700180  .00004883  00000+0  24703-3 0  9995
2 43186  97.5253 173.8551 0009068  36.5254 323.6596 15.17468481474153
S-NET B                 
1 43187U 18014H   26269.72052797  .00004251  00000+0  21569-3 0  9998
2 43187  97.5257 173.8579 0009556  32.2525 327.9292 15.17435495474153
S-NET A                 
1 43188U 18014J   26269.70531959  .00004826  00000+0  24411-3 0  9996
2 43188  97.5266 174.0716 0009476  32.8717 327.3104 15.17476810474152
S-NET C                 
1 43189U 18014K   26269.72502379  .00004295  00000+0  21790-3 0  9990
2 43189  97.5285 174.1814 0010599  25.0348 335.1397 15.17426176472706
SALSAT                  
1 46495U 20068K   26269.48788141  .00007102  00000+0  23938-3 0  9997
2 46495  97.8880 278.8420 0007965 314.4768  45.5820 15.31055817330850
OOV-CUBE (TUBSAT-30)    
1 60240U 24128F   26269.91417504  .00001507  00000+0  12560-3 0  9994
2 60240  61.9933 230.7538 0030140 157.5865 202.6551 15.03130664121406
LPNTSAT-001 (IOD-1)     
1 68408U 26065A   26269.40855401  .00002267  00000+0  11137-3 0  9999
2 68408  97.3841 147.7117 0016805  17.0291 343.1504 15.18957874 27620
CHUANG XIN 26 (CX-26)   
1 69972U 26158A   26269.68470071 -.00000049  00000+0  47152-4 0  9999
2 69972  49.9854 330.2663 0005221 202.8999 157.1683 14.25133624 11189
